;Codigo;Nombre;Población;Calle;Teléfono 1;Centro;FechaCreación;GestorVinculador;Nombre Gestor Vinculador;TM;latitude;longitude
0;20001543;Tienda Mixta Leyes;Santiago de cali;CR 43 # 39 A - 13;3708925;2000.0;2/11/2018;;;1.0;3.4097779;-76.51418869999999
1;20002837;Tienda Super R;Santiago de cali;CR 83 # 34 - 26 ;3155769376;2000.0;21/12/2018;;;;3.3855764;-76.5217881
2;20003405;Tienda Mixta Geovanny;Santiago de cali;CL 72 T # 28 D - 4 - 34;3152365724;2000.0;31/12/2018;;;1.0;3.4238003;-76.49109779999999
3;20007444;Julio;Medellín;CR 50C#93-119;5877384;3000.0;20/11/2019;20006628.0;TIENDA PRUEBA GESTOR ZONA 10;2.0;6.285688899999999;-75.5598469
4;20007452;Distribuidora 2;Medellín;CR 53#93-68;5812599;3000.0;20/11/2019;20006628.0;TIENDA PRUEBA GESTOR ZONA 10;2.0;6.2859899;-75.5629532
5;20007733;Paiz;Medellín;CR 50B#93-59;3148408781;3000.0;28/11/2019;20006248.0;TIENDA PRUEBA VINCULACION DIANA MES;2.0;6.285163799999999;-75.55923229999999
6;20009871;Tienda la esquina;Medellín;CL 96#52-71;3105213201;3000.0;10/01/2020;20004654.0;Tienda Gestor Medellin Zona;2.0;6.2885857;-75.5631765
7;20012714;Tienda Charrupi;Santiago de cali;CL 40#54-90;300100903;2000.0;9/05/2020;;;2.0;3.3975026;-76.51834099999999
8;20014511;Tienda Martha;Santiago de Cali;CR 44 A # 37 - 32;3046471048;2000.0;29/08/2020;20006228.0;Laura Cedeño - Gestora Vinculador;1.0;3.4096107;-76.5168904
9;20014919;Papelería y variedades estefania;Santiago de cali;CL 54#83C2-38;3177950309;2000.0;17/09/2020;;;2.0;3.3798155;-76.5107443
10;20014920;Tiendas Pronto plus;Santiago de cali;CR 1 BIS#58-16;3215083034;2000.0;18/09/2020;;;2.0;3.4805669;-76.4979084
11;20014921;tienda salome;Santiago de cali;CL 72V # 28E - 56;3218322172;2000.0;18/09/2020;3000019.0;YHONNY JAIR ANDRADE BRAVO;1.0;3.4197295;-76.49251009999999
12;20014922;Tienda danna;Medellín;CR 95 A#70 GB-100 ;3057695264;3000.0;18/09/2020;20005905.0;Tienda gestor Medellín zona 3;2.0;6.2874586;-75.5999181
13;20014923;Granero el plan 2;Medellín;CR 49B#120-03;3023886816;3000.0;18/09/2020;20014870.0;Dayhana Meneses - Gestor Zona;1.0;6.304295199999999;-75.55113709999999
14;20014924;Tienda Doña Gloria;Medellín;CR 47#110-62;3023388850;3000.0;18/09/2020;;;2.0;6.3001469;-75.55028120000001
15;20014925;Mercados rapunzel;Medellín;CL 70 GB#95-96  ;3116158050;3000.0;18/09/2020;20005905.0;Tienda gestor Medellín zona 3;2.0;6.2876014;-75.5979849
16;20014926;YURI DONDE MICHEL;Medellín;CL 70GA#95-28 ;3006546326;3000.0;18/09/2020;20005905.0;Tienda gestor Medellín zona 3;2.0;6.2476376;-75.56581530000001
17;20014927;La Esquina;Medellín;CL 113CC # 63 - 30;3135031988;3000.0;18/09/2020;3000030.0;ALFONSO TABORDA TABORDA;1.0;6.3084375;-75.5588461
18;20014928;SUPER TIENDA LOS LOPEZ;Medellín;CL 70GA#95-138 ;3124766953;3000.0;18/09/2020;20005905.0;Tienda gestor Medellín zona 3;2.0;6.2476376;-75.56581530000001
19;20014929;LA TIRNDA V;Medellín;CL 70G#95-115 ;3016394858;3000.0;18/09/2020;20005905.0;Tienda gestor Medellín zona 3;2.0;6.2542535;-75.6257748
20;20014930;Tienda Sandra;Medellín;CR 42C # 107E - 42;3217231238;3000.0;18/09/2020;3000041.0;SARA ALEJANDRA LONDOÑO BALLESTEROS;1.0;6.296657199999999;-75.5476918
21;20014931;COLIBRI;Medellín;CL 70F#95-10 ;3192362630;3000.0;18/09/2020;20005905.0;Tienda gestor Medellín zona 3;2.0;6.288021899999999;-75.5982902
22;20014932;Tienda la curva;Medellín;CL 56B#19-22;3122110988;3000.0;18/09/2020;20011348.0;TIENDA DE PRUEBA Gestor zona 12;1.0;6.242433399999999;-75.54264789999999
23;20014933;granero Sepúlveda;Santiago de cali;CR 74B # 1B - 01;3136962149;2000.0;18/09/2020;3000019.0;YHONNY JAIR ANDRADE BRAVO;1.0;3.3894008;-76.55528369999999
24;20014934;economía;Santiago de cali;CL 75 # 1B - 03;3216336633;2000.0;18/09/2020;3000019.0;YHONNY JAIR ANDRADE BRAVO;1.0;3.4962472;-76.49372850000002
25;20014935;economía;Santiago de cali;CL 75 # 1B - 03;3216336633;2000.0;18/09/2020;3000019.0;YHONNY JAIR ANDRADE BRAVO;1.0;3.4962472;-76.49372850000002
26;20014936;Panaderia las delicias;Medellín;CL 70 F#95-18 ;3147413473;3000.0;18/09/2020;20005905.0;Tienda gestor Medellín zona 3;2.0;6.288021899999999;-75.5982902
27;20014937;micelanea villa laguna;Santiago de cali;CR 74 # 1 - 47;3167236571;2000.0;18/09/2020;3000019.0;YHONNY JAIR ANDRADE BRAVO;1.0;3.3901084;-76.5544065
28;20014938;Tienda mixta claun;Medellín;CR 55#22A-17;3002274960;3000.0;18/09/2020;20011348.0;TIENDA DE PRUEBA Gestor zona 12;1.0;6.224523599999999;-75.5821862
29;20014939;Fruver c y b;Sabaneta;CL 75SUR#45-129;3167727821;3000.0;18/09/2020;;;2.0;6.1501157;-75.6190593
30;20014940;Licorera estefanny;Medellín;CR 77B#108-64;3235030753;3000.0;18/09/2020;;;2.0;6.307271699999999;-75.57415619999999
31;20014941;Tienda Mixta Guadalupe;Medellín;CL 46 # 32 - 30;3022224144;3000.0;18/09/2020;3000022.0;ALEJANDRO JEREZ LONDOÑO;1.0;6.239300399999999;-75.55586339999999
32;20014942;Rapi exprees;Santiago de cali;CR 62C#6A-39;3136448916;2000.0;18/09/2020;;;2.0;3.4025425;-76.5449514
33;20014943;Tienda La sexta;Santiago de cali;AV 6#22A-16;3152664059;2000.0;18/09/2020;;;2.0;3.453053;-76.5646964
34;20010235;Panadería El Encanto;Santiago de Cali;CR 25BIS#70-04;3164911917;2000.0;18/01/2020;20006223.0;Ximena Jaramillo - Gestor Zona;2.0;3.4342423;-76.50881919999999
35;20014646;tienda mixta;Yumbo;CR 3 OESTE # 1 - 114;3113016119;2000.0;4/09/2020;3000002.0;LORENA MANCILLA MOSQUERA;1.0;3.5853785;-76.4995357
36;20006976;La ventanita de edelmira;Medellín;CR 49A#110-147;3225793997;3000.0;12/11/2019;20004652.0;Tienda Gestor Medellin Zona 2;2.0;6.301235399999999;-75.5517301
37;20014683;Su Despensa;Santiago de cali;CR 23 # 03 - 59;3145343391;2000.0;7/09/2020;;;2.0;3.439006;-76.5382884
38;20014748;salsamentaria los paolos;Santiago de cali;CR 3 # 46A - 39;3153508981;2000.0;10/09/2020;3000011.0;ALEJANDRA MARIA CASTILLO ANGULO;1.0;3.464613;-76.5043416
39;20014749;salsamentaria los paolos;Santiago de cali;CR 3 # 46A - 39;3153508981;2000.0;10/09/2020;3000011.0;ALEJANDRA MARIA CASTILLO ANGULO;1.0;3.464613;-76.5043416
40;20014649;Tienda el bararon;Santiago de cali;CL 120 H#22-62;3116415648;2000.0;4/09/2020;;;2.0;3.4271814;-76.46279419999999
41;20014271;Tienda tres y una;Santiago de Cali;CR 26 O#108-74;3186887733;2000.0;20/08/2020;;;2.0;3.4180717;-76.4744168
42;20010303;Rancho De Santa Elena;Santiago de Cali;DG 70N#25H-26;3215260568;2000.0;20/01/2020;20006223.0;Ximena Jaramillo - Gestor Zona;2.0;3.4925591;-76.5167009
43;20001263;Tienda Mixta Los Paisas;Santiago de cali;CL 26 B # 24 A -30;3122002083;2000.0;8/08/2018;;;1.0;3.4333917;-76.5174275
44;20003048;Supermarket Peto;Santiago de cali;CR 62 # 2 B - 08;3234643269;2000.0;27/12/2018;;;;3.4043422;-76.55069910000002
45;20010309;Tienda Mixta Axel;Santiago de Cali;CR 28 A#72 J-100;3135221474;2000.0;20/01/2020;;;2.0;3.4260281;-76.4935173
46;20007042;Bello horizonte;Itaguí;CL 53A#31AE-27;3218520355;3000.0;13/11/2019;20006249.0;TIENDA PRUEBA VINCULACION ALEJANDRA;2.0;6.172374;-75.606517
47;20003790;Rapitiendaa Daniel;Santiago de cali;CL 10 # 13 - 46;8856035;2000.0;30/01/2019;;;;3.4439969;-76.53231269999999
48;20013616;Tienda Colombia;Candelaria;CR 9A # 22B-41;3135901693;2000.0;14/07/2020;20006228.0;Laura Cedeño - Gestora Vinculador;2.0;4.6060989;-74.0738748
49;20009929;Margarita;Medellín;CL 103 # 40- 22;3112165655;3000.0;11/01/2020;20006627.0;Tienda Gestor Medellin Zona;2.0;6.292369;-75.5483615
50;20010549;Lago Tiendas;Santiago de Cali;CR 26#72F-76;3214568530;2000.0;27/01/2020;;;2.0;3.4336785;-76.4904456
51;20010777;La Florecida;Envigado;TV 36 A SUR # 29-88;3218016378;3000.0;30/01/2020;20006248.0;TIENDA PRUEBA VINCULACION DIANA MES;2.0;6.167758999999999;-75.57965659999999
52;20008235;Tienda el Castillo;Santiago de cali;CR 28 E - 5 # 72 B - 73 ;3146550884;2000.0;10/12/2019;20005953.0;TIENDA PRUEBA VINCULACION LAURA;2.0;3.4198571;-76.49463899999999
53;20014751;Variedades Gelmi;Santiago de cali;CR 43B#48A-72;3166034114;2000.0;10/09/2020;20006228.0;Laura Cedeño - Gestora Vinculador;2.0;3.4021343;-76.5087676
54;20009677;Los Recuerdos De Ella;Medellín;CL 113A#64C-62;3046193297;3000.0;3/01/2020;20004880.0;TIENDA GESTOR MEDELLIN ZONA 5;2.0;6.308447999999999;-75.5620765
55;20014752;Tienda Mixta;Santiago de cali;CR 42D#48-93;3172666155;2000.0;10/09/2020;20006228.0;Laura Cedeño - Gestora Vinculador;2.0;3.4036075;-76.50777599999999
56;20007284;Las palmas;Santiago de cali;CR 26H#87-67;3137505767;2000.0;17/11/2019;20006221.0;Angie Paola Guapi - Gestor Zona;2.0;3.4311504;-76.4797415
57;20000780;Tienda Mixta;Santiago de cali;CL 72 # 23 A 11;6632754;2000.0;20/10/2017;;;1.0;3.4427262;-76.48921659999999
58;20005902;Betty;Santiago de cali;CR 28-2#103-50;3114003304;2000.0;16/09/2019;;;2.0;3.4142526;-76.4789698
59;20004810;Tienda la muneca;Itaguí;CL 36#63-70;5973356;3000.0;26/07/2019;20004652.0;Tienda Gestor Medellin Zona 2;1.0;6.1722103;-75.628959
60;20014753;Tienda Mixta;Santiago de cali;CR 42D#48-18;3233727534;2000.0;10/09/2020;20006228.0;Laura Cedeño - Gestora Vinculador;2.0;3.4039627;-76.5083392
61;20010988;La Economía;Santiago de Cali;CR 23A#72D3-28;3186370387;2000.0;7/02/2020;20006223.0;Ximena Jaramillo - Gestor Zona;2.0;3.4424726;-76.4885793
62;20014558;Las Estrellas;Medellín;CR 92 # 92-02 ;3147661855;3000.0;1/09/2020;20005905.0;Tienda gestor Medellín zona 3;2.0;6.246989699999999;-75.6163553
63;20003028;Tienda Mixta;Santiago de cali;CR 83 D ;3117747956;2000.0;27/12/2018;;;;3.3836775;-76.51711449999999
64;20014702;Granero Armenia;Santiago de cali;CR 11G#28-04;3043796682;2000.0;7/09/2020;;;2.0;3.4477697;-76.51596239999999
65;20001588;Helados la Ventana;Santiago de cali;CL 58 A # 3A - 05;3216209567;2000.0;2/11/2018;;;1.0;3.4665958;-76.49559479999999
66;20014655;tienda el royalito;Santiago de cali;CL 2B # 66 - 35;3156592137;2000.0;4/09/2020;3000004.0;MAYRA ALEJANDRA PALECHOR GOMEZ;1.0;3.3977647;-76.55148779999999
67;20014754;Panadería y pastelería Delicias los;Santiago de cali;CL 50#42B-BIS-72;3175187854;2000.0;10/09/2020;20006228.0;Laura Cedeño - Gestora Vinculador;2.0;3.4032183;-76.5066743
68;20014656;tienda el royalito;Santiago de cali;CL 2B # 66 - 35;3156592137;2000.0;4/09/2020;3000004.0;MAYRA ALEJANDRA PALECHOR GOMEZ;1.0;3.3977647;-76.55148779999999
69;20014657;dulcería la mona;Santiago de cali;CL 4 # 61 - 28;5554848;2000.0;4/09/2020;3000004.0;MAYRA ALEJANDRA PALECHOR GOMEZ;1.0;3.4503309;-76.5434697
70;20013492;Minimarket JS;Santiago de cali;CR 42#83-C40;3135488904;2000.0;6/07/2020;;;2.0;3.4194193;-76.54069659999999
71;20014755;Variedades Laura;Santiago de cali;CR 44A#48A-35;3167517880;2000.0;10/09/2020;20006228.0;Laura Cedeño - Gestora Vinculador;2.0;3.4019904;-76.5093809
72;20005764;El Progreso;Medellín;CR 51 # 95 - 28;3127198045;3000.0;11/09/2019;;;2.0;6.287607899999999;-75.56070969999999
73;20011019;Salsamentaria Gloria;Santiago de Cali;CR 26 H#72H-09;6638657;2000.0;8/02/2020;20006223.0;Ximena Jaramillo - Gestor Zona;2.0;3.4303407;-76.4843568
74;20014447;Tienda Laura;Santiago de Cali;CR 28 J # 72 O - 104;3173336076;2000.0;26/08/2020;;;2.0;3.4190586;-76.49681939999999
75;20007680;La Terminal;Medellín;CR 45 A # 95-61;3136142363;3000.0;27/11/2019;20006248.0;TIENDA PRUEBA VINCULACION DIANA MES;2.0;6.286889;-75.5528415
76;20008230;Frutas Y Verduras La 40;Medellín;CR 40 # 96-44;4955223;3000.0;10/12/2019;20006248.0;TIENDA PRUEBA VINCULACION DIANA MES;2.0;6.2875422;-75.5489353
77;20013087;Tienda Pacho;Medellín;CL 103 C # 65-30;3116208311;3000.0;8/06/2020;20004652.0;Tienda Gestor Medellin Zona 2;2.0;6.2978628;-75.56739519999999
78;20014660;Unicord;Santiago de cali;CR 12#48-3;3208602536;2000.0;4/09/2020;;;2.0;3.4487044;-76.5019981
79;20014703;Variedades Giselle;Santiago de cali;CR 26 Q#114-31;3153663208;2000.0;8/09/2020;;;2.0;3.4167042;-76.4729852
80;20005769;Mecateadero madre laura;Medellín;CR 53 # 93 -54;3184535402;3000.0;11/09/2019;;;2.0;6.2859538;-75.5630778
81;20014849;Donde pili;Caldas;CR 48#140SU-07;3046835053;3000.0;14/09/2020;;;2.0;5.29826;-75.2479061
82;20014757;Economía;Santiago de cali;CR 26P6#96-24;3157439780;2000.0;10/09/2020;;;2.0;3.4516467;-76.5319854
83;20003552;Tienda Mixta;Santiago de cali;CR 83 B # 17 - 61;3084055;2000.0;19/01/2019;;;;3.3846727;-76.5271644
84;20001962;Tienda Mixta Yaneth;Santiago de cali;CL 101 E # 24 B - 04;3162952982;2000.0;24/11/2018;;;1.0;3.4316428;-76.4673522
85;20003557;Tienda Gaby;Santiago de cali;CL 101 E # 23 - 99;3232849874;2000.0;19/01/2019;;;;3.4318764;-76.4656724
86;20002041;Tienda Mixta;Santiago de cali;CR 24 H # 85 -104;3153102490;2000.0;3/12/2018;;;1.0;3.4331015;-76.4692808
87;20011151;Tienda Mixta;Santiago de Cali;CR 26 J#72 J-95;6634524;2000.0;14/02/2020;20006222.0;Hector Fabio Bolívar - Gestor Zona;2.0;3.4282655;-76.4846762
88;20014663;Tienda Mixta;Santiago de cali;CR 46C#44-19;3117501202;2000.0;4/09/2020;20006228.0;Laura Cedeño - Gestora Vinculador;2.0;3.4034399;-76.514228
89;20013394;Tienda Maso;Medellín;CR 22B # 90 A-63 ;3122171270;3000.0;30/06/2020;20005905.0;Tienda gestor Medellín zona 3;2.0;6.2803394;-75.5394669
90;20010014;Tienda mixta;Santiago de cali;CR 24#60-15;3116305826;2000.0;14/01/2020;20006223.0;Ximena Jaramillo - Gestor Zona;2.0;3.4423213;-76.4933781
91;20014664;Tienda Mixta;Santiago de cali;CR 47#44-82;3274098;2000.0;4/09/2020;20006228.0;Laura Cedeño - Gestora Vinculador;2.0;3.4026647;-76.5143768
92;20014665;Tienda Mixta;Santiago de cali;CR 47A#45-24;3167063074;2000.0;4/09/2020;20006228.0;Laura Cedeño - Gestora Vinculador;2.0;3.4020197;-76.51434929999999
93;20006544;Tienda El Plan Numero 1;Medellín;CL 100 BB # 30BB -07;3046843492;3000.0;25/10/2019;20006248.0;TIENDA PRUEBA VINCULACION DIANA MES;2.0;6.291932;-75.5568858
94;20012285;Licores Y Distribuidora El Pondaje;Santiago de Cali;CL 70D#28B-02;3178350843;2000.0;1/04/2020;;;2.0;3.4770759;-76.4866455
95;20014666;Tienda Mixta;Santiago de cali;CR 47#46B-80;3178432395;2000.0;4/09/2020;20006228.0;Laura Cedeño - Gestora Vinculador;2.0;3.4017204;-76.5134112
96;20014758;Sofía;Santiago de cali;CR 8#48-103;3182591826;2000.0;10/09/2020;;;2.0;3.4527695;-76.500997
97;20011182;La Tienda Víctor;Medellín;CL 38C # 26-34;2223441;3000.0;17/02/2020;20006910.0;TIENDA PRUEBA GESTOR ZONA 11;2.0;6.231578799999999;-75.5534898
98;20014850;Tienda porras;Caldas;CR 47#126SU-50;3117710947;3000.0;14/09/2020;;;2.0;5.29826;-75.2479061
99;20014853;rapitienda el refugio;Santiago de cali;CR 44 # 18 - 116;3450119;2000.0;15/09/2020;3000004.0;MAYRA ALEJANDRA PALECHOR GOMEZ;1.0;3.4115656;-76.5233923
100;20011878;Arcoiris;Medellín;CL 49 # 1 AA - 45;3014364294;3000.0;11/03/2020;20006910.0;TIENDA PRUEBA GESTOR ZONA 11;2.0;6.251068;-75.57459279999999
101;20014162;La bendición de korin;Medellín;CR 55#89A-45;3002324341;3000.0;14/08/2020;;;2.0;6.282788000000001;-75.5658577
102;20004726;Legumbreria Florez;Itaguí;CL 69 # 54 - 57;3146294315;3000.0;24/07/2019;20004654.0;Tienda Gestor Medellin Zona;1.0;6.1842866;-75.6021902
103;20009657;La Bendición De Dios;Itagui;CL 47C # 59C - 43;3773279;3000.0;3/01/2020;20005716.0;Tienda Gestor Medellin Zona 8;2.0;6.178886599999999;-75.6126661
104;20014851;Tienda Ángel;Santiago de cali;CR 26 P1#80-10;3193966473;2000.0;14/09/2020;;;2.0;3.4320047;-76.47206179999999
105;20014632;El  chuzo de bertha;Santiago de cali;CR 26R1#124-06;3187079301;2000.0;3/09/2020;;;2.0;3.4128791;-76.4678725
106;20014633;El diamante;Yumbo;CR 5#15-33;3195561730;2000.0;3/09/2020;;;2.0;3.5815971;-76.4865336
107;20014852;Renacer;Yumbo;CR 19BIS#7D-09;3113660368;2000.0;14/09/2020;;;2.0;3.545337;-76.495026
109;20009114;El Eden;Medellín;CL 101 # 85-56;3003409267;3000.0;21/12/2019;20004652.0;Tienda Gestor Medellin Zona 2;2.0;6.3018079;-75.5842042
110;20008652;Marina tienda;Medellín;CL 56#14B-104;2692984;3000.0;16/12/2019;20004651.0;Tienda Gestor Medellin Zona;2.0;6.251576;-75.5606859
111;20007449;Supermercado Popular;Santiago de cali;CL 54 # 41 E - 3 -06;3154926680;2000.0;20/11/2019;20006225.0;Miguel Ortiz - Gestor Zona;2.0;3.4030441;-76.50290389999999
112;20004188;Tienda Mixta;Yumbo;CL 10 D  - 6 N - 32;3118874089;2000.0;15/02/2019;;;;3.5891808;-76.48928169999999
113;20010827;Tienda El Descuento;Santiago de cali;CL 48 # 47 A -03;3156205287;2000.0;31/01/2020;20006225.0;Miguel Ortiz - Gestor Zona;2.0;3.400478300000001;-76.51234699999999
114;20009115;La Alcancía;Medellín;CR 85 # 98A-10;3053332676;3000.0;21/12/2019;20004652.0;Tienda Gestor Medellin Zona 2;2.0;6.299328;-75.5846227
115;20005538;El Rancho De Jampi;Santiago de cali;CL 34 C # 28 D 1 - 27;3219902661;2000.0;22/08/2019;;;;3.4201854;-76.5092142
116;20014492;Rapitienda C Y M;Santiago de Cali;CL 41 # 44 A - 05;3146951702;2000.0;28/08/2020;20006228.0;Laura Cedeño - Gestora Vinculador;2.0;3.407349;-76.51463380000001
117;20010782;Granero Bernabe;Itaguí;CL 77 B #52 B -07;3104733357;3000.0;30/01/2020;20005716.0;Tienda Gestor Medellin Zona 8;2.0;6.1875966;-75.5954769
118;20009950;La 23;Medellín;CR 23 # 102 C- 59;2313232;3000.0;11/01/2020;20006627.0;Tienda Gestor Medellin Zona;2.0;6.2923825;-75.5383051
119;20010783;Las palmeras tienda;Itaguí;CL 77#,52C-12;3122695854;3000.0;30/01/2020;20005716.0;Tienda Gestor Medellin Zona 8;2.0;6.1876605;-75.5966134
120;20010784;El Balconsito Al Mar;Itaguí;CR 52 A # 74 -109;3008414858;3000.0;30/01/2020;20005716.0;Tienda Gestor Medellin Zona 8;2.0;6.1851081;-75.5968249
121;20008682;Tienda Taty;Medellín;CR 14 # 55 -25;3206176239;3000.0;16/12/2019;20005716.0;Tienda Gestor Medellin Zona 8;2.0;6.237720400000001;-75.53817
122;20006590;Tienda Reja Blanca;Medellín;CR 31 # 102 A -14;3043855595;3000.0;26/10/2019;20006248.0;TIENDA PRUEBA VINCULACION DIANA MES;2.0;6.2913948;-75.54188049999999
123;20010786;Los suarez;Itaguí;CR 52B#72-04;3008707698;3000.0;30/01/2020;20005716.0;Tienda Gestor Medellin Zona 8;2.0;6.1838049;-75.5985334
124;20010787;Cafetería chambery;Itaguí;CL 68#52A-23;3128348962;3000.0;30/01/2020;20005716.0;Tienda Gestor Medellin Zona 8;2.0;6.1824752;-75.59976329999999
125;20010789;Santa ana;Sabaneta;CR 32#71SUR-208;3184739772;3000.0;31/01/2020;20008806.0;TIENDA DE PRUEBA GESTOR ZONA 15;2.0;6.1412722;-75.6091029
126;20010790;Panadería sindy;Sabaneta;CR 29#73 SUR-128;3127453371;3000.0;31/01/2020;20008806.0;TIENDA DE PRUEBA GESTOR ZONA 15;2.0;6.1353556;-75.6089294
127;20010791;Granero mixto la 73;Sabaneta;CR 29#73 SUR-157;3017478222;3000.0;31/01/2020;20008806.0;TIENDA DE PRUEBA GESTOR ZONA 15;2.0;6.1353556;-75.6089294
128;20010794;Granero mixto la montaña;Sabaneta;CR 34 A#75 SUR-44;2882638;3000.0;31/01/2020;20008806.0;TIENDA DE PRUEBA GESTOR ZONA 15;2.0;6.1419646;-75.61343289999999
129;20010795;La cantaleta;Medellín;CR 1A#48-08;3147337488;3000.0;31/01/2020;20004654.0;Tienda Gestor Medellin Zona;2.0;6.229707299999999;-75.5285679
130;20010796;Panederia Juan Pablo;Medellín;CL 49A#2AB-45;3148510985;3000.0;31/01/2020;20004654.0;Tienda Gestor Medellin Zona;2.0;6.229893499999999;-75.5307802
131;20010797;TIENDA MILE;Medellín;CL 45B SUR#83-173;3052506449;3000.0;31/01/2020;20005905.0;Tienda gestor Medellín zona 3;2.0;6.1595616;-75.5902199
132;20010798;Confeti;Itaguí;CL 40B SUR#59-64;3104369436;3000.0;31/01/2020;20008805.0;Tienda Gestor Medellin Zona;2.0;6.1681832;-75.6190324
133;20010799;El gran buñuelo;Itaguí;CR 60D#40BSUR-18;3146540681;3000.0;31/01/2020;20008805.0;Tienda Gestor Medellin Zona;2.0;6.1854195;-75.6409125
134;20010800;AVICOLA LOS MARIN;Medellín;CL 48D SUR#56A-42;3162534932;3000.0;31/01/2020;20005905.0;Tienda gestor Medellín zona 3;2.0;6.177478799999999;-75.6391628
135;20010801;Donde amparo;Itaguí;CR 60D#38 SUR-02;3113825354;3000.0;31/01/2020;20008805.0;Tienda Gestor Medellin Zona;2.0;6.1853831;-75.6415062
136;20010803;La Palmita;Medellín;CR 8B#43D-52;3225793278;3000.0;31/01/2020;20004654.0;Tienda Gestor Medellin Zona;2.0;6.2061053;-75.5734416
137;20014854;La Guadalupe;Medellín;CR 28#107-93;3505665510;3000.0;15/09/2020;20014046.0;Tienda Gestor Medellin Zona;2.0;6.2952153;-75.5406806
138;20010806;Fruver bilbao;Medellín;CR 60D#36C SUR-15;3028277;3000.0;31/01/2020;20008805.0;Tienda Gestor Medellin Zona;2.0;6.307666299999999;-75.5580978
139;20010808;Sabores de mi tierra;Sabaneta;CL 53 SUR#40-09;3148234418;3000.0;31/01/2020;20008806.0;TIENDA DE PRUEBA GESTOR ZONA 15;2.0;6.154738000000001;-75.6016267
140;20010809;Tienda la 85;Medellín;CR 85#104-30;3117623150;3000.0;31/01/2020;20004880.0;TIENDA GESTOR MEDELLIN ZONA 5;2.0;6.3072681;-75.58407199999999
141;20010810;Las monas;Sabaneta;CL 49 D SUR#39 B-226;3117962590;3000.0;31/01/2020;20008806.0;TIENDA DE PRUEBA GESTOR ZONA 15;2.0;6.1624068;-75.6014448
142;20010811;Granero doble a;Medellín;CR 44A#10C-05;3195345857;3000.0;31/01/2020;20004654.0;Tienda Gestor Medellin Zona;2.0;6.268888899999999;-75.5541281
143;20012912;Rapitienda Calipso Plaza;Santiago de Cali;CR 28E#72F4-05;3155458435;2000.0;28/05/2020;;;2.0;3.4189993;-76.4910068
144;20010812;Tienda lolita;Medellín;CR 60D#36SUR-04;3113474488;3000.0;31/01/2020;20008805.0;Tienda Gestor Medellin Zona;2.0;6.307666299999999;-75.5580978
145;20010813;Granero Juan santi;Medellín;CL 44#10-12;3205859010;3000.0;31/01/2020;20004654.0;Tienda Gestor Medellin Zona;2.0;6.226809599999999;-75.5435356
146;20010814;El mirador;Sabaneta;CR 40 B#52 B SUR-99;3146591349;3000.0;31/01/2020;20008806.0;TIENDA DE PRUEBA GESTOR ZONA 15;2.0;6.1548395;-75.6040142
147;20014668;Tiendas Gran Abasto;Santiago de cali;CR 1 A 2 # CL-70 C - 29 ;3226202825;2000.0;5/09/2020;;;2.0;3.486762;-76.4906607
148;20010816;Tienda de oti;Medellín;CL 45#15C-27;2692660;3000.0;31/01/2020;20004654.0;Tienda Gestor Medellin Zona;2.0;6.2324156;-75.5456961
149;20010818;El montañero;Medellín;CR 83A#104DB-10;3504569088;3000.0;31/01/2020;20006248.0;TIENDA PRUEBA VINCULACION DIANA MES;2.0;6.3075223;-75.5823218
150;20010819;Tienda donde el coste;Sabaneta;CL 55 SUR#43-72;3124790975;3000.0;31/01/2020;20008806.0;TIENDA DE PRUEBA GESTOR ZONA 15;2.0;6.1576331;-75.60557779999999
151;20010820;Marque max;Itaguí;CR 63#41A-28;3122608321;3000.0;31/01/2020;20008805.0;Tienda Gestor Medellin Zona;2.0;6.168501;-75.6340967
152;20010821;El punto o del gusto;Medellín;CR 83A#104DD-21;3016442705;3000.0;31/01/2020;20006248.0;TIENDA PRUEBA VINCULACION DIANA MES;2.0;6.3076266;-75.582246
153;20010823;Mayorca real;Sabaneta;CL 55 SUR#43A-62;3122685218;3000.0;31/01/2020;20008806.0;TIENDA DE PRUEBA GESTOR ZONA 15;2.0;6.1575601;-75.60552899999999
154;20010824;Deli mix;Medellín;CL 45G#15B-42;3005478875;3000.0;31/01/2020;20004654.0;Tienda Gestor Medellin Zona;2.0;6.254516499999999;-75.5984153
155;20010825;De Jesús;Medellín;CR 18#48-35;3116926691;3000.0;31/01/2020;20004654.0;Tienda Gestor Medellin Zona;2.0;6.2364462;-75.54605149999999
156;20010826;VENTIADERO;Medellín;CR 69B#36C SUR-25;3105060818;3000.0;31/01/2020;20005905.0;Tienda gestor Medellín zona 3;2.0;6.2266669;-75.5911449
157;20010828;Salsamentaria paulina;Sabaneta;CR 35#75 SUR-36;3122302183;3000.0;31/01/2020;20008806.0;TIENDA DE PRUEBA GESTOR ZONA 15;2.0;6.142577999999999;-75.61388149999999
158;20010829;Tienda halaf;Sabaneta;CR 31#71 SUR-113;3012250915;3000.0;31/01/2020;20008806.0;TIENDA DE PRUEBA GESTOR ZONA 15;2.0;6.1460506;-75.6117069
159;20010830;Minimercado mary;Sabaneta;CL 75 SUR#29-205;3207707531;3000.0;31/01/2020;20008806.0;TIENDA DE PRUEBA GESTOR ZONA 15;2.0;6.138039099999999;-75.61183539999999
160;20010832;Granero J Y S;Medellín;CR 85#104-10;3114165837;3000.0;31/01/2020;20004880.0;TIENDA GESTOR MEDELLIN ZONA 5;2.0;6.3072681;-75.58407199999999
161;20010833;Tienda Ruby;Medellín;CL 106A#81-102;3193780556;3000.0;31/01/2020;20004880.0;TIENDA GESTOR MEDELLIN ZONA 5;1.0;6.307847;-75.5784915
162;20010834;VENTANITA AZUL;Medellín;TV 48B SUR#61C-33;3235867991;3000.0;31/01/2020;20005905.0;Tienda gestor Medellín zona 3;2.0;6.2396525;-75.57941509999999
163;20010835;Tienda goez;Medellín;CR 82#106A-14;3128593944;3000.0;31/01/2020;20006248.0;TIENDA PRUEBA VINCULACION DIANA MES;2.0;6.3077307;-75.5790913
164;20010836;Granero jdc;Medellín;CL 104DD#82B-03;3136292240;3000.0;31/01/2020;20006248.0;TIENDA PRUEBA VINCULACION DIANA MES;2.0;6.3059995;-75.5792586
165;20010837;Kiosko verde;Medellín;CR 82E#104DD-21;3206890617;3000.0;31/01/2020;20006248.0;TIENDA PRUEBA VINCULACION DIANA MES;2.0;6.3059359;-75.5798689
166;20010838;Tienda jhon;Sabaneta;CR 71#70 SUR-100;3194061719;3000.0;31/01/2020;20008806.0;TIENDA DE PRUEBA GESTOR ZONA 15;2.0;6.15158;-75.61546059999999
167;20010839;Granero artur;Sabaneta;CR 32#71 SUR-220 ;3015593;3000.0;31/01/2020;20008806.0;TIENDA DE PRUEBA GESTOR ZONA 15;2.0;6.1399824;-75.6109431
168;20010840;La ventanita blanca;Medellín;CL 50#35-40;3122214946;3000.0;31/01/2020;20004654.0;Tienda Gestor Medellin Zona;2.0;6.2437166;-75.5563806
169;20010962;Tienda Mixta;Santiago de cali;CL 47 # 42 B - 52;3183713331;2000.0;5/02/2020;20006228.0;Laura Cedeño - Gestora Vinculador;1.0;3.405135;-76.5085857
170;20003442;Tienda La Gloria;Santiago de cali;CR 29 A # 26 B - 72;3714341;2000.0;31/12/2018;;;1.0;3.4280602;-76.51784649999999
171;20005919;Tienda Isaac;Medellín;CR 64D # 56A SUR-06;3226646438;3000.0;17/09/2019;20004880.0;TIENDA GESTOR MEDELLIN ZONA 5;1.0;6.2476376;-75.56581530000001
172;20013258;TIENDE BERE;Medellín;CL 101C # 35A - 119;3013586655;3000.0;18/06/2020;20005905.0;Tienda gestor Medellín zona 3;2.0;6.2417304;-75.58528179999999
173;20010132;Distribuidora Dacris;Envigado;TV 34 F SUR # 31-37;3113767013;3000.0;16/01/2020;20006248.0;TIENDA PRUEBA VINCULACION DIANA MES;2.0;6.170372;-75.5799404
174;20006989;Reja Azul;Medellín;CR 49 A # 107 - 168;3128224755;3000.0;12/11/2019;20006248.0;TIENDA PRUEBA VINCULACION DIANA MES;2.0;6.2985481;-75.55319469999999
175;20013272;Variedades SM;Medellín;CL 55 SUR # 43 A - 72;2981176;3000.0;19/06/2020;20011348.0;TIENDA DE PRUEBA Gestor zona 12;1.0;6.175438499999999;-75.6369275
176;20014763;Pensilvania;Santiago de cali;CL 75#27-156;3108300738;2000.0;11/09/2020;;;2.0;3.4227203;-76.4853755
177;20014764;punto del sabor;Santiago de cali;CR 41D # 29 - 42;317256396;2000.0;11/09/2020;3000014.0;VANERY FERNANDEZ PRADA;1.0;3.4152057;-76.5160167
178;20002394;Tienda Mixta;Santiago de cali;CR 33 # 38 - 90;4365796;2000.0;17/12/2018;;;1.0;3.4202901;-76.50419289999999
179;20014766;rapicascada;Santiago de cali;CR 65 # 1A - 101;3766851;2000.0;11/09/2020;3000004.0;MAYRA ALEJANDRA PALECHOR GOMEZ;1.0;3.3999133;-76.5544448
180;20014767;rapicascada;Santiago de cali;CR 65 # 1A - 101;3766851;2000.0;11/09/2020;3000004.0;MAYRA ALEJANDRA PALECHOR GOMEZ;1.0;3.3999133;-76.5544448
181;20014768;N;Santiago de cali;CR 22#52-16;3107868421;;11/09/2020;;;;3.4417851;-76.4989993
182;20014769;Tienda granadina;Santiago de cali;CL 100 C#23-12;3155634629;2000.0;11/09/2020;20006219.0;Lorena Liliana Mejía Urbano - Gesto;2.0;3.4337991;-76.4655994
183;20014770;Nuevo González;Santiago de cali;CR 22#52-16;3107868421;2000.0;11/09/2020;;;2.0;3.4417851;-76.4989993
184;20010841;LA TIENDA DE ADAN;Medellín;TV 48B SUR#61C-109 ;3218109866;3000.0;31/01/2020;20005905.0;Tienda gestor Medellín zona 3;2.0;6.2476376;-75.56581530000001
185;20010842;Merca cedros;Sabaneta;CL 75 SUR#38 A-21;3226509882;3000.0;31/01/2020;20008806.0;TIENDA DE PRUEBA GESTOR ZONA 15;2.0;6.1449041;-75.6158158
186;20010843;Salsamentaria trapi paso;Sabaneta;CL 77 SUR#45-07;3011181;3000.0;31/01/2020;20008806.0;TIENDA DE PRUEBA GESTOR ZONA 15;2.0;6.1471038;-75.6204609
187;20010844;La crucita;Sabaneta;CL 78 SUR#40-60;3015035;3000.0;31/01/2020;20008806.0;TIENDA DE PRUEBA GESTOR ZONA 15;2.0;6.140194699999999;-75.62140190000001
189;20010846;Distribuidora San jose;Sabaneta;CR 45#75 SUR-115;3194880290;3000.0;31/01/2020;20008806.0;TIENDA DE PRUEBA GESTOR ZONA 15;2.0;6.1493642;-75.6183879
190;20010848;Tienda torres de dan jose;Sabaneta;CL 76 D SUR#43 A-74;2884994;3000.0;31/01/2020;20008806.0;TIENDA DE PRUEBA GESTOR ZONA 15;2.0;6.1471608;-75.6193273
191;20010849;La receta;Sabaneta;CR 45#77 SUR-28;3006785250;3000.0;31/01/2020;20008806.0;TIENDA DE PRUEBA GESTOR ZONA 15;2.0;6.147149199999999;-75.6203622
192;20010850;Supertienda reflejo;Sabaneta;CL 78 SUR#35-193;3146570979;3000.0;31/01/2020;20008806.0;TIENDA DE PRUEBA GESTOR ZONA 15;2.0;6.135044;-75.6211252
193;20010851;Tienda rosa;Medellín;CR 81#104C-43;4778417;3000.0;31/01/2020;20006248.0;TIENDA PRUEBA VINCULACION DIANA MES;2.0;6.305660199999999;-75.5783879
194;20010852;4esquinas;Medellín;CL 104 C # 78 B 20 - 12;5080617;3000.0;31/01/2020;20006248.0;TIENDA PRUEBA VINCULACION DIANA MES;2.0;6.3050669;-75.57641199999999
195;20010853;Mercados el jardin;Medellín;CL 106#82A-38;3172179369;3000.0;31/01/2020;20006248.0;TIENDA PRUEBA VINCULACION DIANA MES;2.0;6.3074705;-75.5775927
196;20010854;Salsamentaria Genial;Medellín;CL 104 D # 82 B - 52;3144254063;3000.0;31/01/2020;20004880.0;TIENDA GESTOR MEDELLIN ZONA 5;2.0;6.3059099;-75.5796422
197;20009116;Mercado juanfer;Medellín;CL 117#68A-01;3146842656;3000.0;21/12/2019;20005716.0;Tienda Gestor Medellin Zona 8;2.0;6.3105945;-75.5663299
198;20009118;Everest;Medellín;CR 86BB#98BB-18;4996011;3000.0;21/12/2019;20006248.0;TIENDA PRUEBA VINCULACION DIANA MES;2.0;6.2798513;-75.5370868
199;20009119;Granero naranjo;Medellín;CR 85#98D-27;4761342;3000.0;21/12/2019;20006248.0;TIENDA PRUEBA VINCULACION DIANA MES;2.0;6.3007759;-75.5840642
200;20009121;Él encanto;Medellín;CR 70#112-04;3117193136;3000.0;21/12/2019;20004651.0;Tienda Gestor Medellin Zona;2.0;6.3083073;-75.5680935
201;20009122;La virgencita;Medellín;CL 113#68A-67;3216391159;3000.0;21/12/2019;20005716.0;Tienda Gestor Medellin Zona 8;2.0;6.308726099999999;-75.56706779999999
202;20009123;Distribuidora la hielera;Itaguí;DG 40#42-06;3137470457;3000.0;21/12/2019;20004881.0;Tienda Gestor Medellin Zona 6;2.0;6.168808299999999;-75.61439880000002
203;20009124;Esquina Juan Sebaatian;Itaguí;CL 65#48-04;3146166633;3000.0;21/12/2019;20004880.0;TIENDA GESTOR MEDELLIN ZONA 5;2.0;6.1795689;-75.5990564
204;20009125;Tienda arley;Medellín;CL 102A#84C-23;3108219458;3000.0;21/12/2019;20006248.0;TIENDA PRUEBA VINCULACION DIANA MES;2.0;6.3046678;-75.5830337
205;20009126;granero tutti;Itaguí;CR 50#64-A33;6022905;3000.0;21/12/2019;20004654.0;Tienda Gestor Medellin Zona;2.0;6.1797976;-75.5999982
206;20009128;Tienda jose;Medellín;CR 83B#98B-14;3205603095;3000.0;21/12/2019;20006248.0;TIENDA PRUEBA VINCULACION DIANA MES;2.0;6.299032;-75.5827178
207;20009129;Cisneros;Medellín;CL 112A#68A-111;2732911;3000.0;21/12/2019;20004651.0;Tienda Gestor Medellin Zona;2.0;6.3084462;-75.5676628
208;20009130;Granero Mixto Don Evelio;Itaguí;CL 32 # 39 -13;2818385;3000.0;21/12/2019;20006910.0;TIENDA PRUEBA GESTOR ZONA 11;2.0;6.1641901;-75.6148051
209;20014706;Zora mixta;Santiago de cali;CR 25#56-71;3127750157;2000.0;8/09/2020;;;2.0;3.4391079;-76.4960633
210;20009134;Granero 112;Medellín;CL 112#68A-03;5055974;3000.0;21/12/2019;20005716.0;Tienda Gestor Medellin Zona 8;2.0;6.307791700000001;-75.56699019999999
211;20009135;El campiador;Medellín;CL 111#67-110;3147169373;3000.0;21/12/2019;20005716.0;Tienda Gestor Medellin Zona 8;2.0;6.306901499999999;-75.5669285
212;20009136;Sofiju;Medellín;CL 118#68A-07;3234111907;3000.0;21/12/2019;20004651.0;Tienda Gestor Medellin Zona;2.0;6.3109411;-75.5666691
213;20009137;Dulce sabor;Itaguí;CL 31B#42A-67;3004580;3000.0;21/12/2019;20006910.0;TIENDA PRUEBA GESTOR ZONA 11;2.0;6.163627;-75.61614639999999
214;20009138;La carroza roja;Itaguí;DG 43#31B-85;5986143;3000.0;21/12/2019;20008805.0;Tienda Gestor Medellin Zona;2.0;6.1638583;-75.6173974
215;20009139;Panadería la terminal;Medellín;CR 80#102A-11;3116185360;3000.0;21/12/2019;20006248.0;TIENDA PRUEBA VINCULACION DIANA MES;2.0;6.3027258;-75.5787496
216;20009140;El parche de patry;Medellín;CR 77B#103-36;3106639557;3000.0;21/12/2019;20006248.0;TIENDA PRUEBA VINCULACION DIANA MES;2.0;6.3029166;-75.57656899999999
217;20009141;Tienda Legumbre La Bendición;Medellín;CR 86 # 98-07;3106323020;3000.0;21/12/2019;20004652.0;Tienda Gestor Medellin Zona 2;2.0;6.299695900000001;-75.5852689
219;20009143;Mekateadero la pista;Medellín;CL 102#76B-04;5032692;3000.0;21/12/2019;20004652.0;Tienda Gestor Medellin Zona 2;2.0;6.301196;-75.57658769999999
220;20009144;Puerta blanca;Medellín;CL 111A#68A-64;3192397739;3000.0;21/12/2019;20004651.0;Tienda Gestor Medellin Zona;2.0;6.3076761;-75.56757329999999
221;20009145;Tienda pablo;Medellín;TV 78#65-219;3134602;3000.0;21/12/2019;20006627.0;Tienda Gestor Medellin Zona;2.0;6.2746746;-75.5754023
222;20009146;Sura pan;Medellín;TV 78#65-351;3152692435;3000.0;21/12/2019;20006627.0;Tienda Gestor Medellin Zona;2.0;6.2732876;-75.5777256
223;20009147;Tienda Lina;Medellín;CL 72#67-1;3146494429;3000.0;21/12/2019;20006627.0;Tienda Gestor Medellin Zona;2.0;6.2727422;-75.5788966
224;20009148;Dna marta;Medellín;CR 65C#72-207;3195650854;3000.0;21/12/2019;20006627.0;Tienda Gestor Medellin Zona;2.0;6.2265036;-75.5850644
225;20009149;El perico;Medellín;CR 64C#74-41;3022216027;3000.0;21/12/2019;20006627.0;Tienda Gestor Medellin Zona;2.0;6.2730051;-75.5734075
226;20009150;El trebol 1;Medellín;CR 64C#75-63;3227640001;3000.0;21/12/2019;20006627.0;Tienda Gestor Medellin Zona;2.0;6.2737612;-75.573064
227;20009152;La gran familia;Medellín;TV 78#65-397;2269130;3000.0;23/12/2019;20006628.0;TIENDA PRUEBA GESTOR ZONA 10;2.0;6.274327899999999;-75.5767504
228;20009153;Multi servisios;Medellín;TV 78#65-497;3128892742;3000.0;23/12/2019;20006628.0;TIENDA PRUEBA GESTOR ZONA 10;2.0;6.274060299999999;-75.5774814
229;20009154;Cuidarla industrial;Medellín;CL 72#64C-151;4912906;3000.0;23/12/2019;20006628.0;TIENDA PRUEBA GESTOR ZONA 10;2.0;6.269913799999999;-75.5751878
230;20009155;Cafetería aide;Medellín;CR 64C#74-11;3997711529;3000.0;23/12/2019;20006628.0;TIENDA PRUEBA GESTOR ZONA 10;2.0;6.2727325;-75.57347659999999
231;20009156;Granero y legumbreria leo;Medellín;CR 64C#75-29;3108439362;3000.0;23/12/2019;20006628.0;TIENDA PRUEBA GESTOR ZONA 10;2.0;6.273486399999999;-75.5731277
232;20009157;La reja cafe;Medellín;CL 115#75-85;3117957485;3000.0;23/12/2019;20005716.0;Tienda Gestor Medellin Zona 8;2.0;6.3104605;-75.57085459999999
233;20009158;Tienda doli;Medellín;CR 64C#75A-09;3128513436;3000.0;23/12/2019;20006628.0;TIENDA PRUEBA GESTOR ZONA 10;2.0;6.2741129;-75.5732304
234;20009159;Tienda reja gris;Medellín;CL 114#75-63;304522270;3000.0;23/12/2019;20004651.0;Tienda Gestor Medellin Zona;2.0;6.3099848;-75.5708076
235;20009162;Mall palma yiyo;Itaguí;CL 35C#69-01;3017650220;3000.0;23/12/2019;20004654.0;Tienda Gestor Medellin Zona;2.0;6.1728951;-75.6321042
236;20009164;Autoservicio henry;Medellín;CR 75#112-31;3012911378;3000.0;23/12/2019;20005716.0;Tienda Gestor Medellin Zona 8;2.0;6.3093327;-75.5706063
237;20009165;Tienda mabel;Medellín;CL 113#74-20;5088273;3000.0;23/12/2019;20004651.0;Tienda Gestor Medellin Zona;2.0;6.3093724;-75.5696909
238;20009167;Te yeny;Itaguí;CL 37B#58-88;4178112;3000.0;23/12/2019;20008805.0;Tienda Gestor Medellin Zona;2.0;6.1723864;-75.62625070000001
239;20009168;El tio;Itaguí;CR 43#64A-05;3107482658;3000.0;23/12/2019;20004880.0;TIENDA GESTOR MEDELLIN ZONA 5;2.0;6.176937499999999;-75.5963548
240;20009169;La buena esquina;Medellín;CR 74#114-09;3148853347;3000.0;23/12/2019;20005716.0;Tienda Gestor Medellin Zona 8;2.0;6.3097699;-75.56955529999999
241;20009170;Tienda la amistad;Itaguí;CL 39#65-03;3716688;3000.0;23/12/2019;20008805.0;Tienda Gestor Medellin Zona;2.0;6.174261899999999;-75.6287923
242;20009171;Minimercado NyC;Itaguí;CL 28#68-36;3207166950;3000.0;23/12/2019;20004654.0;Tienda Gestor Medellin Zona;2.0;6.1716628;-75.6394208
243;20009172;Mixta la 39;Itaguí;CL 38#65B-10;5588418;3000.0;23/12/2019;20006910.0;TIENDA PRUEBA GESTOR ZONA 11;2.0;6.169991;-75.61870189999999
244;20009174;Autoservisiobsan judas;Medellín;CL 96 # 72A-40;3105418987;3000.0;23/12/2019;20006627.0;Tienda Gestor Medellin Zona;2.0;6.2923775;-75.575516
245;20009175;Donde fe;Medellín;CL 106B#72-19;3148964135;3000.0;23/12/2019;20004651.0;Tienda Gestor Medellin Zona;2.0;6.3047612;-75.57014649999999
246;20009176;La ventanita de vale;Medellín;CR 33A#35-53;3233651960;3000.0;23/12/2019;;;2.0;6.2330874;-75.5601506
247;20009179;El gancho;Medellín;CR 70#106A-23;3017903060;3000.0;23/12/2019;20005716.0;Tienda Gestor Medellin Zona 8;2.0;6.3046133;-75.569161
248;20009180;Mis sueños;Medellín;CL 111#74-58;3166685194;3000.0;23/12/2019;20005716.0;Tienda Gestor Medellin Zona 8;2.0;6.3086025;-75.570298
249;20009181;La ventanita;Medellín;CL 106A#67-59;3116223224;3000.0;23/12/2019;20005716.0;Tienda Gestor Medellin Zona 8;2.0;6.3042675;-75.5673156
250;20009182;Salsamentaria el portal;Itaguí;CR 65#34-204;6023266;3000.0;23/12/2019;20008805.0;Tienda Gestor Medellin Zona;2.0;6.1697092;-75.6304007
251;20009185;Mercado tejelo;Medellín;CR 68A#108-12;3042440473;3000.0;23/12/2019;20005716.0;Tienda Gestor Medellin Zona 8;2.0;6.3057813;-75.56778659999999
252;20009186;La curva;Medellín;CR 80#101A-22;3137300958;3000.0;23/12/2019;20006248.0;TIENDA PRUEBA VINCULACION DIANA MES;2.0;6.3007127;-75.5796854
253;20009187;Armando Banderas;Medellín;CL 101A#78-06;3126231121;3000.0;23/12/2019;;;2.0;6.300301699999999;-75.5784024
254;20009188;Tienda crisma;Itaguí;CR 69B#33-52;3215284113;3000.0;23/12/2019;20008805.0;Tienda Gestor Medellin Zona;2.0;6.1729911;-75.6351907
255;20009189;Tienda Amanda;Itaguí;CL 57SUR#67-31;3638053;3000.0;23/12/2019;20006910.0;TIENDA PRUEBA GESTOR ZONA 11;2.0;6.157422;-75.607062
256;20009192;Tienda la nueva;Medellín;CR 67#57SUR-40;4194942;3000.0;23/12/2019;20006910.0;TIENDA PRUEBA GESTOR ZONA 11;2.0;6.1562551;-75.6045755
257;20009193;Salsamentaria la 33;Itaguí;CR 33#69-03;6142261;3000.0;23/12/2019;20008805.0;Tienda Gestor Medellin Zona;2.0;6.1681832;-75.6190324
258;20009194;Granero vulcanero;Itaguí;CL 57SUR#64-07;2864049;3000.0;23/12/2019;20006910.0;TIENDA PRUEBA GESTOR ZONA 11;2.0;6.157422;-75.607062
259;20009195;Granero mixto 19;Itaguí;CL 37#67-05;3177565829;3000.0;23/12/2019;20004654.0;Tienda Gestor Medellin Zona;2.0;6.1750935;-75.6323532
260;20009196;Tienda gopal;Itaguí;CL 31#69-34;3711318;3000.0;23/12/2019;20008805.0;Tienda Gestor Medellin Zona;2.0;6.172732;-75.6369689
261;20009197;Rodriluz;Itaguí;CL 65A#63-04;2866717;3000.0;23/12/2019;20004880.0;TIENDA GESTOR MEDELLIN ZONA 5;2.0;6.169593799999999;-75.631953
262;20009198;La ventanita;Itaguí;CL 37#68-126;2814468;3000.0;23/12/2019;20004880.0;TIENDA GESTOR MEDELLIN ZONA 5;2.0;6.175376399999999;-75.63367199999999
263;20009199;Tienda eris;Medellín;CL 100B#74C-17;3015985095;3000.0;23/12/2019;20006248.0;TIENDA PRUEBA VINCULACION DIANA MES;2.0;6.2990166;-75.5777215
264;20014707;renacer del valle;Yumbo;CR 19 BIS # 7D - 09;3217590356;2000.0;8/09/2020;3000002.0;LORENA MANCILLA MOSQUERA;1.0;3.563032;-76.4904143
265;20007889;Granero mixto alex restrepo;Medellín;CR 55#88-17;3147036526;3000.0;3/12/2019;20006248.0;TIENDA PRUEBA VINCULACION DIANA MES;2.0;6.2812648;-75.56676650000001
266;20009200;Panadería valedai;Itaguí;CR 69#30A-01;3128606539;3000.0;23/12/2019;20008805.0;Tienda Gestor Medellin Zona;2.0;6.172257099999999;-75.63701089999999
267;20010855;Autoservicio tribilin;Medellín;CR 81#103A-39;3128837436;3000.0;31/01/2020;20004880.0;TIENDA GESTOR MEDELLIN ZONA 5;2.0;6.304363299999999;-75.5788019
268;20010856;Tienda el parquesito;Medellín;CL 104A#80-10;4981752;3000.0;31/01/2020;20004880.0;TIENDA GESTOR MEDELLIN ZONA 5;2.0;6.3047721;-75.5778851
269;20010857;Tienda la curva;Medellín;CR 83#104DD-07;4776223;3000.0;31/01/2020;20004652.0;Tienda Gestor Medellin Zona 2;2.0;6.2306533;-75.60557399999999
270;20010858;Los marinillos;Medellín;CL 106B#82A-37;3128970374;3000.0;31/01/2020;20004652.0;Tienda Gestor Medellin Zona 2;2.0;6.307876299999999;-75.579149
271;20010860;Mercados Mi Niño;Medellín;CR 81A#104C-61;3003023870;3000.0;31/01/2020;20004652.0;Tienda Gestor Medellin Zona 2;2.0;6.3057266;-75.578695
272;20010861;Ventana de amparo;Medellín;CR 82,A#104C-60;4721554;3000.0;31/01/2020;20004652.0;Tienda Gestor Medellin Zona 2;2.0;6.305617799999999;-75.57906849999999
273;20010862;LA AMISTAD;Medellín;CL 44 SUR#82B-33;3117926801;3000.0;31/01/2020;20005905.0;Tienda gestor Medellín zona 3;2.0;6.1829428;-75.655858
274;20010864;Nutri hulados;Medellín;CL 40#15AA-10;3134442522;3000.0;31/01/2020;20006910.0;TIENDA PRUEBA GESTOR ZONA 11;2.0;6.2097209;-75.5683294
275;20010865;Las 24 hrs;Medellín;CL 40#15AA-10;3214255936;3000.0;31/01/2020;20006910.0;TIENDA PRUEBA GESTOR ZONA 11;2.0;6.2097209;-75.5683294
276;20010866;Salzamentaria Castillo;Medellín;CR 20B#47-3;3154114229;3000.0;31/01/2020;20006910.0;TIENDA PRUEBA GESTOR ZONA 11;1.0;6.2365109;-75.5479288
277;20010867;La esquina del aguardientazo;Medellín;CR 15#35-140;3217199541;3000.0;31/01/2020;20006910.0;TIENDA PRUEBA GESTOR ZONA 11;2.0;6.229505100000001;-75.54362429999999
278;20010868;Salzamentaria Sy J;Medellín;CR 19#34-82;3015368110;3000.0;31/01/2020;20006910.0;TIENDA PRUEBA GESTOR ZONA 11;2.0;6.2276358;-75.5473485
279;20010869;La gran esquina;Medellín;CR 20#33-115;3128514263;3000.0;31/01/2020;20006910.0;TIENDA PRUEBA GESTOR ZONA 11;2.0;6.227513399999999;-75.5481894
280;20010870;HELADOS Y DULCES;Medellín;CL 45 SUR#83C-41;3148840434;3000.0;31/01/2020;20005905.0;Tienda gestor Medellín zona 3;2.0;6.2356317;-75.55097320000002
281;20010872;AMISTAD;Medellín;CR 83A#42A SUR-24;3145639819;3000.0;31/01/2020;20005905.0;Tienda gestor Medellín zona 3;2.0;6.203447199999999;-75.5710634
282;20010873;GRANERO JAVAJIL;Medellín;CL 38SUR#85-39;2860566;3000.0;31/01/2020;20005905.0;Tienda gestor Medellín zona 3;2.0;6.1861726;-75.6409422
283;20010878;Juan jhon;Itaguí;CR 46#49-37;3103738028;3000.0;1/02/2020;20005716.0;Tienda Gestor Medellin Zona 8;2.0;6.1689913;-75.6088462
284;20010879;El rincón de sandra;Itaguí;CL 49#45-12;3004916512;3000.0;1/02/2020;20005716.0;Tienda Gestor Medellin Zona 8;2.0;6.1682712;-75.6087878
285;20010880;La 46;Itaguí;CR 46#48-26;5579273;3000.0;1/02/2020;20005716.0;Tienda Gestor Medellin Zona 8;2.0;6.1683343;-75.60973369999999
286;20010881;El vecino;Medellín;CR 17A#54-63;2212804;3000.0;1/02/2020;20004651.0;Tienda Gestor Medellin Zona;2.0;6.2380285;-75.5410389
287;20010882;Granero betancur;Itaguí;CL 47#44-38;5966182;3000.0;1/02/2020;20005716.0;Tienda Gestor Medellin Zona 8;2.0;6.1676394;-75.6102093
288;20010884;Granero asturias;Itaguí;CR 45#46-90;3128497059;3000.0;1/02/2020;20005716.0;Tienda Gestor Medellin Zona 8;2.0;6.1675387;-75.6104751
289;20010885;Granero la chava de Asturias;Itaguí;CL 49#47-68;3127327970;3000.0;1/02/2020;20005716.0;Tienda Gestor Medellin Zona 8;2.0;6.1698444;-75.60956999999999
290;20010886;Mercado la cancha;Medellín;CL 47E#1AA-55;3022602987;3000.0;1/02/2020;20006910.0;TIENDA PRUEBA GESTOR ZONA 11;2.0;6.228420499999999;-75.5287563
291;20010890;La gran esquina;Medellín;CL 49A#1 ESTE-39;2265207;3000.0;1/02/2020;20006910.0;TIENDA PRUEBA GESTOR ZONA 11;2.0;6.230143399999999;-75.5285976
292;20010891;El ranchito;Medellín;CL 49A#2 ESTE-18;3105341920;3000.0;1/02/2020;20006910.0;TIENDA PRUEBA GESTOR ZONA 11;2.0;6.2301984;-75.5283585
293;20010892;Granero arselia;Medellín;CL 49A#02-06;3217699768;3000.0;1/02/2020;20006910.0;TIENDA PRUEBA GESTOR ZONA 11;2.0;6.2298;-75.531312
294;20014797;rapitienda karlitos;Santiago de cali;CL 34 # 2N - 68;3207706454;2000.0;12/09/2020;3000011.0;ALEJANDRA MARIA CASTILLO ANGULO;1.0;3.4654171;-76.5162021
295;20010893;Tienda kike;Medellín;CR 8 B#43D-36;3006675765;3000.0;1/02/2020;20006910.0;TIENDA PRUEBA GESTOR ZONA 11;2.0;6.213207199999999;-75.571574
296;20010894;Carpa azul;Medellín;CR 8A#43E-12;3137822528;3000.0;1/02/2020;20006910.0;TIENDA PRUEBA GESTOR ZONA 11;2.0;6.2366245;-75.53383199999999
297;20010895;Granero Serna;Medellín;CL 44#10-60;3218526117;3000.0;1/02/2020;20006910.0;TIENDA PRUEBA GESTOR ZONA 11;2.0;6.226826399999999;-75.54360179999999
298;20010896;Cuarta generación;Medellín;CL 45#15C-85;3013301032;3000.0;1/02/2020;20006910.0;TIENDA PRUEBA GESTOR ZONA 11;2.0;6.2327017;-75.54616279999999
299;20010897;J Y J;Medellín;CR 18#48-27;3005551722;3000.0;1/02/2020;20006910.0;TIENDA PRUEBA GESTOR ZONA 11;2.0;6.2363857;-75.54608
300;20010898;Brosty Eric;Medellín;CL 49#29-22;3502027053;3000.0;1/02/2020;20006910.0;TIENDA PRUEBA GESTOR ZONA 11;2.0;6.2406548;-75.5521311
301;20010899;Autoservicio la frontera;Medellín;CL 50#35-46;3122595095;3000.0;1/02/2020;20006910.0;TIENDA PRUEBA GESTOR ZONA 11;2.0;6.243752199999999;-75.55645419999999
302;20010901;La fe de lolo;Sabaneta;CL 78 SUR#40-40;6125277;3000.0;2/02/2020;20008806.0;TIENDA DE PRUEBA GESTOR ZONA 15;2.0;6.139984999999999;-75.62139239999999
303;20010902;Los ramirez;Sabaneta;CL 78 SUR#40-45;3046253856;3000.0;2/02/2020;20008806.0;TIENDA DE PRUEBA GESTOR ZONA 15;2.0;6.1400611;-75.62151639999999
304;20010903;Merca clis;Sabaneta;CL 75 SUR#29-41;5972265;3000.0;2/02/2020;20008806.0;TIENDA DE PRUEBA GESTOR ZONA 15;2.0;6.1391447;-75.6120172
305;20010904;Smart sa;Sabaneta;CL 76 SUR#43 A-64;3059139501;3000.0;2/02/2020;20008806.0;TIENDA DE PRUEBA GESTOR ZONA 15;2.0;6.1503713;-75.6205531
306;20010905;Supermercado calaveralejo;Sabaneta;CL 78 SUR#35-182;3006015851;3000.0;2/02/2020;20008806.0;TIENDA DE PRUEBA GESTOR ZONA 15;2.0;6.1348284;-75.6206697
307;20010909;Granero 1 A;Medellín;CL 47C # 1AA - 66;3188847671;3000.0;3/02/2020;;;2.0;6.228784399999999;-75.5288303
308;20010916;La matraca;Itaguí;CR 47#52-46;3146656383;3000.0;4/02/2020;20005716.0;Tienda Gestor Medellin Zona 8;2.0;6.1703958;-75.6066165
309;20010917;Granero la gotica;Itaguí;CL 52#47-03;3016262771;3000.0;4/02/2020;20005716.0;Tienda Gestor Medellin Zona 8;2.0;6.1702248;-75.6071731
310;20010922;Granero la cuchilla;Medellín;CL 52#5-08;3216433682;3000.0;4/02/2020;20006910.0;TIENDA PRUEBA GESTOR ZONA 11;2.0;6.232465299999999;-75.5340734
311;20010923;Tienda Gabriel;Medellín;CR 86#98D-25;3146802620;3000.0;4/02/2020;20004652.0;Tienda Gestor Medellin Zona 2;2.0;6.301417600000001;-75.5844994
312;20010924;Tienda neta;Medellín;CR 85#101C-38;3206910856;3000.0;4/02/2020;20004652.0;Tienda Gestor Medellin Zona 2;2.0;6.302718;-75.58386879999999
313;20010926;Tienda britanica;Medellín;CL 57CC#24 B-02;3113774884;3000.0;4/02/2020;20004651.0;Tienda Gestor Medellin Zona;2.0;6.2491324;-75.546362
314;20010931;Megamercas;Envigado;CL 40SUR#26-48;3218111685;3000.0;4/02/2020;20006248.0;TIENDA PRUEBA VINCULACION DIANA MES;2.0;6.1566396;-75.5806437
315;20010934;Tienda anamile;Itaguí;CL 53#53-25;3228781420;3000.0;4/02/2020;20005716.0;Tienda Gestor Medellin Zona 8;2.0;6.1754314;-75.608598
316;20010935;Pimienta;Itaguí;CR 47 A # 50 A -32;3226428746;3000.0;4/02/2020;20005716.0;Tienda Gestor Medellin Zona 8;2.0;6.1701174;-75.608272
317;20010936;Reja negra;Medellín;CL 98 B#84A-16;2672469;3000.0;4/02/2020;20004652.0;Tienda Gestor Medellin Zona 2;2.0;6.2994005;-75.5841811
318;20010937;Salsamentaria RDJ;Itaguí;CL 56#50-47;3015595668;3000.0;4/02/2020;20005716.0;Tienda Gestor Medellin Zona 8;2.0;6.174186799999999;-75.6057776
319;20010938;Montescalla;Itaguí;CL 56#51-07;3146584513;3000.0;4/02/2020;20005716.0;Tienda Gestor Medellin Zona 8;2.0;6.1746637;-75.60585329999999
320;20010939;Granero mixto capris;Itaguí;CR 51#56-01;3711437;3000.0;4/02/2020;20005716.0;Tienda Gestor Medellin Zona 8;2.0;6.174696399999999;-75.6057154
321;20010940;Mercados fany;Itaguí;CR 52#56-25;3174881952;3000.0;4/02/2020;20005716.0;Tienda Gestor Medellin Zona 8;2.0;6.175477799999999;-75.60595599999999
322;20010941;Comercializadora de frutas y verdur;Itaguí;CL 53A#52-09;3207761997;3000.0;4/02/2020;20005716.0;Tienda Gestor Medellin Zona 8;2.0;6.1746325;-75.60777569999999
323;20010942;Paisita;Itaguí;CR 53#53-12;3726768;3000.0;4/02/2020;20005716.0;Tienda Gestor Medellin Zona 8;2.0;6.172836299999999;-75.6144297
324;20010943;Granero la monja;Itaguí;CL 52#52-50;2777335;3000.0;4/02/2020;20005716.0;Tienda Gestor Medellin Zona 8;2.0;6.1746047;-75.60897369999999
325;20010944;Tienda MW;Itaguí;CL 52#52-24;5994965;3000.0;4/02/2020;20005716.0;Tienda Gestor Medellin Zona 8;2.0;6.174286899999999;-75.6087914
326;20009202;Juventud;Medellín;CL 101B#73A-85;4714281;3000.0;23/12/2019;20006248.0;TIENDA PRUEBA VINCULACION DIANA MES;2.0;6.29892;-75.574737
327;20009204;Granero Santa ana;Itaguí;CR 57#35-42;3384453;3000.0;23/12/2019;20004654.0;Tienda Gestor Medellin Zona;2.0;6.1690953;-75.6253327
328;20009205;Mecato;Itaguí;CL 58 SUR # 60A - 40;2868805;3000.0;23/12/2019;20006910.0;TIENDA PRUEBA GESTOR ZONA 11;2.0;6.1681832;-75.6190324
329;20009206;Tienda la Luisa;Medellín;CR 84#100G-28;4998003;3000.0;23/12/2019;20004652.0;Tienda Gestor Medellin Zona 2;2.0;6.300919299999999;-75.58302309999999
330;20009207;Panadería mi casita;Itaguí;CR 63#50A SUR-08;5736815;3000.0;23/12/2019;20006910.0;TIENDA PRUEBA GESTOR ZONA 11;2.0;6.167336199999999;-75.639727
331;20009208;Tienda clicconlinet;Medellín;CL 108#67-12;3167432095;3000.0;23/12/2019;20005716.0;Tienda Gestor Medellin Zona 8;2.0;6.3053097;-75.5667582
332;20009209;Salsamentaria;Medellín;CR 67#106A-06;3108296364;3000.0;23/12/2019;20005716.0;Tienda Gestor Medellin Zona 8;2.0;6.3043675;-75.56681739999999
333;20009210;Punto alegre limonar 2;Itaguí;CL 53 SUR#63-03;3137187115;3000.0;23/12/2019;20006910.0;TIENDA PRUEBA GESTOR ZONA 11;2.0;6.171379900000001;-75.6066657
334;20009211;Distrifruver la 76;Medellín;CR 76#102B-12;3147618683;3000.0;23/12/2019;20006248.0;TIENDA PRUEBA VINCULACION DIANA MES;2.0;6.3010597;-75.5752768
335;20009212;Vaneli;Medellín;CR 72B#85-58;5892190;3000.0;23/12/2019;20006627.0;Tienda Gestor Medellin Zona;2.0;6.2791855;-75.5813743
336;20009213;Gro 93;Medellín;CL 93 # 68 - 40;2850177;3000.0;23/12/2019;20006248.0;TIENDA PRUEBA VINCULACION DIANA MES;2.0;6.2875841;-75.5735898
337;20009215;Costeño;Medellín;CL 103C#76-73;5084292;3000.0;23/12/2019;20006248.0;TIENDA PRUEBA VINCULACION DIANA MES;2.0;6.3018579;-75.57536879999999
338;20009216;Juan j;Medellín;CL 97#72A-39;2379013;3000.0;23/12/2019;20006627.0;Tienda Gestor Medellin Zona;2.0;6.2933902;-75.575194
339;20009217;Mi sol;Medellín;CR 72B#97-77;2379898;3000.0;23/12/2019;20006627.0;Tienda Gestor Medellin Zona;2.0;6.2941617;-75.575131
340;20009218;La Buena Esquina;Itaguí;CL 54A SUR # 63 - 04;3146645020;3000.0;23/12/2019;20006910.0;TIENDA PRUEBA GESTOR ZONA 11;2.0;6.1681832;-75.6190324
341;20009219;La 98;Medellín;CL 98 # 72-35;5015117;3000.0;23/12/2019;20006627.0;Tienda Gestor Medellin Zona;2.0;6.2946106;-75.57425359999999
342;20009221;La reja negra;Medellín;CR 72A#95-31;317917540;3000.0;23/12/2019;20006627.0;Tienda Gestor Medellin Zona;2.0;6.291263600000001;-75.5755956
343;20009223;La tienda de d d;Medellín;CR 72#94-5;4711346;3000.0;23/12/2019;20006627.0;Tienda Gestor Medellin Zona;2.0;6.2896147;-75.5756916
344;20009224;La puerta azul;Medellín;CL 97#72-7;3006603030;3000.0;23/12/2019;20006627.0;Tienda Gestor Medellin Zona;2.0;6.293245400000001;-75.5745049
345;20009225;El parquesito;Medellín;CL 103C#74A-24;3117507281;3000.0;23/12/2019;20006248.0;TIENDA PRUEBA VINCULACION DIANA MES;2.0;6.3012782;-75.57374
346;20009226;La prosperidad;Medellín;CL 95#72B-02;3206406805;3000.0;23/12/2019;20006628.0;TIENDA PRUEBA GESTOR ZONA 10;2.0;6.2910734;-75.5760744
347;20009227;Variedad los amigo;Medellín;CL 96#72B-02;3168218641;3000.0;23/12/2019;20006628.0;TIENDA PRUEBA GESTOR ZONA 10;2.0;6.292314699999999;-75.5756728
348;20009228;La reja cafe;Medellín;CR 72B#96-57;3105537385;3000.0;23/12/2019;20006628.0;TIENDA PRUEBA GESTOR ZONA 10;2.0;6.2927867;-75.5756079
349;20009229;Tienda Cristo rey;Medellín;CL 97#72A-38;3113085334;3000.0;23/12/2019;20006628.0;TIENDA PRUEBA GESTOR ZONA 10;2.0;6.2935989;-75.57510049999999
350;20009231;Carrito azul;Medellín;CR 72B#97-91;3218353144;3000.0;23/12/2019;20006628.0;TIENDA PRUEBA GESTOR ZONA 10;2.0;6.2942689;-75.5750956
351;20009232;Roller;Medellín;CR 72A#96-42;3127264602;3000.0;23/12/2019;20006628.0;TIENDA PRUEBA GESTOR ZONA 10;2.0;6.2925783;-75.5750619
352;20009233;Panadería catelares;Medellín;CR 72B#95-134;3122080691;3000.0;23/12/2019;20006628.0;TIENDA PRUEBA GESTOR ZONA 10;2.0;6.292084399999999;-75.5756409
353;20009234;Mercados milan;Medellín;CR 74#109-16;5080263;3000.0;23/12/2019;20004651.0;Tienda Gestor Medellin Zona;2.0;6.3074232;-75.5701342
354;20009235;Tienda frutas y verduras;Medellín;CL 106A#70-18;5889959;3000.0;23/12/2019;20004651.0;Tienda Gestor Medellin Zona;2.0;6.3045618;-75.56914259999999
355;20009236;Detodito;Medellín;CR 68A#106A-32;5800790;3000.0;23/12/2019;20004651.0;Tienda Gestor Medellin Zona;2.0;6.304710300000001;-75.5677714
356;20009237;La bella;Medellín;CL 106B#67-45;5829268;3000.0;23/12/2019;20004651.0;Tienda Gestor Medellin Zona;2.0;6.304681299999999;-75.56716519999999
357;20009238;Granero moncho;Medellín;CL 106A#67-02;4612785;3000.0;23/12/2019;20004651.0;Tienda Gestor Medellin Zona;2.0;6.3043909;-75.5668867
358;20009239;El kiosko del casique;Medellín;CL 101C#82F-03;22091168;3000.0;23/12/2019;20004652.0;Tienda Gestor Medellin Zona 2;2.0;6.301666699999999;-75.5809364
359;20009240;La pulga;Itaguí;CR 61A#35-97;3226689942;3000.0;23/12/2019;20004880.0;TIENDA GESTOR MEDELLIN ZONA 5;2.0;6.1710007;-75.6287609
360;20009241;Tienda Rosalba;Medellín;CL 101C # 82E - 92;3117884774;3000.0;23/12/2019;20004652.0;Tienda Gestor Medellin Zona 2;2.0;6.3018665;-75.58083599999999
361;20009242;La virgen;Itaguí;CL 32#53-154;3165742750;3000.0;23/12/2019;20004880.0;TIENDA GESTOR MEDELLIN ZONA 5;2.0;6.1667181;-75.624895
362;20009243;Tienda mixta cc;Medellín;CL 101AA#81-17;3006618755;3000.0;23/12/2019;20004652.0;Tienda Gestor Medellin Zona 2;2.0;6.3010781;-75.57988069999999
363;20009244;Deseables dj;Medellín;CR 78#101BB-22;3218521137;3000.0;23/12/2019;20004652.0;Tienda Gestor Medellin Zona 2;2.0;6.3019618;-75.57827259999999
364;20009245;Mi tiendita;Medellín;CR 77A#102-10;4714300;3000.0;23/12/2019;20004652.0;Tienda Gestor Medellin Zona 2;2.0;6.30162;-75.57772059999999
365;20009246;Salsamentaria la ilucion;Medellín;CL 101A#74-74;2375380;3000.0;23/12/2019;20004652.0;Tienda Gestor Medellin Zona 2;2.0;6.2992518;-75.5756687
366;20009247;Tienda las escalas;Medellín;CR 74B#99B-13;3105919116;3000.0;23/12/2019;20004652.0;Tienda Gestor Medellin Zona 2;2.0;6.2977015;-75.5768229
367;20009248;Tienda jm;Medellín;CL 99B#74A-09;2675114;3000.0;23/12/2019;20004652.0;Tienda Gestor Medellin Zona 2;2.0;6.297625999999999;-75.5766261
368;20009249;Tienda Elkin;Medellín;CR 82E # 100G - 13;3023023099;3000.0;23/12/2019;20006248.0;TIENDA PRUEBA VINCULACION DIANA MES;2.0;6.3003792;-75.5801553
369;20009250;Tienda carmen;Medellín;CL 101B#82E-70;2679662;3000.0;23/12/2019;20006248.0;TIENDA PRUEBA VINCULACION DIANA MES;2.0;6.3015669;-75.5806334
370;20009251;Granero mary;Medellín;CL 101C#77A-37;3146884089;3000.0;23/12/2019;20006248.0;TIENDA PRUEBA VINCULACION DIANA MES;2.0;6.301801999999999;-75.5780298
371;20009252;Tienda sara;Medellín;CL 108#66-74;3041658719;3000.0;24/12/2019;20005716.0;Tienda Gestor Medellin Zona 8;2.0;6.3050517;-75.566288
372;20009253;Las 3 jotas;Medellín;CR 66#110-12;5514466;3000.0;24/12/2019;20004651.0;Tienda Gestor Medellin Zona;2.0;6.305943099999999;-75.5653799
373;20009254;Nelly;Medellín;CR 28#06-127;5812831;3000.0;24/12/2019;20006628.0;TIENDA PRUEBA GESTOR ZONA 10;2.0;6.2266409;-75.55930579999999
374;20009255;Carpa amarilla;Medellín;CL 109#64D-175;3137071140;3000.0;24/12/2019;20005716.0;Tienda Gestor Medellin Zona 8;2.0;6.3051447;-75.5661362
375;20009256;Tienda jj;Medellín;CR 84#101-25;2679313;3000.0;24/12/2019;20006248.0;TIENDA PRUEBA VINCULACION DIANA MES;2.0;6.3012099;-75.5829466
376;20009257;Granero RBS;Itaguí;CL 53#47-79;3122626036;3000.0;24/12/2019;20004881.0;Tienda Gestor Medellin Zona 6;2.0;6.1712675;-75.60670019999999
377;20009258;La ventana de Wilson;Medellín;CR 71#98-115;5841090;3000.0;24/12/2019;20006628.0;TIENDA PRUEBA GESTOR ZONA 10;2.0;6.2953113;-75.5730361
378;20009259;Alberto;Medellín;CL 100B#74-72;3104239218;3000.0;24/12/2019;20006248.0;TIENDA PRUEBA VINCULACION DIANA MES;2.0;6.298595199999999;-75.57606179999999
379;20009260;Ricuras de 500;Itaguí;DG 40#41-85;3135866462;3000.0;24/12/2019;20004881.0;Tienda Gestor Medellin Zona 6;2.0;6.1685329;-75.6146098
380;20009261;Tienda gerardo;Medellín;CR 74#99B-21;4773580;3000.0;24/12/2019;20006248.0;TIENDA PRUEBA VINCULACION DIANA MES;2.0;6.2975195;-75.5760669
381;20009262;La super esquina;Medellín;CR 71#98-127;5037518;3000.0;24/12/2019;20006628.0;TIENDA PRUEBA GESTOR ZONA 10;2.0;6.2954029;-75.5730052
382;20009263;Restaurante osbradan s;Itaguí;CR 48#52-03;3206218074;3000.0;24/12/2019;20004881.0;Tienda Gestor Medellin Zona 6;2.0;6.1710797;-75.60739219999999
383;20009264;Granero el descanso;Itaguí;CR 69#26-44;3090639;3000.0;24/12/2019;20008805.0;Tienda Gestor Medellin Zona;2.0;6.171100399999999;-75.6418211
384;20009266;Mercados convitar;Medellín;CR 72#97-65;5813836;3000.0;24/12/2019;20006628.0;TIENDA PRUEBA GESTOR ZONA 10;2.0;6.293767099999999;-75.5743176
385;20009267;Distritodo el roble;Itaguí;CR 48 # 51 - 22;3148392738;3000.0;24/12/2019;20004881.0;Tienda Gestor Medellin Zona 6;2.0;6.1707305;-75.6080016
386;20009268;Cosechas de oriente;Medellín;CR 65#109A-16;3113474406;3000.0;24/12/2019;20004651.0;Tienda Gestor Medellin Zona;2.0;6.2386957;-75.583139
387;20009269;La abundacia;Itaguí;CL 27#64-71;3008393357;3000.0;24/12/2019;20004654.0;Tienda Gestor Medellin Zona;2.0;6.1692988;-75.64055359999999
388;20009270;Calidad y punto;Medellín;CR 71#99-88;350572506;3000.0;24/12/2019;20006627.0;Tienda Gestor Medellin Zona;2.0;6.2962921;-75.5724954
389;20009271;Granero jy;Itaguí;CL 57ASUR#60-A02;3128755277;3000.0;24/12/2019;20004654.0;Tienda Gestor Medellin Zona;2.0;6.1681832;-75.6190324
390;20009272;Distribuidora luz;Medellín;CL 101#73A-51;3136140082;3000.0;24/12/2019;20006248.0;TIENDA PRUEBA VINCULACION DIANA MES;2.0;6.2980281;-75.5749514
391;20009274;El ahorrador;Medellín;CL 110#65-04;2732992;3000.0;24/12/2019;20005716.0;Tienda Gestor Medellin Zona 8;2.0;6.305572799999999;-75.5645261
392;20009275;Trianjuay;Medellín;CL 110#64D-137;3148577512;3000.0;24/12/2019;20005716.0;Tienda Gestor Medellin Zona 8;2.0;6.300958;-75.55345899999999
393;20009276;El Diario;Itaguí;CL 28#65-39;5585804;3000.0;24/12/2019;20004880.0;TIENDA GESTOR MEDELLIN ZONA 5;2.0;6.170221199999999;-75.6392329
394;20009277;La ilusión;Medellín;CL 95#72-40;3128708989;3000.0;24/12/2019;20006628.0;TIENDA PRUEBA GESTOR ZONA 10;2.0;6.2909526;-75.5755964
395;20010946;La guadalupana;Sabaneta;CL 79 A SUR#45A-52;3017946646;3000.0;5/02/2020;20008806.0;TIENDA DE PRUEBA GESTOR ZONA 15;2.0;6.1461822;-75.6226619
396;20010948;Donde rey;Medellín;CL 103D#74A-48;6031007;3000.0;5/02/2020;20004652.0;Tienda Gestor Medellin Zona 2;2.0;6.301764299999999;-75.5737098
397;20010951;Legumbreria la 77;Sabaneta;CL 77 SUR#46 B-35;3134953558;3000.0;5/02/2020;20008806.0;TIENDA DE PRUEBA GESTOR ZONA 15;2.0;6.1488698;-75.62212559999999
398;20010952;La mano de Dios;Medellín;CL 101A#74B-100;3103999365;3000.0;5/02/2020;20004652.0;Tienda Gestor Medellin Zona 2;2.0;6.2998413;-75.5766166
399;20010953;Cesar pollos;Sabaneta;CR 45#77 SUR-20;3185674782;3000.0;5/02/2020;20008806.0;TIENDA DE PRUEBA GESTOR ZONA 15;2.0;6.147149199999999;-75.6203622
400;20010955;Café y mas;Sabaneta;CL 76E SUR#46 B-124;3193904411;3000.0;5/02/2020;20008806.0;TIENDA DE PRUEBA GESTOR ZONA 15;2.0;6.1500005;-75.6221127
401;20010956;Granero el ideal;Sabaneta;CL 76SUR#46 D-69;3015588;3000.0;5/02/2020;20008806.0;TIENDA DE PRUEBA GESTOR ZONA 15;2.0;6.1499475;-75.6199814
402;20014708;Multiservicios Berlín;Santiago de cali;CR 9#21-74;3217916794;2000.0;8/09/2020;;;2.0;3.4502333;-76.5223098
403;20010957;Marioska;Envigado;DG 33#35DSUR-41;3138999256;3000.0;5/02/2020;20006248.0;TIENDA PRUEBA VINCULACION DIANA MES;2.0;6.168002;-75.58193229999999
404;20010958;Minimarket mo;Medellín;CR 5#55F-48;2218486;3000.0;5/02/2020;20004651.0;Tienda Gestor Medellin Zona;2.0;6.236393400000001;-75.53013969999999
405;20010964;Garaje gris;Itaguí;CR 59C#47B-28;3739498;3000.0;5/02/2020;20005716.0;Tienda Gestor Medellin Zona 8;2.0;6.179364199999999;-75.6128252
406;20010972;Granero Jaime choco;Sabaneta;CL 62 SUR#43 B-39;3136833659;3000.0;6/02/2020;20008806.0;TIENDA DE PRUEBA GESTOR ZONA 15;2.0;6.1542837;-75.61048819999999
407;20010975;Granero el ritmo;Medellín;CR 31##30A-27;2174149;3000.0;6/02/2020;20006910.0;TIENDA PRUEBA GESTOR ZONA 11;2.0;6.232266900000001;-75.5923217
408;20010976;Minisuper la huerta;Sabaneta;CL 62 SUR#43 B-22;3135965516;3000.0;6/02/2020;20008806.0;TIENDA DE PRUEBA GESTOR ZONA 15;2.0;6.1543909;-75.61022070000001
409;20010978;Tienda mixta las Gemelas;Medellín;CL 113B#64BB-36;3108958570;3000.0;6/02/2020;20004880.0;TIENDA GESTOR MEDELLIN ZONA 5;2.0;6.308942;-75.560892
410;20010979;Autoservicio alcantara;Sabaneta;CR 43 A#62 SUR-57;5587569;3000.0;6/02/2020;20008806.0;TIENDA DE PRUEBA GESTOR ZONA 15;2.0;6.1536311;-75.60994889999999
411;20010982;Merca fruver la unión;Itaguí;CR 55A#45-07;3122900687;3000.0;6/02/2020;20005716.0;Tienda Gestor Medellin Zona 8;2.0;6.1735959;-75.6148716
412;20010983;Mercados la 97;Medellín;CR 81#97AA-6;3205117368;3000.0;6/02/2020;20004652.0;Tienda Gestor Medellin Zona 2;2.0;6.296822;-75.582341
413;20010985;El plan;Medellín;CL 94C # 83D-15;3207707092;3000.0;6/02/2020;20004652.0;Tienda Gestor Medellin Zona 2;2.0;6.295471300000001;-75.5862552
414;20010986;tienda singapur;Medellín;CR 58#43SUR-139;3207836963;3000.0;6/02/2020;;;2.0;6.181597099999999;-75.6398813
415;20010990;La tienda de lucho;Sabaneta;CR 50#88 SUR-26;3136140160;3000.0;7/02/2020;20008806.0;TIENDA DE PRUEBA GESTOR ZONA 15;2.0;6.1504856;-75.61687859999999
416;20010997;Distribuidora el torito;Medellín;CR 83#102B-12;4715824;3000.0;7/02/2020;20004652.0;Tienda Gestor Medellin Zona 2;2.0;6.304375599999999;-75.5819259
417;20011004;Minimercado los cossios;Medellín;CL 38A#26 EG-23;2938100;3000.0;7/02/2020;20006910.0;TIENDA PRUEBA GESTOR ZONA 11;2.0;6.2306845;-75.5553413
418;20011006;Granero will;Envigado;TV 35DDSUR#34-23;3128930228;3000.0;7/02/2020;20006248.0;TIENDA PRUEBA VINCULACION DIANA MES;2.0;6.1697355;-75.5786099
419;20011007;Granero will;Envigado;TV 34DDSUR#33-23;3128930228;3000.0;7/02/2020;20006248.0;TIENDA PRUEBA VINCULACION DIANA MES;2.0;6.1701872;-75.5831297
420;20011010;La lechuga;Medellín;CL 56A#14-11;3127909771;3000.0;7/02/2020;20004651.0;Tienda Gestor Medellin Zona;2.0;6.244971500000001;-75.54575729999999
421;20011011;Crsmi;Medellín;CL 97B#84-60;3013520596;3000.0;7/02/2020;20004652.0;Tienda Gestor Medellin Zona 2;2.0;6.298486599999999;-75.58438269999999
422;20011017;Restaurante paulita;Envigado;TV 32SUR#32D-15;2704662;3000.0;8/02/2020;20006248.0;TIENDA PRUEBA VINCULACION DIANA MES;2.0;6.1758156;-75.5838588
423;20011027;La buena suerte;Medellín;CR 78B#107B-13;2731041;3000.0;10/02/2020;20004652.0;Tienda Gestor Medellin Zona 2;2.0;6.3078897;-75.5752863
424;20011028;Tienda La Cancha;Medellín;CR 78B # 107A - 26;4618243;3000.0;10/02/2020;20004652.0;Tienda Gestor Medellin Zona 2;2.0;6.307569600000001;-75.5753009
425;20011038;Granero amacal;Itaguí;CR 65#58-15;6025598;3000.0;10/02/2020;20005716.0;Tienda Gestor Medellin Zona 8;2.0;6.182496599999999;-75.6110794
426;20011042;Tienda el grosero;Medellín;CL 47#2BB-163;3053284180;3000.0;10/02/2020;20006910.0;TIENDA PRUEBA GESTOR ZONA 11;2.0;6.2564913;-75.59616609999999
427;20011045;Salsamentaria patio bonito;Itaguí;CR 59A#63-06;3023356305;3000.0;10/02/2020;20005716.0;Tienda Gestor Medellin Zona 8;2.0;6.1814127;-75.608891
428;20011054;Ventana azul;Medellín;CR 80#112-19;5067086;3000.0;10/02/2020;20004652.0;Tienda Gestor Medellin Zona 2;2.0;6.310002;-75.57613409999999
429;20011055;La bendición de Jehová;Medellín;CL 117#78D-19;5843701;3000.0;10/02/2020;20004652.0;Tienda Gestor Medellin Zona 2;2.0;6.3105088;-75.5754963
430;20011056;Fruver la 78;Medellín;CR 78C#117-08;3216074817;3000.0;10/02/2020;20004652.0;Tienda Gestor Medellin Zona 2;2.0;6.3105387;-75.5749991
431;20011058;Tienda stefania;Medellín;CR 77E#115-10;3225414534;3000.0;10/02/2020;20004652.0;Tienda Gestor Medellin Zona 2;2.0;6.3097297;-75.5744654
432;20014637;supermercado caldas;Santiago de cali;CR 28 # 33 D - 06;4414107;2000.0;3/09/2020;3000013.0;SANDRA XIMENA JARAMILLO CHICAIZA;1.0;3.4323509;-76.50591469999999
434;20011072;Frutas y verduras juanfer;Itaguí;CL 57#58F-28;3187643486;3000.0;11/02/2020;20005716.0;Tienda Gestor Medellin Zona 8;2.0;6.1793667;-75.6087376
435;20011081;Tienda nn;Medellín;CL 98#84-22;3113871475;3000.0;11/02/2020;;;2.0;6.298577499999999;-75.58420079999999
436;20011093;La terminal de la sierra;Medellín;CL 56B#8ESTE-17;3046253407;3000.0;12/02/2020;20004651.0;Tienda Gestor Medellin Zona;2.0;6.242433399999999;-75.54264789999999
437;20011098;Legumbreria santa barbara;Envigado;DG 31#34C#SUR-02;2702901;3000.0;12/02/2020;20006248.0;TIENDA PRUEBA VINCULACION DIANA MES;2.0;6.1723097;-75.57925399999999
439;20011104;Tienda julieta;Itaguí;CR 55AA#56-58;3042740854;3000.0;12/02/2020;20005716.0;Tienda Gestor Medellin Zona 8;2.0;6.1774586;-75.6070967
440;20011106;Él filo;Medellín;CL 55H#3ESTE-54;3205834892;3000.0;12/02/2020;20004651.0;Tienda Gestor Medellin Zona;2.0;6.2349608;-75.5281372
441;20011117;Tienda mercado surti hogar;Itaguí;CR 58E#63-15;3127595276;3000.0;13/02/2020;20005716.0;Tienda Gestor Medellin Zona 8;2.0;6.1813861;-75.6077717
442;20011120;La esquina;Itaguí;CL 63A # 58C - 05;3024244221;3000.0;13/02/2020;20005716.0;Tienda Gestor Medellin Zona 8;2.0;6.1813927;-75.6063832
443;20011123;Salsamentaria ferrara;Itaguí;CL 64#58-64;3158793715;3000.0;13/02/2020;20005716.0;Tienda Gestor Medellin Zona 8;2.0;6.1820147;-75.60600219999999
444;20014638;La Futbolera;Santiago de cali;CR 47B#37-72;3186049680;2000.0;3/09/2020;20006228.0;Laura Cedeño - Gestora Vinculador;2.0;3.4067014;-76.5194496
445;20011126;El mirador;Itaguí;CL 65#57-83;6015882;3000.0;13/02/2020;20005716.0;Tienda Gestor Medellin Zona 8;2.0;6.181960399999999;-75.60497339999999
446;20011129;Kiosko la 59;Medellín;CRV 43#12-76;3127867265;3000.0;13/02/2020;;;2.0;6.249435099999999;-75.6022438
447;20011130;Piedras verdes;Medellín;CR 81#97A-43;3105046515;3000.0;13/02/2020;20004652.0;Tienda Gestor Medellin Zona 2;2.0;6.296723;-75.5823113
448;20011131;Pan mekatos;Itaguí;CL 67#52D-19;3006404868;3000.0;13/02/2020;20005716.0;Tienda Gestor Medellin Zona 8;2.0;6.1819061;-75.6007668
449;20011133;Fruver holanda;Sabaneta;CR 46#74SUR-37;2889284;3000.0;13/02/2020;20006248.0;TIENDA PRUEBA VINCULACION DIANA MES;2.0;6.1509204;-75.61823770000001
450;20011134;Comercial la rebaja;Sabaneta;CL 75SUR#46D-56;3165530669;3000.0;13/02/2020;20006248.0;TIENDA PRUEBA VINCULACION DIANA MES;2.0;6.1519116;-75.62050580000002
451;20009278;El Descanso;Itaguí;CR 64B#34-96;3108887425;3000.0;24/12/2019;20004880.0;TIENDA GESTOR MEDELLIN ZONA 5;2.0;6.1718028;-75.6340386
452;20009279;Tienda refrescante oscar;Medellín;TV 103B#74-82;3287626;3000.0;24/12/2019;20006248.0;TIENDA PRUEBA VINCULACION DIANA MES;2.0;6.3008804;-75.5737881
453;20009280;Mercados la 72;Medellín;CR 72#96-30;4382943;3000.0;24/12/2019;20006628.0;TIENDA PRUEBA GESTOR ZONA 10;2.0;6.2923516;-75.574646
454;20009281;Tienda patry;Itaguí;CL 28#65-05;5585091;3000.0;24/12/2019;20004880.0;TIENDA GESTOR MEDELLIN ZONA 5;2.0;6.1699212;-75.63914919999999
455;20009282;Punto azul;Medellín;CL 103C#74A-06;3163150990;3000.0;24/12/2019;20006248.0;TIENDA PRUEBA VINCULACION DIANA MES;2.0;6.301211299999999;-75.5736004
456;20009283;Tienda andrea;Medellín;CR 71#99-64;3128617686;3000.0;24/12/2019;20006628.0;TIENDA PRUEBA GESTOR ZONA 10;2.0;6.2960992;-75.572556
457;20009284;Las Cartagena;Medellín;CR 70#99-39;4989740;3000.0;24/12/2019;20006628.0;TIENDA PRUEBA GESTOR ZONA 10;2.0;6.2958652;-75.5721951
458;20009286;Mercados nilo;Medellín;CL 109#65-04;3137813496;3000.0;24/12/2019;20004651.0;Tienda Gestor Medellin Zona;2.0;6.3050393;-75.5651215
459;20009287;2 escalas;Itaguí;CL 26#68-29;3116435095;3000.0;24/12/2019;20004654.0;Tienda Gestor Medellin Zona;2.0;6.1709502;-75.64220159999999
460;20009288;Mariodi;Medellín;CR 67#106B-06;5092004;3000.0;24/12/2019;20004651.0;Tienda Gestor Medellin Zona;2.0;6.3048044;-75.5667838
461;20009290;Tienda la 64;Itaguí;CR 64A#27A-23;3217280808;3000.0;24/12/2019;20008805.0;Tienda Gestor Medellin Zona;2.0;6.1695193;-75.63962939999999
462;20009291;Endejhon;Medellín;CL 101#72A-67;3507891571;3000.0;24/12/2019;20004652.0;Tienda Gestor Medellin Zona 2;2.0;6.297559499999999;-75.5741882
463;20009292;Mickey mouse;Medellín;CL 101B#74-89;4779312;3000.0;24/12/2019;20004652.0;Tienda Gestor Medellin Zona 2;2.0;6.2995163;-75.5757017
464;20009293;Ventana yuli;Medellín;CR 71A#99-4;5803998;3000.0;24/12/2019;20006627.0;Tienda Gestor Medellin Zona;2.0;6.2958207;-75.5730978
465;20009294;La ventanita de flor;Medellín;CL 94 # 72-38;5827406;3000.0;24/12/2019;20006627.0;Tienda Gestor Medellin Zona;2.0;6.2897289;-75.57604239999999
466;20009295;Tienda peeez;Medellín;CL 98#71-61;2671328;3000.0;24/12/2019;20006627.0;Tienda Gestor Medellin Zona;2.0;6.294545500000001;-75.5738873
467;20009296;El manguey;Medellín;CL 98#70-25;3117028909;3000.0;24/12/2019;20006627.0;Tienda Gestor Medellin Zona;2.0;6.294176999999999;-75.5729065
468;20009298;Salsamentaria Rafael;Medellín;CL 102#74A-108;3112325757;3000.0;24/12/2019;20004652.0;Tienda Gestor Medellin Zona 2;2.0;6.300581999999999;-75.5752758
469;20009299;Tienda la mona;Medellín;CR 86#98CC-14;3147000480;3000.0;24/12/2019;20004652.0;Tienda Gestor Medellin Zona 2;2.0;6.3006945;-75.5849203
470;20009301;Él reguero;Medellín;CL 112B#64D-101;3206343481;3000.0;26/12/2019;20004651.0;Tienda Gestor Medellin Zona;2.0;6.3074302;-75.56377859999999
471;20009302;Kiosco celin;Medellín;CR 64DD#110-106;3135147614;3000.0;26/12/2019;20005716.0;Tienda Gestor Medellin Zona 8;2.0;6.306073899999999;-75.56351339999999
472;20009303;La gran fe  2;Medellín;CL 111B#65A-81;3216106894;3000.0;26/12/2019;20005716.0;Tienda Gestor Medellin Zona 8;2.0;6.3065518;-75.5651396
473;20009304;Abarrote j y s;Medellín;CR 67#111A-03;3113738658;3000.0;26/12/2019;20005716.0;Tienda Gestor Medellin Zona 8;2.0;6.3065273;-75.5659197
474;20009305;La 94;Medellín;CL 94#68A-23;3105068261;3000.0;26/12/2019;20006627.0;Tienda Gestor Medellin Zona;1.0;6.288765499999999;-75.57346609999999
475;20009306;Salsamentaria Bernardita;Itaguí;CR 57A # 62 - 110;2876492;3000.0;26/12/2019;20004881.0;Tienda Gestor Medellin Zona 6;2.0;6.1805293;-75.6048007
476;20009307;Kenedy;Itaguí;CL 31#50C-29;5992475;3000.0;26/12/2019;20004654.0;Tienda Gestor Medellin Zona;2.0;6.1636286;-75.623966
477;20009309;Chacha;Medellín;CR 67#104B-46;3105347755;3000.0;26/12/2019;20004651.0;Tienda Gestor Medellin Zona;2.0;6.3025443;-75.5669457
478;20009310;Tienda chipurra;Medellín;CR 65#104-05;3104390239;3000.0;26/12/2019;20005716.0;Tienda Gestor Medellin Zona 8;2.0;6.301533;-75.56633819999999
479;20009312;Salsamentaria Pablos;Itaguí;CR 55#66-27;345987955;3000.0;26/12/2019;20004881.0;Tienda Gestor Medellin Zona 6;2.0;6.181858900000001;-75.6031769
480;20009313;Rejita negra;Medellín;CR 64D#106A-15;3172380720;3000.0;26/12/2019;20005716.0;Tienda Gestor Medellin Zona 8;2.0;6.303293099999999;-75.56505349999999
481;20009314;Granero mo;Medellín;CL 105B#71A-156;4763140;3000.0;26/12/2019;20006248.0;TIENDA PRUEBA VINCULACION DIANA MES;2.0;6.3032528;-75.5706077
482;20009315;La Esquina De Martha;Itaguí;CL 54A SUR # 63 - 69;3105098941;3000.0;26/12/2019;20006910.0;TIENDA PRUEBA GESTOR ZONA 11;2.0;6.170592099999999;-75.60390629999999
483;20009316;Tienda biatriz;Itaguí;CL 51 SUR#64 B-04;3374597;3000.0;26/12/2019;20006910.0;TIENDA PRUEBA GESTOR ZONA 11;2.0;6.1616639;-75.6048442
484;20009317;Punto bueno;Medellín;CR 64D#104A-21;4715364;3000.0;26/12/2019;20004651.0;Tienda Gestor Medellin Zona;2.0;6.3023856;-75.5657903
485;20009318;Tienda Miguel angel;Medellín;CL 106A#74-50;3147422681;3000.0;26/12/2019;20004652.0;Tienda Gestor Medellin Zona 2;2.0;6.3044471;-75.57105949999999
486;20009319;La ventanita;Medellín;CL 106B#74-22;4763849;3000.0;26/12/2019;20006248.0;TIENDA PRUEBA VINCULACION DIANA MES;2.0;6.3049795;-75.57077260000001
487;20009322;Legumbreria Sebas;Itaguí;CR 55A # 60-15;3023978163;3000.0;26/12/2019;20004881.0;Tienda Gestor Medellin Zona 6;2.0;6.1788959;-75.6058523
488;20009323;La Ventanita;Itaguí;DG 49#34-12;3145417319;3000.0;26/12/2019;20004654.0;Tienda Gestor Medellin Zona;2.0;6.1654838;-75.6207929
489;20009324;Mercalicores girardot;Medellín;CR 65#103A-32;3128292863;3000.0;26/12/2019;20005716.0;Tienda Gestor Medellin Zona 8;2.0;6.298250599999999;-75.5668953
490;20009328;Tienda pv;Medellín;CL 106#70-3;3116000130;3000.0;26/12/2019;20006248.0;TIENDA PRUEBA VINCULACION DIANA MES;2.0;6.3039345;-75.5689415
492;20009330;La ventanita de sofia;Medellín;CL 105F#70-27;5081066;3000.0;26/12/2019;20004652.0;Tienda Gestor Medellin Zona 2;2.0;6.3034845;-75.5690767
493;20009331;La ventanita de tata;Medellín;CL 103DD#65-96;5037312;3000.0;26/12/2019;20004651.0;Tienda Gestor Medellin Zona;2.0;6.2991908;-75.56759579999999
494;20009332;Andale;Medellín;CL 105#71A-94;3206080275;3000.0;26/12/2019;20006248.0;TIENDA PRUEBA VINCULACION DIANA MES;2.0;6.2169054;-75.5951111
495;20009333;Tienda Viviana;Medellín;CL 105B#71A-50;4184354;3000.0;26/12/2019;20004652.0;Tienda Gestor Medellin Zona 2;2.0;6.3025524;-75.57010269999999
496;20009334;Charcutería los robles;Itaguí;CR 53 AB # 31 - 09;3007331192;3000.0;26/12/2019;20004654.0;Tienda Gestor Medellin Zona;2.0;6.1640978;-75.6256717
497;20009335;Tienda reja negra;Medellín;CL 104A#70-122;3045558048;3000.0;26/12/2019;20006248.0;TIENDA PRUEBA VINCULACION DIANA MES;2.0;6.301240099999999;-75.5707863
498;20009336;Mixta vida F;Itaguí;CL 31AA#55-49;3005552507;3000.0;26/12/2019;20004654.0;Tienda Gestor Medellin Zona;2.0;6.1645606;-75.6263681
499;20009337;La ventanita;Itaguí;CL 29#50A-64;5983286;3000.0;26/12/2019;20004654.0;Tienda Gestor Medellin Zona;2.0;6.1623526;-75.6238137
500;20009338;Gualanday;Itaguí;CR 50A#29-10;3725739;3000.0;26/12/2019;20004654.0;Tienda Gestor Medellin Zona;2.0;6.1619161;-75.6234182
501;20009339;Tienda marchee;Itaguí;CR 50C#29-02;6005788;3000.0;26/12/2019;20004654.0;Tienda Gestor Medellin Zona;2.0;6.1622374;-75.62393519999999
502;20009340;Salsametaria whipped;Medellín;CR 64C#104A-58;2370900;3000.0;26/12/2019;20004651.0;Tienda Gestor Medellin Zona;2.0;6.3014342;-75.5639015
503;20009341;Tienda yonni;Medellín;CL 106A#64D-43;4771060;3000.0;26/12/2019;20004651.0;Tienda Gestor Medellin Zona;2.0;6.2488673;-75.5918429
504;20009342;Granero la 65;Medellín;CR 65#103D-11;5046190;3000.0;26/12/2019;20004651.0;Tienda Gestor Medellin Zona;2.0;6.298321899999999;-75.5670346
505;20009343;Tienda Pablo;Itaguí;CL 48 SUR#72-43;3103766513;3000.0;26/12/2019;20006910.0;TIENDA PRUEBA GESTOR ZONA 11;2.0;6.1681832;-75.6190324
506;20009344;Salsamentaria jm;Medellín;CL 48SUR#72-61;4868484;3000.0;26/12/2019;20008805.0;Tienda Gestor Medellin Zona;2.0;6.1782992;-75.651523
507;20009345;Zalsamentaria Trujillo;Medellín;CL 48 SUR#72-112;4470000;3000.0;26/12/2019;20006910.0;TIENDA PRUEBA GESTOR ZONA 11;2.0;6.1782992;-75.651523
508;20009346;Los gemelos;Medellín;CL 106A#74-92;3015549930;3000.0;26/12/2019;20004652.0;Tienda Gestor Medellin Zona 2;2.0;6.3045503;-75.5713344
509;20009347;Jy;Medellín;CL 106B#74-39;3046171977;3000.0;26/12/2019;20006248.0;TIENDA PRUEBA VINCULACION DIANA MES;2.0;6.3047847;-75.5709136
510;20009348;Tienda Nelson jy;Medellín;CL 106#72-74;3046171977;3000.0;26/12/2019;20006248.0;TIENDA PRUEBA VINCULACION DIANA MES;2.0;6.3041231;-75.5704557
511;20009349;Granero Bedoya;Itaguí;CL 40 A SUR#67-117;3016287833;3000.0;26/12/2019;20006910.0;TIENDA PRUEBA GESTOR ZONA 11;2.0;6.1552016;-75.57995009999999
512;20009350;Rejita ligia;Medellín;CL 103FF#65-51;3004495956;3000.0;26/12/2019;20005716.0;Tienda Gestor Medellin Zona 8;2.0;6.3002292;-75.5669113
513;20009352;Mercados chipre;Medellín;CL 103D#66-124;3041221755;3000.0;26/12/2019;20005716.0;Tienda Gestor Medellin Zona 8;2.0;6.298991399999999;-75.56820929999999
514;20009353;Tienda jairos;Medellín;CL 103D#65-08;3195857361;3000.0;26/12/2019;20005716.0;Tienda Gestor Medellin Zona 8;2.0;6.2983153;-75.56698999999999
515;20009354;La Canastilla Ideal;Itaguí;CR 51 # 32 - 78;3117282156;3000.0;26/12/2019;20004654.0;Tienda Gestor Medellin Zona;2.0;6.1662233;-75.6223959
516;20009355;Variedades darinel;Medellín;CL 105A#75-59;3122201645;3000.0;26/12/2019;20006248.0;TIENDA PRUEBA VINCULACION DIANA MES;2.0;6.304793099999999;-75.5723406
517;20009356;Tienda maria;Itaguí;CL 34#34-06;3217352154;3000.0;26/12/2019;20004880.0;TIENDA GESTOR MEDELLIN ZONA 5;2.0;6.165667;-75.6213755
518;20011135;Panadería rapipan;Sabaneta;CL 75SUR#46B-09;3113644344;3000.0;13/02/2020;20006248.0;TIENDA PRUEBA VINCULACION DIANA MES;2.0;6.150693;-75.6196094
519;20011136;Tienda Luisa N2;Medellín;CR 15C#40-83;3015569493;3000.0;13/02/2020;20006910.0;TIENDA PRUEBA GESTOR ZONA 11;2.0;6.231674399999999;-75.5456888
520;20011141;Granero juanito;Medellín;CR 54#9BSUR-11;3124108541;3000.0;14/02/2020;;;2.0;6.201651099999999;-75.6000504
521;20011144;Huerta sonson;Envigado;CL 38SUR#38-25;3127242781;3000.0;14/02/2020;20006248.0;TIENDA PRUEBA VINCULACION DIANA MES;2.0;6.167995400000001;-75.58505029999999
522;20011149;Legumbreria robles del sur;Itaguí;CL 31AA#56-10;3117944246;3000.0;14/02/2020;20005716.0;Tienda Gestor Medellin Zona 8;2.0;6.164579799999999;-75.6264218
523;20011150;Legumbre las Vegas;Medellín;CR 81#97A-49;3136663979;3000.0;14/02/2020;20004652.0;Tienda Gestor Medellin Zona 2;2.0;6.2965342;-75.58251059999999
524;20011159;JS imera;Itaguí;CL 32 # 48 - 05;3116208284;3000.0;15/02/2020;20005716.0;Tienda Gestor Medellin Zona 8;2.0;6.1641271;-75.6207335
525;20011174;Donde vivi;Itaguí;CR 65A#34-23;3128639442;3000.0;16/02/2020;;;2.0;6.1695141;-75.6323755
526;20011175;Tienda la abundacia;Medellín;CL 44#42-17;3054878663;3000.0;16/02/2020;;;2.0;6.242131199999999;-75.5642627
527;20011181;La teja verde;Medellín;CR 80#106A-11;3045350149;3000.0;17/02/2020;20004652.0;Tienda Gestor Medellin Zona 2;2.0;6.3072437;-75.5765991
528;20007873;Autoservicio El exitoso;Medellín;CL 88B#54B-47;3117396723;3000.0;3/12/2019;20006248.0;TIENDA PRUEBA VINCULACION DIANA MES;2.0;6.2855254;-75.5817422
529;20009357;Mercado la 74;Medellín;CR 74#101B-07;3017774100;3000.0;26/12/2019;20004652.0;Tienda Gestor Medellin Zona 2;2.0;6.299393299999999;-75.57501580000002
530;20009358;La piedra;Medellín;CR 74#105B-18;4760974;3000.0;26/12/2019;20004652.0;Tienda Gestor Medellin Zona 2;2.0;6.3033229;-75.5706845
531;20011439;Tienda JJ;Medellín;CL 88A#54B-41;3015042176;3000.0;27/02/2020;20004654.0;Tienda Gestor Medellin Zona;2.0;6.281146;-75.5663188
532;20009360;La ambrosía;Medellín;CR 70#104A-21;3132680188;3000.0;26/12/2019;20004652.0;Tienda Gestor Medellin Zona 2;2.0;6.3008636;-75.5699863
533;20009363;Granero eiber;Medellín;CR 69#98-8;3206900812;3000.0;26/12/2019;20006627.0;Tienda Gestor Medellin Zona;2.0;6.294003399999999;-75.5718749
534;20011185;Tienda lida;Itaguí;CL 30#50C-34;3005417829;3000.0;17/02/2020;20005716.0;Tienda Gestor Medellin Zona 8;2.0;6.1633062;-75.6241767
535;20011188;Tienda Escobar;Medellín;CL 38A#26C-06;3138825799;3000.0;17/02/2020;20006910.0;TIENDA PRUEBA GESTOR ZONA 11;2.0;6.230756599999999;-75.5560644
536;20011189;Tienda la colmena;Itaguí;CR 50 C # 28-26;3138683337;3000.0;17/02/2020;20005716.0;Tienda Gestor Medellin Zona 8;2.0;6.161260899999999;-75.6240141
537;20011193;Domicilios suramerica;Itaguí;CL 25A#50C-12;3206862524;3000.0;17/02/2020;20005716.0;Tienda Gestor Medellin Zona 8;2.0;6.160647;-75.6247358
538;20011194;Salsamentaria orfelia;Itaguí;CR 25#50C-05;3007055111;3000.0;17/02/2020;20005716.0;Tienda Gestor Medellin Zona 8;2.0;6.1681832;-75.6190324
539;20011196;Los Cedros;Itaguí;CR 50C # 24-14;4470000;3000.0;17/02/2020;20005716.0;Tienda Gestor Medellin Zona 8;2.0;6.1594422;-75.62478089999999
540;20011197;Tienda mixta rene;Itaguí;CL 23#50C-04;3117435181;3000.0;17/02/2020;20005716.0;Tienda Gestor Medellin Zona 8;2.0;6.1587416;-75.6250203
541;20011198;La mona del encanto;Itaguí;CR 50A#26-23;3014615454;3000.0;17/02/2020;20005716.0;Tienda Gestor Medellin Zona 8;2.0;6.1608933;-75.6233187
542;20009359;La gran esquina;Medellín;CL 105 B#71A-07;3152677078;3000.0;26/12/2019;20004652.0;Tienda Gestor Medellin Zona 2;2.0;6.3021986;-75.5700098
543;20011199;Palocity;Itaguí;CR 55#79-36;3014065090;3000.0;17/02/2020;;;2.0;6.1902941;-75.5974808
544;20011208;Mirador N 2;Medellín;CL 38A#26DD-40;3022406805;3000.0;18/02/2020;20006910.0;TIENDA PRUEBA GESTOR ZONA 11;2.0;6.2304493;-75.5546355
545;20011219;Tienda y abarrote el machetico;Itaguí;CL 64#44-157;3742058;3000.0;18/02/2020;20005716.0;Tienda Gestor Medellin Zona 8;2.0;6.177211799999999;-75.59801159999999
546;20011228;Granero nuevo la 66;Itaguí;CL 66#48-01;5969752;3000.0;18/02/2020;20005716.0;Tienda Gestor Medellin Zona 8;2.0;6.1799244;-75.5987298
547;20011229;Salsamentaria donde salas;Itaguí;CL 67 # 48 - 85;3113318320;3000.0;18/02/2020;20005716.0;Tienda Gestor Medellin Zona 8;2.0;6.1807348;-75.5990449
548;20011232;La esquina de toro;Itaguí;CR 49#64-04;3007343108;3000.0;18/02/2020;20005716.0;Tienda Gestor Medellin Zona 8;2.0;6.1787006;-75.60019179999999
549;20011233;La fortuna;Itaguí;CR 50#64-86;3156965810;3000.0;18/02/2020;20005716.0;Tienda Gestor Medellin Zona 8;2.0;6.1796226;-75.6001641
550;20011234;EL Precio Justo;Itaguí;CL 64 # 47-92;3016052282;3000.0;18/02/2020;20005716.0;Tienda Gestor Medellin Zona 8;2.0;6.1786615;-75.59999839999999
551;20011235;Agrotienda Primavera;Envigado;CL 40 SUR # 24D-24;5777803;3000.0;18/02/2020;20006248.0;TIENDA PRUEBA VINCULACION DIANA MES;2.0;6.147359;-75.5762903
552;20011239;Tienda del mono diaz;Itaguí;CL 64A#48-02;3113346135;3000.0;18/02/2020;20005716.0;Tienda Gestor Medellin Zona 8;2.0;6.1789879;-75.5997165
553;20011240;Granero mixto el socio;Itaguí;CR 45A#64-83;3054878925;3000.0;18/02/2020;20005716.0;Tienda Gestor Medellin Zona 8;2.0;6.1781112;-75.59789119999999
554;20011241;Tienda hugo;Envigado;CL 41AASUR#29A-23;2704942;3000.0;18/02/2020;20006248.0;TIENDA PRUEBA VINCULACION DIANA MES;2.0;6.1588911;-75.5854883
555;20011242;Tienda y panadería el placer;Itaguí;CL 66#47-31;3233005051;3000.0;18/02/2020;20005716.0;Tienda Gestor Medellin Zona 8;2.0;6.1804491;-75.5993337
556;20011243;La finca;Itaguí;CR 49#70-30;3137653393;3000.0;18/02/2020;20005716.0;Tienda Gestor Medellin Zona 8;2.0;6.1811636;-75.5972282
557;20011244;Tienda hilary;Itaguí;CL 72#48-72;3217240450;3000.0;18/02/2020;20005716.0;Tienda Gestor Medellin Zona 8;2.0;6.1816898;-75.5960877
558;20011252;El triangulo;Medellín;CL 98CC#80-37;3117257802;3000.0;19/02/2020;;;2.0;6.2981028;-75.5808703
559;20011264;Aristiteo;Envigado;DG 31#32DSUR-09;5968509;3000.0;19/02/2020;20006248.0;TIENDA PRUEBA VINCULACION DIANA MES;2.0;6.1760131;-75.5830884
560;20011265;Granero promesa;Envigado;TV 35BSUR#31A-14;3104092432;3000.0;19/02/2020;20006248.0;TIENDA PRUEBA VINCULACION DIANA MES;2.0;6.1696093;-75.5805359
561;20011274;Mercacris;Sabaneta;CL 75SUR#29-41;3108285868;3000.0;20/02/2020;20006248.0;TIENDA PRUEBA VINCULACION DIANA MES;2.0;6.1391447;-75.6120172
562;20011278;Caseta gloria;Sabaneta;CL 75SUR#29-25;2884092;3000.0;20/02/2020;20006248.0;TIENDA PRUEBA VINCULACION DIANA MES;2.0;6.1390347;-75.6120231
563;20011291;La cañada;Medellín;CR 8A#57A-41;3007535593;3000.0;20/02/2020;20004651.0;Tienda Gestor Medellin Zona;2.0;6.2361846;-75.5338038
564;20011292;Café ensueño;Sabaneta;CR 46CC#72AS-02;3192284862;3000.0;20/02/2020;20006248.0;TIENDA PRUEBA VINCULACION DIANA MES;2.0;6.1511394;-75.6199329
565;20011293;Granero ideal;Sabaneta;CL 76SUR#46D-69;3015588;3000.0;20/02/2020;20006248.0;TIENDA PRUEBA VINCULACION DIANA MES;2.0;6.150892;-75.6213046
566;20011295;Restaurante calle larga;Sabaneta;CL 75SUR#46D-40;5973847;3000.0;20/02/2020;20006248.0;TIENDA PRUEBA VINCULACION DIANA MES;2.0;6.1518343;-75.62042439999999
568;20009365;Tienda clara;Medellín;CR 68#94-5;2376193;3000.0;26/12/2019;20006627.0;Tienda Gestor Medellin Zona;2.0;6.2886758;-75.5728977
569;20009366;Granero las juanas;Medellín;CR 66#93-119;5841490;3000.0;26/12/2019;20006627.0;Tienda Gestor Medellin Zona;2.0;6.287885999999999;-75.5717026
570;20009367;La villa;Medellín;CR 66#96-41;3127138941;3000.0;26/12/2019;20006627.0;Tienda Gestor Medellin Zona;2.0;6.291003600000001;-75.57070279999999
571;20009368;La rosa;Medellín;CL 97#96-129;3146244031;3000.0;26/12/2019;20006627.0;Tienda Gestor Medellin Zona;2.0;6.2931691;-75.5743584
572;20009369;Las 3 mellizas;Medellín;CL 98#67-50;2300680;3000.0;26/12/2019;20006627.0;Tienda Gestor Medellin Zona;2.0;6.2937381;-75.5709617
573;20009370;Tienda gm;Medellín;CL 53ASUR#64A-05;3218086400;3000.0;26/12/2019;20008805.0;Tienda Gestor Medellin Zona;2.0;6.281459799999999;-75.6055535
574;20009371;Mercados bari;Itaguí;CL 50EA SUR#67-170;5791943;3000.0;26/12/2019;20008805.0;Tienda Gestor Medellin Zona;2.0;6.1681832;-75.6190324
575;20009372;Tienda el cachorro;Itaguí;TV 50C SUR#69-04;2867615;3000.0;26/12/2019;20008805.0;Tienda Gestor Medellin Zona;2.0;6.161834799999999;-75.6239635
576;20009373;La fe de antonio;Itaguí;CL 43A SUR#77-05;3122373624;3000.0;26/12/2019;20008805.0;Tienda Gestor Medellin Zona;2.0;6.1681832;-75.6190324
577;20009374;Tienda el baratillo;Itaguí;CL 39D SUR#66A-122;3372760;3000.0;26/12/2019;20008805.0;Tienda Gestor Medellin Zona;2.0;6.1817802;-75.60214239999999
578;20011324;Frutas y verduras el rosario;Itaguí;CL 47C#59-08;3178690236;3000.0;21/02/2020;20005716.0;Tienda Gestor Medellin Zona 8;2.0;6.1783567;-75.6122972
579;20009375;Carpa azul;Medellín;CL 40A SUR#70-40;3002941083;3000.0;26/12/2019;20008805.0;Tienda Gestor Medellin Zona;2.0;6.185395499999999;-75.6527713
580;20009378;Vero toro;Medellín;CL 42D#11C-106;3046761146;3000.0;27/12/2019;;;2.0;6.249163999999999;-75.60367099999999
581;20009379;Ecotienda;Medellín;CR 72#99-30;3046604629;3000.0;27/12/2019;;;2.0;6.296053499999999;-75.5733315
582;20009382;Alisados y tratamientos DV;Medellín;CL 45#10A-73;3104945061;3000.0;27/12/2019;;;2.0;6.229917599999999;-75.54314939999999
583;20009383;Tienda jugos y buñuelos;Medellín;CR 65#103-48;2673503;3000.0;27/12/2019;20005716.0;Tienda Gestor Medellin Zona 8;2.0;6.2977419;-75.5670501
584;20009384;Él enfarrado;Medellín;CR 65#103-19;3015744668;3000.0;27/12/2019;20004651.0;Tienda Gestor Medellin Zona;2.0;6.2972952;-75.5673438
585;20009386;Tienda lupe;Medellín;CR 70A # 91-16;3015744668;3000.0;27/12/2019;20005716.0;Tienda Gestor Medellin Zona 8;2.0;6.283189000000001;-75.5757639
586;20009387;La gran manzana de nico;Medellín;CR 67#103C-05;3137528234;3000.0;27/12/2019;20005716.0;Tienda Gestor Medellin Zona 8;2.0;6.2983943;-75.5687324
587;20009388;Legumbreria mixta la y;Medellín;CL 104#76-14;3148931529;3000.0;27/12/2019;20006248.0;TIENDA PRUEBA VINCULACION DIANA MES;2.0;6.3027583;-75.57444
588;20009389;Distribuidora LP;Itaguí;CL 29#50D-42;5966496;3000.0;27/12/2019;20004880.0;TIENDA GESTOR MEDELLIN ZONA 5;2.0;6.1622591;-75.6253134
589;20009390;Fully h d 2;Medellín;CR 76#104-27;3234487824;3000.0;27/12/2019;20004652.0;Tienda Gestor Medellin Zona 2;2.0;6.3027359;-75.5742727
590;20009391;Full HD 1;Medellín;CR 76#104A-10;3234487824;3000.0;27/12/2019;20004652.0;Tienda Gestor Medellin Zona 2;2.0;6.3032148;-75.57417350000001
591;20009392;La ventanita cafe;Medellín;CL 103D#68A-55;3196349407;3000.0;27/12/2019;20005716.0;Tienda Gestor Medellin Zona 8;2.0;6.2996247;-75.56972499999999
592;20009393;El progreso;Medellín;CL 104#76-66;3229038284;3000.0;27/12/2019;20006248.0;TIENDA PRUEBA VINCULACION DIANA MES;2.0;6.3029427;-75.5747705
593;20009394;Él plan;Medellín;CL 103C#67-108;3227183837;3000.0;27/12/2019;20004651.0;Tienda Gestor Medellin Zona;2.0;6.2990324;-75.5693794
595;20009399;Tienda naranjo;Itaguí;AV 37B#44-20;3715015;3000.0;27/12/2019;20008805.0;Tienda Gestor Medellin Zona;2.0;6.167716;-75.6190513
596;20009400;Chucho;Medellín;TV 103A#74A-77;3148449315;3000.0;27/12/2019;20006248.0;TIENDA PRUEBA VINCULACION DIANA MES;2.0;6.3015458;-75.5745784
597;20009401;Pilón de magola;Medellín;CL 102B#74A-64;5863691;3000.0;27/12/2019;20004652.0;Tienda Gestor Medellin Zona 2;2.0;6.3008671;-75.57490690000002
598;20013800;Tienda Comidas Rapidas El Paisa;Santiago de Cali;DG CR 22 B # 70 C- 22 ;44444447;2000.0;24/07/2020;3000013.0;SANDRA XIMENA JARAMILLO CHICAIZA;1.0;3.4402106;-76.4854714
599;20009404;La bendición;Medellín;CR 66#101A-25;2438078;3000.0;27/12/2019;20004651.0;Tienda Gestor Medellin Zona;2.0;6.2965007;-75.5684492
600;20009406;Abarrotes Luisa;Medellín;CR 74#101C-08;3143367667;3000.0;27/12/2019;20004652.0;Tienda Gestor Medellin Zona 2;2.0;6.2995085;-75.57428240000002
601;20009407;Carpa Azul;Itaguí;CL 34 A # 53-32;3128988855;3000.0;27/12/2019;20004880.0;TIENDA GESTOR MEDELLIN ZONA 5;2.0;6.1676518;-75.6230593
602;20009413;Tienda j y l;Medellín;CL 103#66-72;3233404090;3000.0;27/12/2019;20005716.0;Tienda Gestor Medellin Zona 8;2.0;6.2979137;-75.5683349
603;20011327;Sarymar;Envigado;TV 34DSUR#31F-14;3184862606;3000.0;21/02/2020;20006248.0;TIENDA PRUEBA VINCULACION DIANA MES;2.0;6.171827;-75.5810276
604;20011331;Salsamentaria glomar;Itaguí;CL 72A#50-72;3052987742;3000.0;22/02/2020;20005716.0;Tienda Gestor Medellin Zona 8;2.0;6.183161699999999;-75.5971424
605;20011337;Tati;Medellín;CR 62#105-39;3128262037;3000.0;22/02/2020;;;2.0;6.1755203;-75.643306
606;20011345;Al dia;Envigado;CL 41#25-16;3042019741;3000.0;24/02/2020;20006248.0;TIENDA PRUEBA VINCULACION DIANA MES;1.0;6.1532487;-75.584583
607;20007742;Autoservicio los álamos;Medellín;CR 52C#85-105;3005053956;3000.0;28/11/2019;20006627.0;Tienda Gestor Medellin Zona;2.0;6.2792502;-75.56483999999999
608;20011361;Granero mixto 3 D;Itaguí;CL 76#50-69;3137495000;3000.0;24/02/2020;20005716.0;Tienda Gestor Medellin Zona 8;2.0;6.1851297;-75.5952653
609;20011362;Tienda alca;Itaguí;CL 77A#50-37;3173608049;3000.0;24/02/2020;20005716.0;Tienda Gestor Medellin Zona 8;2.0;6.185657399999999;-75.59448
610;20011363;Sanmarino;Itaguí;CR 52A#80-34;2774109;3000.0;24/02/2020;20005716.0;Tienda Gestor Medellin Zona 8;2.0;6.1890469;-75.5938291
611;20011370;Los rios;Medellín;CR 81#107B-08;3122661419;3000.0;24/02/2020;20004652.0;Tienda Gestor Medellin Zona 2;2.0;6.3085439;-75.577215
612;20011372;Granero el milagroso;Medellín;CR 71A # 78A-04;3146064711;3000.0;24/02/2020;;;2.0;6.2761377;-75.58080559999999
613;20011388;Tienda sym;Medellín;CR 26EE#37-37;3208940687;3000.0;25/02/2020;;;2.0;6.2297517;-75.55534349999999
614;20011425;El mosquito alegre;Itaguí;CR 53#67-96;3016066597;3000.0;26/02/2020;;;2.0;6.183233899999999;-75.60099939999999
615;20011432;La reja blanca;Itaguí;CL 63#61-104;3715020;3000.0;27/02/2020;20011347.0;TIENDA DE PRUEBA Gestor zona 6;2.0;6.182159899999999;-75.61059200000001
617;20011441;Mercados Primavera;Itaguí;CR 58FF#55-103;3013311187;3000.0;27/02/2020;20011347.0;TIENDA DE PRUEBA Gestor zona 6;2.0;6.1793419;-75.60889499999999
619;20011459;Mixto el gaitan;Envigado;CL 38ASUR#31-55;3004890312;3000.0;29/02/2020;20006248.0;TIENDA PRUEBA VINCULACION DIANA MES;2.0;6.1651697;-75.58195479999999
620;20011517;Tienda Flor;Medellín;CR 76 B # 108-60;3207281855;3000.0;2/03/2020;;;2.0;6.3075765;-75.5724158
621;20011520;La cancha de los mosquitos;Medellín;CL 53 # 3A - 97;3232654554;3000.0;2/03/2020;;;2.0;6.2324753;-75.5329175
622;20011521;La esquina;Medellín;CR 77E#114-91;3136160358;3000.0;2/03/2020;;;2.0;6.309562499999999;-75.57444939999999
623;20011522;Alfonso jireth;Envigado;CR 25#41B-76;3005049024;3000.0;3/03/2020;20006248.0;TIENDA PRUEBA VINCULACION DIANA MES;2.0;6.154131;-75.58650999999999
624;20011524;La gran esquina Esmeralda;Itaguí;CL 65#44B-02;4977092;3000.0;3/03/2020;20011347.0;TIENDA DE PRUEBA Gestor zona 6;2.0;6.1778726;-75.59667759999999
625;20011528;Tienda everes;Medellín;CR 86B#98BB-18;3008924938;3000.0;3/03/2020;;;2.0;6.3006483;-75.5856292
626;20011531;Salsamentaria aracataca;Itaguí;CL 66A#44A-03;3774077;3000.0;3/03/2020;20011347.0;TIENDA DE PRUEBA Gestor zona 6;2.0;6.178356399999999;-75.5961511
627;20013816;Tienda Mixta;Santiago de Cali;CR 26L#72H2-32;3172330183;2000.0;25/07/2020;;;2.0;3.4279333;-76.4858316
628;20014855;Granero el despertar;Medellín;CR 23#99A-58;3023333580;3000.0;15/09/2020;20014006.0;Tienda Gestor Medellin Zona;1.0;6.2877564;-75.5380703
629;20011533;Canova car;Itaguí;CL 67A#46A-02;3226101320;3000.0;3/03/2020;20011347.0;TIENDA DE PRUEBA Gestor zona 6;2.0;6.1796457;-75.5975371
630;20011535;Charcutería Doña María del Sur;Itaguí;CL 67#48-75;5794600;3000.0;3/03/2020;20011347.0;TIENDA DE PRUEBA Gestor zona 6;2.0;6.1807348;-75.5990448
631;20011536;Tiendam;Envigado;CR 30 # 40F SUR - 70;3017659077;3000.0;3/03/2020;20006248.0;TIENDA PRUEBA VINCULACION DIANA MES;2.0;6.1606996;-75.5845499
632;20011539;Tienda rruffo;Envigado;AC 45#56-7;3122856509;3000.0;4/03/2020;;;2.0;6.167286499999999;-75.5836963
633;20011542;Tienda pady;Medellín;CL 66A#55A-51;3006191485;3000.0;4/03/2020;;;2.0;6.2640895;-75.5693932
634;20011543;Donde Omar;Medellín;CL 38A#26DD-18;3012836513;3000.0;4/03/2020;20006910.0;TIENDA PRUEBA GESTOR ZONA 11;2.0;6.2304493;-75.5546355
635;20011544;Mini mercado los primos;Medellín;CL 38B#26E-140;3128280829;3000.0;4/03/2020;20006910.0;TIENDA PRUEBA GESTOR ZONA 11;2.0;6.2314488;-75.55440229999999
636;20011546;Tienda Mixta Gustavo;Medellín;CR 74#104F-05;3122648069;3000.0;4/03/2020;;;2.0;6.302715;-75.5719487
637;20011547;Maloka;Medellín;CL 38#26EH-7;3197608679;3000.0;4/03/2020;20006910.0;TIENDA PRUEBA GESTOR ZONA 11;2.0;6.2310854;-75.555466
638;20011549;Restaurante jholian;Medellín;CL 101#74-10;3196398468;3000.0;4/03/2020;;;2.0;6.2986359;-75.5754613
639;20011553;Marios pizza;Sabaneta;;3059244436;3000.0;5/03/2020;;;2.0;6.1504856;-75.61687859999999
640;20011585;El comienzo;Medellín;CR 36#66-G08;3005156727;3000.0;6/03/2020;;;2.0;6.209333399999999;-75.5656565
641;20011590;Granero la econimia;Medellín;CR 36#69-16;3113866906;3000.0;6/03/2020;;;2.0;6.2636691;-75.5478181
642;20011591;Tienda gaby;Medellín;CR 63 SUR # 31 - 143;3136647670;3000.0;6/03/2020;20011350.0;TIENDA DE PRUEBA Gestor Zona 16;2.0;6.253462799999999;-75.5787986
643;20011609;Valconcito celeste;Medellín;CR 37#67-84;3016706231;3000.0;6/03/2020;;;2.0;6.2625635;-75.54869889999999
644;20009414;Mercados marlon;Itaguí;CR 50A#35-21;3106671487;3000.0;27/12/2019;20004654.0;Tienda Gestor Medellin Zona;2.0;6.166848;-75.6208594
645;20009415;La ventana;Medellín;CL 102#65-58;2677205;3000.0;27/12/2019;20005716.0;Tienda Gestor Medellin Zona 8;2.0;6.2971379;-75.56788499999999
646;20009416;Granero detera;Itaguí;CL 32#53-73;3217122687;3000.0;27/12/2019;20006910.0;TIENDA PRUEBA GESTOR ZONA 11;2.0;6.1662852;-75.62434209999999
647;20009417;Ventana Jara;Medellín;CL 102B#72-48;2375563;3000.0;27/12/2019;20004652.0;Tienda Gestor Medellin Zona 2;2.0;6.2997024;-75.5725518
648;20011614;Variedades cheap life;Envigado;TV 34DSUR#32D-03;3113855761;3000.0;6/03/2020;20006248.0;TIENDA PRUEBA VINCULACION DIANA MES;1.0;6.171105;-75.5825502
649;20009418;Tienda laura;Medellín;CR 67#101-53;5872000;3000.0;27/12/2019;20004651.0;Tienda Gestor Medellin Zona;2.0;6.296781699999999;-75.5696423
650;20009420;Granero el rodeo;Itaguí;CR 55#53SUR-53;3749054;3000.0;27/12/2019;20008805.0;Tienda Gestor Medellin Zona;2.0;6.1826465;-75.60305249999999
651;20009421;Granero la 103;Medellín;CR 74#103C-4;4782743;3000.0;27/12/2019;20004652.0;Tienda Gestor Medellin Zona 2;2.0;6.3006593;-75.5727366
652;20009422;La hortaliza;Medellín;CL 103D#71-95;3207615324;3000.0;27/12/2019;20006248.0;TIENDA PRUEBA VINCULACION DIANA MES;2.0;6.3003313;-75.5714167
653;20009423;Minimercado la 39;Itaguí;CL 39A#50A-73;3117835247;3000.0;27/12/2019;20004880.0;TIENDA GESTOR MEDELLIN ZONA 5;2.0;6.1700199;-75.6178759
654;20009424;Tienda tyj;Medellín;CL 103E#63E-40;2679599;3000.0;27/12/2019;20006627.0;Tienda Gestor Medellin Zona;2.0;6.297323500000001;-75.564769
655;20009425;Granero Sanchez;Medellin;CL 48D SUR # 56 - 07;3711243;3000.0;27/12/2019;20008805.0;Tienda Gestor Medellin Zona;2.0;6.2550805;-75.58394849999999
656;20011615;Holanda;Medellín;CL 94D#83D-40;3175378503;3000.0;6/03/2020;;;2.0;6.295654499999999;-75.5854979
657;20009426;Lasmi;Medellín;CR 56#48A SUR-73;5819007;3000.0;27/12/2019;20006910.0;TIENDA PRUEBA GESTOR ZONA 11;2.0;6.2506954;-75.57374279999999
658;20009427;Delicias Brisas De San Antonio;Itaguí;CR 58 # 48 SUR - 15;3016550360;3000.0;27/12/2019;20008805.0;Tienda Gestor Medellin Zona;2.0;6.176851;-75.6116646
659;20009428;Ventana dora;Medellín;CL 103D#74-44;2372058;3000.0;27/12/2019;20004652.0;Tienda Gestor Medellin Zona 2;2.0;6.3012668;-75.572771
660;20009429;J y G;Itaguí;CR 58#48 SUR-15;3003317066;3000.0;27/12/2019;20006910.0;TIENDA PRUEBA GESTOR ZONA 11;2.0;6.1952712;-75.5971173
661;20009430;Tienda de memo;Medellín;CR 58 # 48 SUR 15;4868484;3000.0;27/12/2019;20008805.0;Tienda Gestor Medellin Zona;2.0;6.2115263;-75.5865484
662;20009431;El palo de mango;Medellín;CL 103D#63C-53;3022198075;3000.0;27/12/2019;20006627.0;Tienda Gestor Medellin Zona;2.0;6.298627499999999;-75.56792879999999
663;20009432;Granero luciana;Medellín;CR 69#99-54;3017458987;3000.0;27/12/2019;20004651.0;Tienda Gestor Medellin Zona;2.0;6.2955782;-75.5711917
664;20009433;Salsamentaria él ovejo;Medellín;CR 70#99-77;3007023696;3000.0;27/12/2019;20005716.0;Tienda Gestor Medellin Zona 8;2.0;6.2960981;-75.5721255
665;20009437;Tienda enma;Medellín;CR 67#101-32;3225860688;3000.0;27/12/2019;20005716.0;Tienda Gestor Medellin Zona 8;2.0;6.2965387;-75.5694874
666;20009438;La nueva era;Medellín;CR 66B#101-35;4770200;3000.0;27/12/2019;20005716.0;Tienda Gestor Medellin Zona 8;2.0;6.296529;-75.569339
667;20009439;Granero juladi;Medellín;CL 103D#66-53;4710300;3000.0;27/12/2019;20005716.0;Tienda Gestor Medellin Zona 8;2.0;6.2985033;-75.56781389999999
668;20009440;Ventana blanca;Medellín;CR 69#100-50;3182345806;3000.0;27/12/2019;20005716.0;Tienda Gestor Medellin Zona 8;2.0;6.2962479;-75.5708581
669;20009441;Pan Juan pan;Itaguí;CR 62B#25A-43;3103172651;3000.0;27/12/2019;20008805.0;Tienda Gestor Medellin Zona;2.0;6.166945699999999;-75.64220329999999
670;20009442;La ventanitade la 69;Medellín;CR 69#93-64;2372280;3000.0;27/12/2019;20006628.0;TIENDA PRUEBA GESTOR ZONA 10;2.0;6.288097;-75.57371359999999
671;20009443;Piramide de las flores;Medellín;CL 102#66B-05;3113592958;3000.0;27/12/2019;20004651.0;Tienda Gestor Medellin Zona;2.0;6.2971582;-75.5691264
672;20009444;Tienda consuelo;Medellín;CL 104#76-51;3006011570;3000.0;27/12/2019;20006248.0;TIENDA PRUEBA VINCULACION DIANA MES;2.0;6.3026659;-75.5747557
673;20009445;Tienda el garaje;Medellín;CR 69#94-52;2373818;3000.0;27/12/2019;20006628.0;TIENDA PRUEBA GESTOR ZONA 10;2.0;6.2891901;-75.57332509999999
675;20009447;Tienda natalia;Medellín;CL 103C#66-97;5096420;3000.0;27/12/2019;20004651.0;Tienda Gestor Medellin Zona;2.0;6.2981533;-75.5683358
676;20009448;Ventanita zapata;Medellín;CL 102B#72-110;4381812;3000.0;27/12/2019;20006248.0;TIENDA PRUEBA VINCULACION DIANA MES;2.0;6.2999098;-75.57296339999999
677;20009449;Legumbreria y tienda;Medellín;CR 67#103C-19;5072899;3000.0;27/12/2019;20004651.0;Tienda Gestor Medellin Zona;2.0;6.298565099999999;-75.5687915
678;20009450;El chuzo de Ángela;Medellín;CR 69#96-99;5813179;3000.0;27/12/2019;20006628.0;TIENDA PRUEBA GESTOR ZONA 10;2.0;6.292140900000001;-75.57259169999999
679;20009451;Barilogico;Itaguí;CR 64B#25A-03;3021125;3000.0;27/12/2019;20008805.0;Tienda Gestor Medellin Zona;2.0;6.1687774;-75.6428179
680;20009452;Donde make;Medellín;CR 69#99-03;3136783990;3000.0;27/12/2019;20006628.0;TIENDA PRUEBA GESTOR ZONA 10;2.0;6.295297799999999;-75.5715298
681;20009453;La estrella;Medellín;CR 74#102-27;3016252629;3000.0;27/12/2019;20006248.0;TIENDA PRUEBA VINCULACION DIANA MES;2.0;6.299935199999999;-75.5739856
682;20009455;Reja gris;Medellín;CL 103EE#65-66;4711592;3000.0;27/12/2019;20004651.0;Tienda Gestor Medellin Zona;2.0;6.300034;-75.5671687
683;20009456;Mixto juan;Medellín;CR 66#96-02;3202636595;3000.0;27/12/2019;20006628.0;TIENDA PRUEBA GESTOR ZONA 10;2.0;6.2906564;-75.5705955
684;20009457;El buen precio de la 65;Medellín;CR 66#96-53;3117189289;3000.0;27/12/2019;20006628.0;TIENDA PRUEBA GESTOR ZONA 10;2.0;6.291095800000001;-75.5706731
685;20009458;Mercados el tigre;Medellín;CL 98#67-08;3185949773;3000.0;27/12/2019;20006628.0;TIENDA PRUEBA GESTOR ZONA 10;2.0;6.2935674;-75.5706338
686;20009459;La carpita;Medellín;CR 63D#103D-35;4720957;3000.0;27/12/2019;20006628.0;TIENDA PRUEBA GESTOR ZONA 10;2.0;6.2964321;-75.56390569999999
687;20009461;Granero oti;Medellín;CL 64AA#103D-25;2674086;3000.0;27/12/2019;20006628.0;TIENDA PRUEBA GESTOR ZONA 10;2.0;6.2975458;-75.5660736
688;20009462;Granero los 3 pasos;Medellín;CR 63E#103D-77;3045350431;3000.0;27/12/2019;20006628.0;TIENDA PRUEBA GESTOR ZONA 10;2.0;6.2967254;-75.5645353
689;20009463;Granero belarcazar;Medellín;CL 103#63E-36;4780887;3000.0;27/12/2019;20006628.0;TIENDA PRUEBA GESTOR ZONA 10;2.0;6.2958293;-75.56457089999999
690;20009464;La Esquinita;Itaguí;CL 36#54-41;3183808102;3000.0;27/12/2019;20006910.0;TIENDA PRUEBA GESTOR ZONA 11;2.0;6.1688697;-75.6234836
691;20009465;Mi pequeña  isabela;Itaguí;CL 40#51-68;6054327;3000.0;27/12/2019;20004654.0;Tienda Gestor Medellin Zona;2.0;6.1708039;-75.6176246
692;20009466;La palmera;Itaguí;CL 40#50A-24;3122149029;3000.0;27/12/2019;20004654.0;Tienda Gestor Medellin Zona;2.0;6.169820899999999;-75.6171032
693;20009467;Granero michel;Medellín;CR 66#92F-62;4716615;3000.0;27/12/2019;20006628.0;TIENDA PRUEBA GESTOR ZONA 10;2.0;6.2865889;-75.5718715
694;20009468;Carpa azul;Medellín;CR 66#95-124;3113234801;3000.0;27/12/2019;20006628.0;TIENDA PRUEBA GESTOR ZONA 10;2.0;6.290322499999999;-75.5706625
695;20009469;La reja blanca;Medellín;CL 103#64-10;3113164061;3000.0;27/12/2019;20006628.0;TIENDA PRUEBA GESTOR ZONA 10;2.0;6.296494399999999;-75.565857
696;20009471;Super mercado mixto;Medellín;CR 64A#103-08;5058138;3000.0;27/12/2019;20006628.0;TIENDA PRUEBA GESTOR ZONA 10;2.0;6.2972923;-75.5655068
697;20009472;Granero luz;Medellín;CR 64A#103D-55;2672368;3000.0;27/12/2019;20006628.0;TIENDA PRUEBA GESTOR ZONA 10;2.0;6.2972923;-75.5655068
698;20009473;Autoservicio belarcazar;Medellín;CL 103#63E-107;2336209;3000.0;27/12/2019;20006628.0;TIENDA PRUEBA GESTOR ZONA 10;2.0;6.295947399999999;-75.5652126
699;20009474;El sol;Medellín;CL 103#63E-59;3122475711;3000.0;27/12/2019;20006628.0;TIENDA PRUEBA GESTOR ZONA 10;2.0;6.2957231;-75.5648836
700;20009476;Tienda el lucero;Itaguí;DG 43#37-24;5963427;3000.0;27/12/2019;20008805.0;Tienda Gestor Medellin Zona;2.0;6.160527000000001;-75.6177664
701;20009477;Tienda pocholo;Medellín;CR 74#42 SUR-22;3002253110;3000.0;27/12/2019;20006910.0;TIENDA PRUEBA GESTOR ZONA 11;2.0;6.2484744;-75.59349449999999
702;20009478;La ventana verde;Itaguí;CL 39 D#67-06;3162210188;3000.0;27/12/2019;20006910.0;TIENDA PRUEBA GESTOR ZONA 11;2.0;6.172485;-75.59525119999999
703;20009479;Variedades cate;Itaguí;CR 61A#23-59;3017952606;3000.0;27/12/2019;20006910.0;TIENDA PRUEBA GESTOR ZONA 11;2.0;6.171272999999999;-75.62862
704;20009480;Tienda luisa;Medellín;CL 103D#63E-69;5043166;3000.0;27/12/2019;20006627.0;Tienda Gestor Medellin Zona;2.0;6.296339499999999;-75.5648722
705;20009482;Meridor San Francisco;Itaguí;CR 65#25-122;6005860;3000.0;27/12/2019;20006910.0;TIENDA PRUEBA GESTOR ZONA 11;2.0;6.1691391;-75.6423803
706;20009483;La carpa;Medellín;CR 64#103-54;3016292280;3000.0;27/12/2019;20006627.0;Tienda Gestor Medellin Zona;2.0;6.2964807;-75.56564999999999
707;20009484;Tienda angel;Medellín;CL 103#63E-194;2675505;3000.0;27/12/2019;20006627.0;Tienda Gestor Medellin Zona;2.0;6.295820099999999;-75.5645572
708;20011618;callejon don nely;Medellín;CL 66F#37-41;3128722493;3000.0;6/03/2020;;;2.0;6.259668;-75.5489802
709;20011622;Granero la 80m;Medellín;CL 97 # 76 - 181;3023112063;3000.0;6/03/2020;;;2.0;6.295360199999999;-75.5812195
710;20011628;Gayoli;Medellín;CL 66E#37-30;3127848701;3000.0;6/03/2020;;;2.0;6.2594102;-75.5490008
711;20003545;Tienda J y M;Santiago de cali;CL 18 # 18 - 46;3188474125;2000.0;19/01/2019;;;1.0;3.4392527;-76.5224616
712;20003866;Variedades Angie Valeria;Santiago de cali;CL 16 #  21  -31;3206964847;2000.0;31/01/2019;;;;3.3664904;-76.53001859999999
713;20003869;Tienda Nancy;Santiago de cali;CL 16 A # 23 - 04;3206543276;2000.0;31/01/2019;;;;3.4359755;-76.52380749999999
714;20004012;Tienda Diaz;Santiago de cali;CR 26 U # 91 - 10;3104003048;2000.0;31/01/2019;;;1.0;3.42019;-76.4801892
715;20004013;Tienda Mixta;Santiago de cali;CR 27 # 91 - 142;3184021055;2000.0;31/01/2019;;;;3.4188657;-76.4797071
716;20004500;Tienda Mixta;Santiago de cali;CL 17 # 18 A - 14;3207353382;2000.0;22/04/2019;;;;3.4398029;-76.52342349999999
717;20004205;Tienda Mixta;Santiago de cali;CR 49 # 40 A -19;4051125;2000.0;24/02/2019;;;1.0;3.4036131;-76.51938
718;20004593;Tienda Mixta;Santiago de cali;CR 49 C # 44 - 17;3102390529;2000.0;22/05/2019;;;;3.4000304;-76.5177941
720;20000069;Tienda Mixta JF;Santiago de cali;CL 82 # 3 N - 04;4336952;2000.0;7/12/2016;;;;3.4140474;-76.49040889999999
721;20004373;Mercali;Santiago de cali;CL 83 A # 5 N - 72;3044825735;2000.0;8/03/2019;;;;3.4990105;-76.4934549
722;20004601;Tienda Mixta Diana;Santiago de cali;CL 42 A # 25 C - 27;3132897284;2000.0;22/05/2019;;;;3.4356607;-76.5011877
723;20004228;Tienda Mixta;Santiago de cali;CL 47 # 46 - 44;3100000000;2000.0;24/02/2019;;;1.0;3.4022153;-76.5117149
724;20004517;Tienda Los Helechos;Santiago de cali;CR 9 # 81 - 33;3184993204;2000.0;27/04/2019;;;;3.4475572;-76.5343003
725;20003639;Tienda La Cuarta C;Santiago de cali;AV 4 A OESTE # 16 - 61;8942693;2000.0;19/01/2019;;;1.0;3.4523534;-76.5614346
726;20003638;Tienda Mixta El Oasis;Santiago de cali;AV 4 A # 22 - 27;3184937105;2000.0;19/01/2019;;;;3.4519152;-76.5639802
727;20003630;Tienda Mixto Paty;Santiago de cali;AV 5 OESTE # 11 - 29;3105034971;2000.0;19/01/2019;;;1.0;3.4528078;-76.56645879999999
728;20003627;Tienda Punto Azul;Santiago de cali;CR 90 OESTE # 3 - 22;3208867500;2000.0;19/01/2019;;;1.0;3.3796086;-76.5598294
729;20003588;Tienda Molano;Santiago de cali;CL 21 B OESTE # 6-90;8943133;2000.0;19/01/2019;;;1.0;3.4530564;-76.56318030000001
730;20003586;Miscelánea El Trigal;Santiago de cali;AV 6 OESTE # 22-65;3148269585;2000.0;19/01/2019;;;1.0;3.4530745;-76.56498669999999
731;20003585;Miscelánea Yuli;Santiago de cali;AV 9 OESTE # 25 B 29;;2000.0;19/01/2019;;;1.0;3.4559655;-76.5695239
732;20003647;Maxitienda La 4;Santiago de cali;AV 4 OESTE # 13 - 224;3206728421;2000.0;19/01/2019;;;;3.4513445;-76.5406498
733;20003646;Tienda Pipe;Santiago de cali;AV 4 A OESTE # 20 - 86;8828251;2000.0;19/01/2019;;;1.0;3.4523534;-76.5614346
734;20003641;La Prosperidad;Santiago de cali;CLL 19 # 7 B - 23;3117663674;2000.0;19/01/2019;;;1.0;3.4545051;-76.55934549999999
735;20003584;Tienda Sofi;Santiago de cali;AV 7 OESTE # 23 B 76;8944970;2000.0;19/01/2019;;;1.0;3.4536286;-76.5653122
736;20003577;Tienda Ruiz C;Santiago de cali;AV 5 OESTE # 25 - 05;3116233374;2000.0;19/01/2019;;;1.0;3.4532991;-76.5691008
737;20003578;Tienda Playmaniaticos;Santiago de cali;CL 25 OESTE # 5 - 26;8942848;2000.0;19/01/2019;;;1.0;3.4536762;-76.5684622
738;20003580;Tienda Chelito;Santiago de cali;CL 25 OESTE # 5 - 63;3182903257;2000.0;19/01/2019;;;1.0;3.4536762;-76.5684622
739;20003633;Tienda Liliana;Santiago de cali;AV 8 OESTE # 18 - 59;3122393122;2000.0;19/01/2019;;;1.0;3.4551793;-76.5592552
740;20003635;Tienda Don Julio;Santiago de cali;AV 8 OESTE # 19 - 31;8944153;2000.0;19/01/2019;;;1.0;3.45522;-76.5604913
741;20003643;Manuelita;Santiago de cali;AV 8 OESTE # 19 - 141;3147571483;2000.0;19/01/2019;;;1.0;3.45522;-76.5604913
742;20003644;Tienda Mixta;Santiago de cali;AV 8 OESTE # 19 A - 08;3134066613;2000.0;19/01/2019;;;1.0;3.45522;-76.5604913
743;20003581;Tienda Mixta;Santiago de cali;AV 7 OESTE # 26 A 40;3115804243;2000.0;19/01/2019;;;1.0;3.4535024;-76.5645461
744;20003583;Tienda Mixta;Santiago de cali;CL 24 OESTE # 5-30;3122984468;2000.0;19/01/2019;;;;3.4530707;-76.5671455
745;20003590;Tienda Mixta;Santiago de cali;AV  6 OESTE # 17-93;316716988;2000.0;19/01/2019;;;1.0;3.4534338;-76.5671375
746;20003592;Tienda Mixta;Santiago de cali;AV 6 OESTE # 14-52;3104097020;2000.0;19/01/2019;;;;3.4535229;-76.5597702
747;20003622;Tienda Mixta;Santiago de cali;AV 6 OESTE # 19 - 81;3128253623;2000.0;19/01/2019;;;1.0;3.4532863;-76.56656989999999
748;20003640;Tienda Mixta;Santiago de cali;AV 7 B OESTE # 19 - 19;3162260714;2000.0;19/01/2019;;;1.0;3.4542134;-76.5614928
749;20003642;Tienda Mixta;Santiago de cali;AV 8 OESTE # 19 - 53;3215425510;2000.0;19/01/2019;;;1.0;3.45522;-76.5604913
750;20003645;Tienda Mixta;Santiago de cali;AV 4 AOESTE # 22 B - 86;;2000.0;19/01/2019;;;1.0;3.4509768;-76.5643874
751;20003859;Tienda Mixta;Santiago de cali;AV 4 A OESTE # 23 A - 01;3157530850;2000.0;30/01/2019;;;;3.4522204;-76.5668151
752;20003861;Tienda Mixta Luz;Santiago de cali;AV 4 A OESTE # 19 - 64;3205416000;2000.0;30/01/2019;;;;3.4525977;-76.5605853
753;20003857;La Tiendita;Santiago de cali;CL 26 OESTE # 4 A - 25;3113602768;2000.0;30/01/2019;;;;3.4525719;-76.5702866
755;20003674;Variedades Nuri;Santiago de cali;AV 5 A # 9 - 53;316629738;2000.0;30/01/2019;;;;3.4855017;-76.52348309999999
756;20003632;Tienda Mixta;Santiago de cali;CL 19 BIS # 7 B - 8;3175629088;2000.0;19/01/2019;;;1.0;3.4558386;-76.56123769999999
757;20004374;La Exitosa;Santiago de cali;AV 7 OESTE # 19 - 60;318950717;2000.0;8/03/2019;;;;3.4540415;-76.5598966
758;20004375;Tienda Mixta Laura;Santiago de cali;CL 19 OESTE # 8 A BIS - 68;3173354502;2000.0;8/03/2019;;;;3.4549502;-76.5594212
759;20004378;Tienda Luz Dary;Santiago de cali;CL 21 B # 6 - 53;3182437818;2000.0;8/03/2019;;;1.0;3.4535109;-76.56328859999999
760;20004451;Tienda Lina Isabel;Santiago de cali;CL 37 # 34 - 10;3205771431;2000.0;20/03/2019;;;;3.4199579;-76.5065848
761;20004130;Tienda El Descanso;Yumbo;CR 13 # 6 - 04;3122502038;2000.0;11/02/2019;;;;3.5766377;-76.4959061
762;20004390;Tienda Mixta;Santiago de cali;CL 72 W # 28 E 3 - 37;4010614;2000.0;20/03/2019;;;;3.4516467;-76.5319854
763;20004407;Variedades Camilin;Santiago de cali;CR 28 D 2 # 72 Y - 02;3185471808;2000.0;20/03/2019;;;1.0;3.4190841;-76.4889498
764;20004419;Tienda Mixta;Santiago de cali;CR 28 B 2 # 72 W - 91;3137017186;2000.0;20/03/2019;;;1.0;3.4280496;-76.49610369999999
765;20004498;Tienda Mixta;Santiago de cali;CL 72 Z 2# 2 B 3 - 60;3138106260;2000.0;22/04/2019;;;1.0;3.4174508;-76.4908049
766;20004519;Tienda Mixta;Santiago de cali;CR 28 # 72 Z - 94;4011291;2000.0;27/04/2019;;;1.0;3.4220066;-76.48684190000002
767;20003621;Tienda Mixta Vargas;Santiago de cali;CL 99 # 27 D - 101;3167866708;2000.0;19/01/2019;;;1.0;3.4163356;-76.4800448
768;20003956;Rapitienda Kiara;Jamundí;CL 9 E # 50 A SUR - 12;3148829947;2000.0;31/01/2019;;;;3.227521;-76.51198339999999
769;20003959;Rapitienda Lina;Jamundí;CL 9 B # 50 A SUR - 38;3117778876;2000.0;31/01/2019;;;1.0;3.2632046;-76.5403382
770;20003962;La Esperanza;Jamundí;CL 8 D # 50 SUR - 42;3137637057;2000.0;31/01/2019;;;1.0;3.2503213;-76.5370969
771;20003963;Tienda La Bendicion;Jamundí;CL 23 # 36 SUR - 18 ;3213381446;2000.0;31/01/2019;;;;3.2617697;-76.5403266
772;20003965;Tienda El Rodeo Diaz;Jamundí;CL 22 # 36 SUR - 18 ;3136158418;2000.0;31/01/2019;;;1.0;3.2617697;-76.5403266
773;20003981;Tienda Mixta;Jamundí;CL 10 # 45 S - 15;3155369567;2000.0;31/01/2019;;;;3.2617697;-76.5403266
774;20003984;Tienda Aquí Es;Jamundí;CL 8 F # 45 S - 27;3107188298;2000.0;31/01/2019;;;;3.2617697;-76.5403266
775;20003986;Tienda Mixta Diana;Jamundí;CR 49 S # 8 E - 03;3146816149;2000.0;31/01/2019;;;1.0;3.2363115;-76.5115938
776;20003987;Tienda Mixta;Jamundí;CR 49 S # 8 E - 15;3165389950;2000.0;31/01/2019;;;;3.2363115;-76.5115938
777;20003990;Tienda Mixta Bonanza;Jamundí;CL 8 B # 42 S SUR - 67;3206255294;2000.0;31/01/2019;;;;3.2507149;-76.53777869999999
778;20003991;Tienda Vivi;Jamundí;CL 8 B # 45 SUR - 39;3117076083;2000.0;31/01/2019;;;;3.2507149;-76.53777869999999
779;20004008;Tienda Detodito;Santiago de cali;CL 86 # 27 B - 74;3128322409;2000.0;31/01/2019;;;1.0;3.4200085;-76.4826568
780;20004009;Tienda Paola;Santiago de cali;CR 28 - 3 # 102 - 48;4263462;2000.0;31/01/2019;;;1.0;3.414337;-76.47966269999999
781;20004010;Fruver Mercado Lili;Santiago de cali;CL 99 # 27 D - 03;3185710117;2000.0;31/01/2019;;;;3.4169732;-76.47958
782;20004011;Tienda La Economia;Santiago de cali;CL 99 #  27 D - 17;3185036302;2000.0;31/01/2019;;;1.0;3.4168226;-76.4795834
783;20004014;Tienda La Garantia;Santiago de cali;CR 27 D # 94 - 45;4222517;2000.0;31/01/2019;;;;3.4177701;-76.48029489999999
784;20004083;Tienda Nissi;Jamundí;CL 9 B # 50 S - 72;3186882293;2000.0;1/02/2019;;;1.0;3.2267521;-76.5115783
785;20004084;Tienda Grajales;Jamundí;CL 9 B # 50 S - 29;3174924356;2000.0;1/02/2019;;;1.0;3.2267521;-76.5115783
786;20004085;Tienda Cami;Jamundí;CL 9 B # 50 SUR - 21;3168871969;2000.0;1/02/2019;;;1.0;3.2364099;-76.509537
787;20004165;Tienda La Gran Economia;Santiago de cali;CR 47 D # 56 C - 24;3145249175;2000.0;15/02/2019;;;1.0;3.440992;-76.4967113
788;20004171;Tienda Marlin;Santiago de cali;CR 46 B # 56 G - 03;3154292280;2000.0;15/02/2019;;;1.0;3.4019502;-76.5125454
789;20004201;Tienda Mixta Bolaños;Jamundí;CL 8 E # 50 A S - 31;3235166898;2000.0;24/02/2019;;;1.0;3.2244088;-76.51225749999999
790;20004212;Tienda  Maira;Jamundí;CL 8 F # 50 A S - 71;3174170451;2000.0;24/02/2019;;;1.0;3.2267521;-76.5115783
791;20004239;Rapitienda y Distribuidora Landazur;Jamundí;CL 8 G # 54 B SUR - 39;3172670919;2000.0;24/02/2019;;;1.0;3.223343;-76.5082369
792;20004247;Tienda La 40;Jamundí;CR 40 SUR # 10 A - 28;;2000.0;24/02/2019;;;1.0;3.2617697;-76.5403266
793;20004262;Minimarket JFG;Santiago de cali;CR 26 B # 77 - 89;3206725782;2000.0;4/03/2019;;;1.0;3.4366283;-76.4775913
794;20004289;Tienda Mixta;Santiago de cali;CR 26 P 17 # 103 A - 53;3196863435;2000.0;4/03/2019;;;;3.4198822;-76.47697289999999
795;20004358;Tienda Mixta;Santiago de cali;CL 79 # 26 C - 29;3202538512;2000.0;8/03/2019;;;1.0;3.4345313;-76.4773592
796;20004445;Variedades Meier;Santiago de cali;CL 56 I # 49 G - 19;3207468673;2000.0;20/03/2019;;;1.0;3.3929486;-76.50954190000002
797;20004449;Tienda Mixta;Santiago de cali;CR 26 B 1 # 73 - 59;3164772575;2000.0;20/03/2019;;;1.0;3.4394267;-76.48334229999999
798;20004602;Tienda Mixta;Santiago de cali;CL 33 H # 25  - 26;4482401;2000.0;22/05/2019;;;1.0;3.4350424;-76.5066765
799;20004490;Avicola Pensilvania;Jamundí;CL  8 G # 50 A SUR  - 39;3126735357;2000.0;1/04/2019;;;;3.2267521;-76.5115783
800;20003495;Tienda Mixta Edilma;Santiago de cali;CL 43 # 25 C - 24;3152252170;2000.0;18/01/2019;;;1.0;3.4063889;-76.512689
801;20004288;Distri Market;Santiago de cali;CL 72 F # 3 A N - 87;3187431764;2000.0;4/03/2019;;;1.0;3.4242556;-76.49775129999999
803;20003960;Tienda Bethel;Jamundí;CL 9 # 50 SUR - 82;3008850844;2000.0;31/01/2019;;;;3.2632046;-76.5403382
804;20004489;Tienda Viveres Doña Elsy;Jamundí;CR 51 SUR # 9 D - 11;3138075837;2000.0;1/04/2019;;;;3.2357332;-76.5064362
805;20004487;Tienda Minimarket Kprichos;Jamundí;CR 49 S # 9 B - 03;3204812588;2000.0;1/04/2019;;;;3.2511789;-76.53708309999999
806;20011632;Los uribe;Medellín;CR 39#66C-59;3234772658;3000.0;6/03/2020;;;2.0;6.2589766;-75.5503131
807;20007336;El garage blanco;Medellín;CR 50C#95-96;2140788;3000.0;18/11/2019;20006628.0;TIENDA PRUEBA GESTOR ZONA 10;2.0;6.288268899999999;-75.55952409999999
808;20007337;Perchis;Medellín;CR 50C#94-112;3117814100;3000.0;18/11/2019;20006628.0;TIENDA PRUEBA GESTOR ZONA 10;2.0;6.2868533;-75.5595084
809;20007338;Variedades EMI;Medellín;CR 50B#95-53;3103909791;3000.0;18/11/2019;20006627.0;Tienda Gestor Medellin Zona;2.0;6.2876372;-75.5590962
810;20007351;La 88;Medellín;CL 88#48-29;3164565633;3000.0;18/11/2019;20006910.0;TIENDA PRUEBA GESTOR ZONA 11;2.0;6.2802655;-75.55597949999999
811;20007368;Fruver la 96 Patri;Medellín;CL 96#50C-22;3222314811;3000.0;19/11/2019;20006628.0;TIENDA PRUEBA GESTOR ZONA 10;2.0;6.288651;-75.5598504
812;20007370;Granero la econolia;Medellín;CR 50D#96-04;3136794941;3000.0;19/11/2019;20006627.0;Tienda Gestor Medellin Zona;2.0;6.288697;-75.56004399999999
813;20007380;La Tienda Verde;Medellín;CR 51 # 96 - 96 IN 101;5039886;3000.0;19/11/2019;20006628.0;TIENDA PRUEBA GESTOR ZONA 10;2.0;6.289368100000001;-75.5605829
814;20007434;Mecatiadero de marina;Medellín;CR 49B#93-93;2149541;3000.0;20/11/2019;20006628.0;TIENDA PRUEBA GESTOR ZONA 10;2.0;6.2853753;-75.55740879999999
815;20007437;Casa verde;Medellín;CR 50 A#92-60;3104518344;3000.0;20/11/2019;20006627.0;Tienda Gestor Medellin Zona;2.0;6.2838563;-75.5584366
816;20007438;Parche 50ª;Medellín;CR 50A#92-70;5227164;3000.0;20/11/2019;20006628.0;TIENDA PRUEBA GESTOR ZONA 10;2.0;6.2839344;-75.558432
817;20007526;Minimercado Samy;Medellín;CR 49B#92-114;3148490196;3000.0;22/11/2019;20006628.0;TIENDA PRUEBA GESTOR ZONA 10;2.0;6.2842483;-75.5571563
818;20007527;La Gran Esquina;Medellín;CL 90A#49B-01;3128287143;3000.0;22/11/2019;20006628.0;TIENDA PRUEBA GESTOR ZONA 10;2.0;6.282269299999999;-75.5573981
819;20007528;Tienda vero;Medellín;CL 90#50-06;3116141523;3000.0;22/11/2019;20006628.0;TIENDA PRUEBA GESTOR ZONA 10;2.0;6.282256599999999;-75.5580757
820;20007529;La buena gracia;Medellín;CL 93#49B-01;3143325563;3000.0;22/11/2019;20006627.0;Tienda Gestor Medellin Zona;2.0;6.2845974;-75.5572786
821;20007530;Tienda luz;Medellín;CR 49B#90-43;5213718;3000.0;22/11/2019;20006627.0;Tienda Gestor Medellin Zona;2.0;6.282549800000001;-75.5575095
822;20007612;Compremos;Medellín;CL 90#50B-05;2362846;3000.0;25/11/2019;20006628.0;TIENDA PRUEBA GESTOR ZONA 10;2.0;6.2820804;-75.5593237
823;20007646;Minimercado apolo 13;Medellín;CL 94A#45A-41;3217058026;3000.0;26/11/2019;20006628.0;TIENDA PRUEBA GESTOR ZONA 10;2.0;6.286339;-75.5529992
824;20007647;DEWTZ;Medellín;CR 45A#94A-24;2363855;3000.0;26/11/2019;20006627.0;Tienda Gestor Medellin Zona;2.0;6.2863696;-75.5526596
825;20007649;Matias;Medellín;CR 47#93-43;3017071076;3000.0;26/11/2019;20006628.0;TIENDA PRUEBA GESTOR ZONA 10;2.0;6.2848466;-75.5550116
826;20007650;Los Olivos;Medellín;CR 48#93-08;3194264210;3000.0;26/11/2019;20006628.0;TIENDA PRUEBA GESTOR ZONA 10;2.0;6.284548000000001;-75.55546439999999
827;20007651;Reja gris;Medellín;CL 97A#45A-06;3207214993;3000.0;26/11/2019;20006627.0;Tienda Gestor Medellin Zona;2.0;6.2889898;-75.5525909
828;20007652;Guadarajara;Medellín;CL 94A#45A-47;5222509;3000.0;26/11/2019;20006627.0;Tienda Gestor Medellin Zona;2.0;6.2863438;-75.5530479
829;20007654;Variedades aliza;Medellín;CR 46#93-80;5850142;3000.0;26/11/2019;20006627.0;Tienda Gestor Medellin Zona;2.0;6.2851313;-75.5535951
830;20007677;La vacancita;Medellín;CR 50A#87-56;3203604630;3000.0;27/11/2019;20006627.0;Tienda Gestor Medellin Zona;2.0;6.280194;-75.558408
831;20007678;Gabriel;Medellín;CL 89A#50A-30;4895290;3000.0;27/11/2019;20006628.0;TIENDA PRUEBA GESTOR ZONA 10;2.0;6.2815197;-75.5589495
832;20007686;TIENDA LAMI;Medellín;CR 53#92-45;3136141325;3000.0;27/11/2019;20005905.0;Tienda gestor Medellín zona 3;2.0;6.2843447;-75.563591
833;20007695;Tienda dercho;Medellín;CL 96#45A-21;4769320;3000.0;27/11/2019;20004652.0;Tienda Gestor Medellin Zona 2;2.0;6.287501;-75.5528617
834;20007696;Tienda Otoniel;Medellín;CR 42#108A-53;3014625193;3000.0;27/11/2019;20004652.0;Tienda Gestor Medellin Zona 2;2.0;6.254464599999999;-75.6219639
835;20007701;Granero y legumbres yireth;Medellín;CL 93#45-13;3045516062;3000.0;28/11/2019;20006248.0;TIENDA PRUEBA VINCULACION DIANA MES;2.0;6.2841359;-75.5527512
836;20007704;Tienda diana;Medellín;CR 46A#94-49;3177780130;3000.0;28/11/2019;20006248.0;TIENDA PRUEBA VINCULACION DIANA MES;2.0;6.2860514;-75.5543181
837;20007708;Tienda QyQ;Medellín;CR 50D#86B-35;3127479703;3000.0;28/11/2019;20006628.0;TIENDA PRUEBA GESTOR ZONA 10;2.0;6.2793585;-75.560769
838;20007713;Granero y Legumbres Guarniciones FY;Medellín;CR 46A # 96 - 45;3147211883;3000.0;28/11/2019;20006248.0;TIENDA PRUEBA VINCULACION DIANA MES;2.0;6.2881773;-75.5541264
839;20007722;Tienda la tia;Medellín;CL 95#44-63;3135765771;3000.0;28/11/2019;20004652.0;Tienda Gestor Medellin Zona 2;2.0;6.2864258;-75.5516513
840;20007723;La ventanita;Medellín;CR 46A#94-35;2360785;3000.0;28/11/2019;20004652.0;Tienda Gestor Medellin Zona 2;2.0;6.286147799999999;-75.5542385
841;20007724;Variedades mechitas;Medellín;CR 46A#93-78;2360720;3000.0;28/11/2019;20004652.0;Tienda Gestor Medellin Zona 2;2.0;6.2850594;-75.55406339999999
842;20007727;Salsamentaria Rogelin;Medellín;CL 95 # 49 - 40;3218255571;3000.0;28/11/2019;20004652.0;Tienda Gestor Medellin Zona 2;2.0;6.2872507;-75.556333
843;20007729;Tienda la cruz;Medellín;CL 94#50-11;4972058;3000.0;28/11/2019;20004652.0;Tienda Gestor Medellin Zona 2;2.0;6.2858234;-75.5579937
844;20007730;Braema;Medellín;CR 50#94-106;3122005316;3000.0;28/11/2019;20006248.0;TIENDA PRUEBA VINCULACION DIANA MES;2.0;6.286760399999999;-75.5576518
845;20007731;El mejorbpunto;Medellín;CR 50A#93-116;3147366194;3000.0;28/11/2019;20006248.0;TIENDA PRUEBA VINCULACION DIANA MES;2.0;6.2855874;-75.5583486
846;20007735;El Ambiente;Medellín;CR 50AA#87-134;3024111447;3000.0;28/11/2019;20006628.0;TIENDA PRUEBA GESTOR ZONA 10;2.0;6.2805287;-75.55901159999999
848;20007738;Tienda SyS;Medellín;CR 51#89-01;5873115;3000.0;28/11/2019;20006627.0;Tienda Gestor Medellin Zona;2.0;6.2812671;-75.5611603
849;20007741;Tienda vero;Medellín;CL 85#52A-24;3012540318;3000.0;28/11/2019;20006627.0;Tienda Gestor Medellin Zona;2.0;6.189786199999999;-75.5895918
850;20007745;Alaska;Medellín;CR 48#95-02;3103581079;3000.0;28/11/2019;20006248.0;TIENDA PRUEBA VINCULACION DIANA MES;2.0;6.2870629;-75.555368
851;20007747;Garaje blanco;Medellín;CR 50#95-77;2364406;3000.0;28/11/2019;20004652.0;Tienda Gestor Medellin Zona 2;2.0;6.2877711;-75.5578888
852;20007748;Tienda nueva esquina;Medellín;CR 96#59-6;5219974;3000.0;28/11/2019;20004652.0;Tienda Gestor Medellin Zona 2;2.0;6.257325799999999;-75.61233589999999
853;20007749;Granero las minitas;Medellín;CR 50B#94-120;3016056546;3000.0;28/11/2019;20004652.0;Tienda Gestor Medellin Zona 2;2.0;6.2868856;-75.558883
854;20007750;Reja cafe;Medellín;CR 50D#94-56;5070203;3000.0;28/11/2019;20004652.0;Tienda Gestor Medellin Zona 2;2.0;6.2864407;-75.56012489999999
855;20007751;Tienda nena;Medellín;CR 50 D # 94 -83;3154189319;3000.0;28/11/2019;20004652.0;Tienda Gestor Medellin Zona 2;2.0;6.2865449;-75.5603355
856;20007758;La ventanita;Medellín;CR 57A # 83B-140;3217311879;3000.0;29/11/2019;20006248.0;TIENDA PRUEBA VINCULACION DIANA MES;2.0;6.277906;-75.56548599999999
857;20007776;La gran esquina;Medellín;CR 44A#96-76;3148309819;3000.0;29/11/2019;20006628.0;TIENDA PRUEBA GESTOR ZONA 10;2.0;6.288132399999999;-75.5515336
858;20007778;Garage Green;Medellín;CL 97#45A-54;5211211;3000.0;29/11/2019;20006628.0;TIENDA PRUEBA GESTOR ZONA 10;2.0;6.288572200000001;-75.553069
859;20007779;Tienda marina;Medellín;CL 97#45A-59;5212351;3000.0;29/11/2019;20006627.0;Tienda Gestor Medellin Zona;2.0;6.2882867;-75.5531445
860;20007864;Panadería del m;Medellín;CL 89#54B-25;3114559666;3000.0;3/12/2019;20006248.0;TIENDA PRUEBA VINCULACION DIANA MES;2.0;6.281415099999999;-75.5657384
861;20007905;Yulahen;Medellín;CR 46#89-118;3122503423;3000.0;4/12/2019;20004652.0;Tienda Gestor Medellin Zona 2;2.0;6.2818327;-75.5535324
862;20007907;Margarita;Medellín;CL 92#46-49;2879377;3000.0;4/12/2019;20004651.0;Tienda Gestor Medellin Zona;2.0;6.283037500000001;-75.5542006
863;20007912;Tienda win;Medellín;CR 47#92-113;3004981223;3000.0;4/12/2019;20004652.0;Tienda Gestor Medellin Zona 2;2.0;6.284138599999999;-75.55503499999999
864;20007916;Luyan;Medellín;CR 49A#92-24;3112102117;3000.0;4/12/2019;20004651.0;Tienda Gestor Medellin Zona;2.0;6.2835019;-75.5565428
865;20007918;Bambu;Medellín;CR 49B#92-44;2364956;3000.0;4/12/2019;20004651.0;Tienda Gestor Medellin Zona;2.0;6.2836739;-75.55719030000002
866;20007921;Fruvercosta;Medellín;CL 93#49B-21;5805003;3000.0;4/12/2019;20004652.0;Tienda Gestor Medellin Zona 2;2.0;6.2844487;-75.557414
867;20007922;Punto Arana;Medellín;CR 50#92-78;3192824059;3000.0;4/12/2019;20004652.0;Tienda Gestor Medellin Zona 2;2.0;6.2841792;-75.5576833
868;20007923;Tienda pompilio;Medellín;CL 90#49B-35;3136282324;3000.0;4/12/2019;20004651.0;Tienda Gestor Medellin Zona;2.0;6.281966799999999;-75.5577297
869;20007925;Tienda lj;Medellín;CR 49A#90-52;3218182987;3000.0;4/12/2019;20006248.0;TIENDA PRUEBA VINCULACION DIANA MES;2.0;6.2826077;-75.5567092
870;20007928;Distribuidora silver;Medellín;CL 92#50-41;3208810075;3000.0;4/12/2019;20006248.0;TIENDA PRUEBA VINCULACION DIANA MES;2.0;6.283259999999999;-75.55832819999999
871;20007930;Helados gloria;Medellín;CR 53#93-52;3193868657;3000.0;4/12/2019;20004652.0;Tienda Gestor Medellin Zona 2;2.0;6.2858335;-75.56291449999999
872;20007931;Granero 2f;Medellín;CR 53#94A-01;3206695569;3000.0;4/12/2019;20006248.0;TIENDA PRUEBA VINCULACION DIANA MES;2.0;6.286772;-75.56328119999999
873;20007938;Granero la palma;Medellín;CL 91#50B-68;5815191;3000.0;4/12/2019;20004652.0;Tienda Gestor Medellin Zona 2;2.0;6.2831416;-75.5598265
874;20007939;Granero bedoya;Medellín;CR 50C#92-03;5815191;3000.0;4/12/2019;20004652.0;Tienda Gestor Medellin Zona 2;2.0;6.283468399999999;-75.5598504
875;20007942;Tienda nicolle;Medellín;CR 45A#89-131;3116260047;3000.0;5/12/2019;20004651.0;Tienda Gestor Medellin Zona;2.0;6.2440266;-75.5674571
876;20007943;Berlin;Medellín;CR 45A#90-05;3137626005;3000.0;5/12/2019;20006248.0;TIENDA PRUEBA VINCULACION DIANA MES;2.0;6.282006099999999;-75.5531228
877;20007944;Tienda lalo;Medellín;CR 45#88-54;3004777159;3000.0;5/12/2019;20004651.0;Tienda Gestor Medellin Zona;2.0;6.280866000000001;-75.55255
878;20007945;La cristalina;Medellín;CR 46#86-33;3136993836;3000.0;5/12/2019;20004651.0;Tienda Gestor Medellin Zona;2.0;6.2792069;-75.55417709999999
879;20007949;La maria;Medellín;CL 89#47-05;3137976690;3000.0;5/12/2019;20004651.0;Tienda Gestor Medellin Zona;2.0;6.2807673;-75.55505769999999
880;20007950;La amistad;Medellín;CR 47#89-47;3124650335;3000.0;5/12/2019;20004652.0;Tienda Gestor Medellin Zona 2;2.0;6.2812801;-75.555154
881;20007951;Legumbre G M;Medellín;CL 90#46A-50;3007747145;3000.0;5/12/2019;20004652.0;Tienda Gestor Medellin Zona 2;2.0;6.282251800000001;-75.5547304
882;20007952;Rapitienda banckoc;Medellín;CR 48#89A-72;5869042;3000.0;5/12/2019;20004651.0;Tienda Gestor Medellin Zona;2.0;6.2818903;-75.55543519999999
883;20007953;Salsamentria frutos;Medellín;CL 89#48-04;3002528275;3000.0;5/12/2019;20006248.0;TIENDA PRUEBA VINCULACION DIANA MES;2.0;6.2809235;-75.5557221
884;20007955;Granero el parque;Medellín;CR 49#89-97;2128705;3000.0;5/12/2019;20004652.0;Tienda Gestor Medellin Zona 2;2.0;6.2817113;-75.5561946
885;20007956;Tienda Beatriz;Medellín;CR 49#90-88;5229213;3000.0;5/12/2019;20004652.0;Tienda Gestor Medellin Zona 2;2.0;6.282763999999999;-75.5560184
886;20007958;Mercados pedrolo;Medellín;CR 51#91-13;3148354418;3000.0;5/12/2019;20004652.0;Tienda Gestor Medellin Zona 2;2.0;6.2827549;-75.56131119999999
887;20007959;Tienda mildre;Medellín;CR 46#87-16;3147013035;3000.0;5/12/2019;20006248.0;TIENDA PRUEBA VINCULACION DIANA MES;2.0;6.2799149;-75.5537356
888;20007960;Tiendo don mateo;Medellín;CL 90#46A-45;3128113065;3000.0;5/12/2019;20006248.0;TIENDA PRUEBA VINCULACION DIANA MES;2.0;6.281978899999999;-75.5547417
889;20007965;Mados;Medellín;CR 51#89-04;2633811;3000.0;5/12/2019;20004651.0;Tienda Gestor Medellin Zona;2.0;6.281292499999999;-75.5611603
890;20007968;Quinta del jardin3216606429;Medellín;CL 88B#51B-03;3216606429;3000.0;5/12/2019;20006248.0;TIENDA PRUEBA VINCULACION DIANA MES;1.0;6.2811194;-75.56251879999999
891;20007972;La reja verde;Medellín;CR 55#90-82;2140762;3000.0;5/12/2019;20006248.0;TIENDA PRUEBA VINCULACION DIANA MES;2.0;6.2836062;-75.565185
892;20007973;Granero y carnicería la buena esqui;Medellín;CR 55#94CC-31;5813282;3000.0;5/12/2019;20004652.0;Tienda Gestor Medellin Zona 2;2.0;6.2872305;-75.56445819999999
893;20007974;Santa marta;Medellín;CL 94CC#55-36;3046476778;3000.0;5/12/2019;20004651.0;Tienda Gestor Medellin Zona;2.0;6.287367799999999;-75.5646481
894;20007975;Legumbre la amistad;Medellín;CR 51B#86-42;5823128;3000.0;5/12/2019;20004652.0;Tienda Gestor Medellin Zona 2;2.0;6.279230300000001;-75.56199
895;20007991;Los tios;Medellín;CL 92B#53A-06;5735445;3000.0;6/12/2019;20006248.0;TIENDA PRUEBA VINCULACION DIANA MES;2.0;6.2848671;-75.5637642
896;20007993;Puerto escondido;Medellín;CL 92A#53-22;3103819930;3000.0;6/12/2019;20004652.0;Tienda Gestor Medellin Zona 2;2.0;6.2844027;-75.5637551
897;20007389;Las margaritas;Santiago de cali;CL 74BN#2-51;3783336;2000.0;19/11/2019;20006229.0;Lady Johana Tabares - Gestor Zona;2.0;3.4052585;-76.503412
898;20008007;Justo para ti;Medellín;CL 94A#55-,28;3015898766;3000.0;6/12/2019;20006248.0;TIENDA PRUEBA VINCULACION DIANA MES;2.0;6.2865679;-75.56462379999999
899;20008033;Tienda rocio;Medellín;CL 91#31A-36;2362876;3000.0;6/12/2019;20006248.0;TIENDA PRUEBA VINCULACION DIANA MES;2.0;6.282293399999999;-75.54724709999999
900;20008041;La zarca;Medellín;CR 51A#92-125;3013667977;3000.0;6/12/2019;20006248.0;TIENDA PRUEBA VINCULACION DIANA MES;2.0;6.284474299999999;-75.5617295
901;20008044;La reja café;Medellín;CL 92#46A-30;5852810;3000.0;6/12/2019;20004652.0;Tienda Gestor Medellin Zona 2;2.0;6.2833669;-75.55457
902;20008045;Tienda y legumbre la ventanita;Medellín;CL 92#55-24;3104185797;3000.0;6/12/2019;20004652.0;Tienda Gestor Medellin Zona 2;2.0;6.2844462;-75.5654926
903;20009641;Reja gris;Medellín;CR 48#95-05;5233575;3000.0;3/01/2020;20004654.0;Tienda Gestor Medellin Zona;2.0;6.2870959;-75.5553645
904;20009645;La tienda de juan;Medellín;CR 49#95-02;3226059214;3000.0;3/01/2020;20004654.0;Tienda Gestor Medellin Zona;2.0;6.2870909;-75.5559686
905;20009649;Los recuerdos de ella;Medellín;CR 49A#95-104;3117015865;3000.0;3/01/2020;20004654.0;Tienda Gestor Medellin Zona;2.0;6.2879227;-75.5563222
906;20009686;Mercadiario la pila;Medellín;CR 44A#94-134;3147741907;3000.0;4/01/2020;20004654.0;Tienda Gestor Medellin Zona;2.0;6.2855675;-75.5517309
907;20009778;Donde el profe;Medellín;CR 46A#94-19;3128245211;3000.0;8/01/2020;20004654.0;Tienda Gestor Medellin Zona;2.0;6.285831099999999;-75.5543292
908;20009785;Tienda el tío;Medellín;CL 92#46A-19;3005482126;3000.0;8/01/2020;20004654.0;Tienda Gestor Medellin Zona;2.0;6.2830825;-75.5544998
909;20009792;La palma;Medellín;CR 46A#90-35;3146372147;3000.0;8/01/2020;20004654.0;Tienda Gestor Medellin Zona;2.0;6.2823948;-75.5544963
910;20009803;Tienda Gonzalo;Medellín;CR 47#94-17;5595835;3000.0;8/01/2020;20004654.0;Tienda Gestor Medellin Zona;2.0;6.2858431;-75.5547572
911;20009806;Bar social anda luz;Medellín;CR 48#92-121;3216335016;3000.0;8/01/2020;20004654.0;Tienda Gestor Medellin Zona;2.0;6.2842389;-75.5556543
912;20009834;Rey;Medellín;CR 50C#94-83;3148646133;3000.0;9/01/2020;20004654.0;Tienda Gestor Medellin Zona;2.0;6.286633999999999;-75.5598205
913;20009841;Granos y legumbres FC;Medellín;CR 50C#93-105;3122495615;3000.0;9/01/2020;20004654.0;Tienda Gestor Medellin Zona;2.0;6.285573299999999;-75.5598528
914;20009886;Vilbao la 58;Medellín;CR 52#93-6;3003605478;3000.0;10/01/2020;20004654.0;Tienda Gestor Medellin Zona;2.0;6.2849821;-75.5625012
915;20010012;El almendro;Medellín;CR 50B#95-64;3106647517;3000.0;14/01/2020;20004654.0;Tienda Gestor Medellin Zona;2.0;6.2877112;-75.5588069
916;20010149;Salsamentaria Villa Rica;Medellín;CR 46 # 95A - 19;3217005603;3000.0;16/01/2020;20004654.0;Tienda Gestor Medellin Zona;2.0;6.2871795;-75.5535595
917;20009485;Venus;Medellín;CR 64B#103D-37;2672147;3000.0;27/12/2019;20006627.0;Tienda Gestor Medellin Zona;2.0;6.297878799999999;-75.56632549999999
918;20009486;La esquina;Medellín;CR 64A#103D-5;311801562;3000.0;27/12/2019;20006627.0;Tienda Gestor Medellin Zona;2.0;6.2972923;-75.5655068
919;20009487;El mono;Medellín;CL 103#63E-10;2709061;3000.0;27/12/2019;20006627.0;Tienda Gestor Medellin Zona;2.0;6.2957092;-75.5643928
920;20009488;Esqinazo;Medellín;CR 63D#63-5;3766923;3000.0;27/12/2019;20006627.0;Tienda Gestor Medellin Zona;2.0;6.3092346;-75.5590148
921;20009492;La tienda de la torre;Medellín;CR 64#103-35;4721555;3000.0;27/12/2019;20006628.0;TIENDA PRUEBA GESTOR ZONA 10;2.0;6.296668400000001;-75.5655113
922;20009493;Punto Sol;Itaguí;CL 31 # 61 - 68;5438629;3000.0;27/12/2019;20004880.0;TIENDA GESTOR MEDELLIN ZONA 5;2.0;6.1641881;-75.6289386
923;20009495;Tienda sergio;Medellín;CR 63 # 109A-44;3226652280;3000.0;28/12/2019;20005716.0;Tienda Gestor Medellin Zona 8;2.0;6.3031033;-75.5581922
924;20011633;Ventiadero;Medellín;CR 76#96-31;3113300052;3000.0;6/03/2020;;;2.0;6.2941519;-75.5798848
925;20011644;Las nieves;Medellín;CL 56D#14-43;3112191426;3000.0;6/03/2020;20004651.0;Tienda Gestor Medellin Zona;2.0;6.2506439;-75.6067339
926;20011657;La frontera;Medellín;CR 37#63A-64;3205995320;3000.0;7/03/2020;;;2.0;6.208372;-75.56692799999999
927;20011661;Tienda teilor;Medellín;CR 36A # 63-93;3147409933;3000.0;7/03/2020;;;2.0;6.2542065;-75.5521322
928;20011663;Tienda leo;Medellín;CL 96 # 75-37;3004996435;3000.0;7/03/2020;20011349.0;TIENDA DE PRUEBA Gestor Zona 13;1.0;6.2933058;-75.5791644
929;20011671;Tienda jj;Medellín;CR 74B#96-35;3145391046;3000.0;7/03/2020;;;2.0;6.2935155;-75.5783711
930;20011676;Tienda laura;Medellín;CL 95#74-39;3108384688;3000.0;7/03/2020;;;2.0;6.291684699999999;-75.5782904
931;20011679;Abarrotes Santamaría;Medellín;CL 96#74-45;3206164265;3000.0;7/03/2020;;;2.0;6.292934799999999;-75.5778725
932;20011683;Papelería y variedades;Medellín;CR 74#96-17;3127380802;3000.0;7/03/2020;;;2.0;6.2930525;-75.5774647
933;20011693;Merk star;Envigado;CL 27SUR#27B-28;3015196267;3000.0;8/03/2020;;;2.0;6.174191299999999;-75.5698357
934;20011698;Tienda Linda;Medellín;CR 20B # 56A - 70;43254711;3000.0;9/03/2020;20004651.0;Tienda Gestor Medellin Zona;2.0;6.240685399999999;-75.54243319999999
935;20011700;Merca todo la libertad;Medellín;CL 56B#20B-20;4958191;3000.0;9/03/2020;20004651.0;Tienda Gestor Medellin Zona;2.0;6.241068299999999;-75.5422179
936;20011703;Tienda lucy;Medellín;CL 56 BE#20B-166;3172170558;3000.0;9/03/2020;20004651.0;Tienda Gestor Medellin Zona;2.0;6.2420829;-75.5414945
937;20011705;Mercados familia;Medellín;CL 104#64D-85;3045278656;3000.0;9/03/2020;20004652.0;Tienda Gestor Medellin Zona 2;2.0;6.301471800000001;-75.5660087
938;20011713;Tienda de Álvaro;Medellín;CR 60D#34SUR-06;3157443970;3000.0;9/03/2020;20011350.0;TIENDA DE PRUEBA Gestor Zona 16;2.0;6.307666299999999;-75.5580978
939;20011714;Tienda la cuesta;Medellín;CR 18B#62-52;3045418632;3000.0;9/03/2020;;;2.0;6.2546791;-75.54004789999999
940;20011718;La banca;Medellín;CL 43 SUR # 9 - 50;3122410137;3000.0;9/03/2020;20011350.0;TIENDA DE PRUEBA Gestor Zona 16;2.0;6.1691639;-75.598344
941;20011721;Feber;Medellín;CL 52A#23-07;2693394;3000.0;9/03/2020;20004651.0;Tienda Gestor Medellin Zona;2.0;6.2407039;-75.5459668
942;20011724;La tienda de pio;Medellín;CL 41 SUR#84-31;3175993790;3000.0;9/03/2020;20011350.0;TIENDA DE PRUEBA Gestor Zona 16;2.0;6.1852238;-75.65531810000002
943;20011734;Revuelteria punto verde;Medellín;CL 65#16DDD-251;3008243014;3000.0;9/03/2020;;;2.0;6.2476376;-75.56581530000001
944;20004206;Tienda Nueva Esperanza;Santiago de cali;CR 36 # 38 - 89;4379198;2000.0;24/02/2019;;;1.0;3.434354;-76.5481137
945;20004488;Tienda  y Miscelanea La Martina;Jamundí;CR 51 SUR  # 10 F - 15;3147737199;2000.0;1/04/2019;;;;3.228634;-76.5122523
946;20004074;Tienda Rincon De Isabela;Jamundí;CL 10 F # 50 A S - 23;3212098001;2000.0;1/02/2019;;;1.0;3.2301692;-76.51225989999999
947;20004175;Tienda Y Licores Bonanza;Jamundí;CL 10 F # 50 S - 49;3164811280;2000.0;15/02/2019;;;1.0;3.2501661;-76.5485526
948;20004077;Tienda Rosi;Jamundí;CL 10 A # 50 A S - 71;3164881435;2000.0;1/02/2019;;;1.0;3.2283637;-76.5125236
949;20004069;Supermercado Pague Menos;Jamundí;CR 42 SUR # 18 S - 04;3147742265;2000.0;31/01/2019;;;;3.2392453;-76.5132137
950;20004353;Tienda Munco Pa;Jamundí;CR 42 SUR # 10 D-16;3054556039;2000.0;8/03/2019;;;1.0;3.2392453;-76.5132137
951;20004079;Tienda El Tio;Jamundí;CR 42 S # 9 B-04;3136153585;2000.0;1/02/2019;;;1.0;3.2577341;-76.538469
952;20003988;Tienda Doris;Jamundí;CL 8 B # 42 S - 18;3125669719;2000.0;31/01/2019;;;;3.2507149;-76.53777869999999
953;20014856;miscelánea angela;Santiago de cali;CR 47A # 18 - 47;4852212;2000.0;15/09/2020;3000004.0;MAYRA ALEJANDRA PALECHOR GOMEZ;1.0;3.4087122;-76.5242391
954;20007744;Tienda la esquina;Medellín;CL 51B#94-02;3104294689;3000.0;28/11/2019;20006248.0;TIENDA PRUEBA VINCULACION DIANA MES;2.0;6.2860939;-75.5621302
955;20009852;Tienda carpa azul;Medellín;CL 93#50D-25;2591533;3000.0;9/01/2020;20004654.0;Tienda Gestor Medellin Zona;2.0;6.2846215;-75.5606147
956;20009857;Cigarrera tiempos;Medellín;CL 94#51B-34;3228955387;3000.0;9/01/2020;20004654.0;Tienda Gestor Medellin Zona;2.0;6.2862731;-75.562389
957;20003983;Tienda Mixta;Jamundi;CL 9 # 45 S - 30;3206415055;2000.0;31/01/2019;;;;3.2617697;-76.5403266
958;20009963;Pañalera Sebas;Santiago de cali;CL 82 # 27 - 65;3184491039;2000.0;13/01/2020;20006221.0;Angie Paola Guapi - Gestor Zona;2.0;3.421447;-76.4829731
959;20007385;Reja Verde;Medellín;CL 97A#51B-12;3206872080;3000.0;19/11/2019;20006627.0;Tienda Gestor Medellin Zona;2.0;6.291141;-75.5622575
960;20007718;Punto ve;Medellín;CR 47#97-61;3126823400;3000.0;28/11/2019;20006248.0;TIENDA PRUEBA VINCULACION DIANA MES;2.0;6.2891086;-75.5547721
961;20007726;La carpita;Medellín;CL 97#46A-40;3023682461;3000.0;28/11/2019;20004652.0;Tienda Gestor Medellin Zona 2;2.0;6.290167299999999;-75.5613896
962;20007777;La nueva esquina;Medellín;CR 45A#97-49;3108667745;3000.0;29/11/2019;20006627.0;Tienda Gestor Medellin Zona;2.0;6.2880476;-75.55281610000002
963;20008139;Granero marlondi;Medellín;CL 98#49-81;3136854280;3000.0;9/12/2019;20004652.0;Tienda Gestor Medellin Zona 2;2.0;6.2900114;-75.5569427
964;20012761;Los angeles;Medellín;CL 99 # 52-95 IN 1109;3192729331;3000.0;14/05/2020;20004654.0;Tienda Gestor Medellin Zona;2.0;6.2925156;-75.561934
965;20003546;Miscelánea J V;Santiago de cali;CR 23 # 17 - 44;3175763834;2000.0;19/01/2019;;;1.0;3.4358526;-76.5229025
966;20003543;Tienda Emi;Santiago de cali;CR 21 # 15 B - 04;3165617810;2000.0;19/01/2019;;;1.0;3.4378984;-76.5250176
967;20003544;Tienda Jaime;Santiago de cali;CL 17 # 19 - 03;3156936861;2000.0;19/01/2019;;;1.0;3.4392617;-76.5233074
968;20009621;El Paisano;Medellín;CR 50B # 96 - 32;3218603425;3000.0;30/12/2019;20006627.0;Tienda Gestor Medellin Zona;2.0;6.2885882;-75.5595891
969;20004070;Tienda Flor;Jamundí;CL 10 # 42 S - 18;3024264895;2000.0;31/01/2019;;;;3.2632046;-76.5403382
970;20011751;La  tienda de elete;Medellín;CR 64AA#103D-77;3043454581;3000.0;9/03/2020;20004652.0;Tienda Gestor Medellin Zona 2;2.0;6.297873699999999;-75.5658064
971;20011752;Tienda Yupi;Medellín;CR 77D#108A-28;3127896454;3000.0;9/03/2020;20004880.0;TIENDA GESTOR MEDELLIN ZONA 5;2.0;6.3077143;-75.5740855
972;20011753;Granero centro americá;Medellín;CL 103#64-103;3113548184;3000.0;9/03/2020;20004652.0;Tienda Gestor Medellin Zona 2;2.0;6.2966874;-75.5663172
973;20011764;Tienda variedades;Medellín;CL 107A#81-113;3222448683;3000.0;10/03/2020;20004880.0;TIENDA GESTOR MEDELLIN ZONA 5;2.0;6.3088248;-75.57819359999999
974;20011766;Tienda A y J;Medellín;CL 107A#81-76;5842425;3000.0;10/03/2020;20004880.0;TIENDA GESTOR MEDELLIN ZONA 5;2.0;6.3087244;-75.57783719999999
975;20011769;Mercados Y Cigarrera Matias;Medellín;CR 72 # 90-07;3017714794;3000.0;10/03/2020;;;2.0;6.285532099999999;-75.57837479999999
976;20011771;Betel;Medellín;CL 52#17-15;3017097018;3000.0;10/03/2020;20004651.0;Tienda Gestor Medellin Zona;2.0;6.2367178;-75.5421108
977;20009818;El jardín;Medellín;CR 50B#95-31;3116279832;3000.0;9/01/2020;;;2.0;6.2875799;-75.5590771
978;20011773;Los mejia;Medellín;CL 46#27-49;3017254967;3000.0;10/03/2020;;;2.0;6.2373563;-75.5521973
979;20009501;Tienda s y s;Medellín;CL 104#70-172;3003405710;3000.0;28/12/2019;20004652.0;Tienda Gestor Medellin Zona 2;2.0;6.3011618;-75.5713073
980;20011785;Distribuidora eli;Medellín;CR 74C#89A-51;3042173462;3000.0;10/03/2020;;;2.0;6.2860684;-75.5805919
981;20011786;Tienda encasa;Medellín;CR 28A#52-10;3146151429;3000.0;10/03/2020;20004651.0;Tienda Gestor Medellin Zona;2.0;6.2428313;-75.55060329999999
982;20009504;Tienda jaran;Itaguí;CL 36B#52A-28;3225014331;3000.0;28/12/2019;20004654.0;Tienda Gestor Medellin Zona;2.0;6.1693036;-75.6216091
983;20009506;Salsamentaria pyp;Medellín;CL 113#72-109;3147604287;3000.0;28/12/2019;20006248.0;TIENDA PRUEBA VINCULACION DIANA MES;2.0;6.3089862;-75.5694577
984;20009508;Tienda ramon;Medellín;CL 104#68A-09;6034953;3000.0;28/12/2019;20006248.0;TIENDA PRUEBA VINCULACION DIANA MES;2.0;6.30042;-75.5688661
985;20009509;Tienda munoz;Itaguí;CR 52A#36B-27;6126535;3000.0;28/12/2019;20004880.0;TIENDA GESTOR MEDELLIN ZONA 5;2.0;6.1854154;-75.5966495
986;20009510;Ventanita paulina;Medellín;CL 103D#74-38;3003601444;3000.0;28/12/2019;20006248.0;TIENDA PRUEBA VINCULACION DIANA MES;2.0;6.3012448;-75.57272859999999
987;20009514;El nuevo comienzo;Itaguí;DG 47#34-08;3769479;3000.0;28/12/2019;20004654.0;Tienda Gestor Medellin Zona;2.0;6.165429;-75.61954879999999
988;20009515;La ventana de diego;Itaguí;DG 45#34A-05;3117793331;3000.0;28/12/2019;20004880.0;TIENDA GESTOR MEDELLIN ZONA 5;2.0;6.1656156;-75.6183949
989;20009518;Revuelteria argiro;Medellín;CR 71A#105F-11;3126126718;3000.0;28/12/2019;20006248.0;TIENDA PRUEBA VINCULACION DIANA MES;2.0;6.2820581;-75.5756682
990;20009519;Papelería Gabi;Medellín;CL 104 A # 76-104;3207172193;3000.0;28/12/2019;20006248.0;TIENDA PRUEBA VINCULACION DIANA MES;2.0;6.303641;-75.575379
991;20009520;El viaje trianque;Medellín;CL 94#78A-39;3016228376;3000.0;28/12/2019;20006628.0;TIENDA PRUEBA GESTOR ZONA 10;2.0;6.2917556;-75.5827171
992;20009521;Mercados Salomé;Medellín;CR 78A#92-153;3147730745;3000.0;28/12/2019;20006628.0;TIENDA PRUEBA GESTOR ZONA 10;2.0;6.290839;-75.5826725
993;20009522;El progreso;Medellín;CR 78A#92-105;5852621;3000.0;28/12/2019;20006628.0;TIENDA PRUEBA GESTOR ZONA 10;2.0;6.2904709;-75.5827936
994;20009524;Mercados la 77;Medellín;CR 77#92-242;6031031;3000.0;28/12/2019;20006628.0;TIENDA PRUEBA GESTOR ZONA 10;2.0;6.291315;-75.5818438
995;20009525;Su tienda;Itaguí;CL 25#62B-6;3108344342;3000.0;28/12/2019;20006910.0;TIENDA PRUEBA GESTOR ZONA 11;2.0;6.166847600000001;-75.64276029999999
996;20009527;Salsamentaria J F C;Itaguí;CR 63#25B-94;2795989;3000.0;28/12/2019;20006910.0;TIENDA PRUEBA GESTOR ZONA 11;2.0;6.1671903;-75.6411591
997;20009528;Legumbreria leo;Itaguí;CR 62 B#25 B-03;3218455849;3000.0;28/12/2019;20006910.0;TIENDA PRUEBA GESTOR ZONA 11;2.0;6.1669462;-75.641875
998;20009529;Tienda ana;Medellín;CR 16 # 54-12;3234436513;3000.0;28/12/2019;20006627.0;Tienda Gestor Medellin Zona;2.0;6.2370405;-75.5397796
999;20009530;Tienda Buenavista;Itaguí;CR 57A#54SUR-35;5017154;3000.0;28/12/2019;20008805.0;Tienda Gestor Medellin Zona;2.0;6.1828827;-75.6044655
